locationName,locationOwner,address,cityState,zipcode,country,latitude,longitude,inboundModes,outboundModes,splc,railStation
#2 MONSANTO AVE-SAUGET-IL,"",#2 MONSANTO AVE,"SAUGET, IL",62201,US,38.548,-90.177,"Rail,Truck","Rail,Truck",396609000,SAUGET IL
-AVONLEA-SK,"",,"AVONLEA, SK",S0H,CA,50.01415,-105.06147,"Rail,Truck","Rail,Truck",074145000,AVONLEA SK
"-O'NEILL-NE","",,"O'NEILL, NE",68763,US,42.45397,-98.6546,"Rail,Truck","Rail,Truck",551440000,O NEILL NE
-TUXFORD-SK,"",,"TUXFORD, SK",S0K 4,CA,50.55727,-105.55961,"Rail,Truck","Rail,Truck",075005000,TUXFORD SK
-WATSON-SK,"",,"WATSON, SK",S0K 4,CA,52.12701,-104.52552,"Rail,Truck","Rail,Truck",071511000,WATSON SK
1 ANGELICA ST-SAINT LOUIS-MO,"",1 ANGELICA ST,"SAINT LOUIS, MO",63147,US,38.60078,-90.31445,"Rail,Truck","Rail,Truck",567500000,SAINT LOUIS MO
1 BRUNSWICK ST-MENDON-MO,"",1 BRUNSWICK ST,"MENDON, MO",64660,US,39.5953,-93.1344,"Rail,Truck","Rail,Truck",565740000,MENDON MO
1 CHEVIOT RD-CLAVET-SK,"",1 CHEVIOT RD,"CLAVET, SK",S0K 0Y0,CA,52.01806,-106.28903,"Rail,Truck","Rail,Truck",072313000,CHEVIOT SK
1 DANUSER DRIVE-HERMANN-MO,"",1 DANUSER DRIVE,"HERMANN, MO",65041,US,38.70726,-91.43117,"Rail,Truck","Rail,Truck",568610000,HERMANN MO
1 GULF STATES RD-BEAUMONT-TX,"",1 GULF STATES RD,"BEAUMONT, TX",77705,US,30.04798,-94.07397,"Rail,Truck","Rail,Truck",684320000,CHAISON TX
1 MILE HWY 3 W-BOW ISLAND-AB,"",1 MILE HWY 3 W,"BOW ISLAND, AB",T0K 0G0,CA,49.86738,-111.38775,"Rail,Truck","Rail,Truck",080250000,BOW ISLAND AB
1 PRAIRIE ST-BORGER-TX,"",1 PRAIRIE ST,"BORGER, TX",79007,US,35.6572,-101.39144,"Rail,Truck","Rail,Truck",671685000,BORGER TX
1 PRISCILLA ST-THAMESVILLE-ON,"",1 PRISCILLA ST,"THAMESVILLE, ON",N0P 2K0,CA,42.55066,-81.97462,"Rail,Truck","Rail,Truck",049674000,THAMESVILLE ON
1 RAILWAY AVE-KINCAID-SK,"",1 RAILWAY AVE,"KINCAID, SK",S0H 2J0,CA,49.66813,-106.99225,"Rail,Truck","Rail,Truck",074393000,KINCAID SK
1 TELEPHONE RD-TRENTON-ON,"",1 TELEPHONE RD,"TRENTON, ON",K8V 5P4,CA,44.10547,-77.59167,"Rail,Truck","Rail,Truck",042011000,TRENTON IMS ON
100 BOND ST-HANLEY-SK,"",100 BOND ST,"HANLEY, SK",S0G 2E0,CA,51.62659,-106.44118,"Rail,Truck","Rail,Truck",072042000,HANLEY SK
100 CERES RD-NORTHGATE-SK,"",100 CERES RD,"NORTHGATE, SK",S0C 2B0,CA,48.99886,-102.26449,"Rail,Truck","Rail,Truck",070333000,NORTHGATE SK
100 FIRST AVE-MESA-WA,"",100 FIRST AVE,"MESA, WA",99343,US,46.58751,-118.99808,"Rail,Truck","Rail,Truck",847840000,MESA WA
100 FRASER BLVD-MONCTON-NB,"",100 FRASER BLVD,"MONCTON, NB",E1E 4T3,CA,46.08038,-64.78994,"Rail,Truck","Rail,Truck",015200000,MONCTON NB
100 GRANT ST-FORT MORGAN-CO,"",100 GRANT ST,"FORT MORGAN, CO",80701,US,40.2471,-103.8041,"Rail,Truck","Rail,Truck",743850000,FORT MORGAN CO
100 HERITAGE WAY-MINNEDOSA-MB,"",100 HERITAGE WAY,"MINNEDOSA, MB",R0J,CA,50.25439,-99.84533,"Rail,Truck","Rail,Truck",064475000,MINNEDOSA MB
100 MAIN ST-ABERNATHY-TX,"",100 MAIN ST,"ABERNATHY, TX",79311,US,33.83125,-101.83797,"Rail,Truck","Rail,Truck",674787000,ABERNATHY TX
100 MAIN ST-WALTON-KS,"",100 MAIN ST,"WALTON, KS",67151,US,38.11618,-97.25688,"Rail,Truck","Rail,Truck",588313000,WALTON KS
100 N MAIN ST-FORTUNA-ND,"",100 N MAIN ST,"FORTUNA, ND",58844,US,48.91378,-103.78319,"Rail,Truck","Rail,Truck",513484000,FORTUNA ND
1000 4TH ST NW-HURON-SD,"",1000 4TH ST NW,"HURON, SD",57350,US,44.36885,-98.22612,"Rail,Truck","Rail,Truck",524470000,HURON SD
1000 LANSING ST-NORFOLK-VA,"",1000 LANSING ST,"NORFOLK, VA",23523,US,36.78617,-76.41185,"Rail,Truck","Rail,Truck",261200000,CHESAPEAKE (BB) VA
1000 TERRA DRIVE-WOODWARD-OK,"",1000 TERRA DRIVE,"WOODWARD, OK",73801,US,36.43766,-99.39137,"Rail,Truck","Rail,Truck",632440000,WOODWARD OK
10000 W 900 S-OGDEN-UT,"",10000 W 900 S,"OGDEN, UT",84404,US,41.24438,-112.25911,"Rail,Truck","Rail,Truck",761578000,LITTLE MOUNTAIN UT
1001 GOLDEN DR-CLINTON-MO,"",1001 GOLDEN DR,"CLINTON, MO",64735,US,38.3748,-93.7741,"Rail,Truck","Rail,Truck",573270000,CLINTON MO
1001 NEW FORD MILL RD-MORRISVILLE-PA,"",1001 NEW FORD MILL RD,"MORRISVILLE, PA",19067,US,40.19393,-74.79656,"Rail,Truck","Rail,Truck",207310000,MORRISVILLE (SLRS) PA
101 2ND ST-RIVERS-MB,"",101 2ND ST,"RIVERS, MB",R0K 1X0,CA,50.02906,-100.24006,"Rail,Truck","Rail,Truck",064235000,RIVERS MB
101 5TH ST-BELTRAMI-MN,"",101 5TH ST,"BELTRAMI, MN",56517,US,47.54278,-96.53218,"Rail,Truck","Rail,Truck",503589000,BELTRAMI MN
101 EAST AVE-WOODSTOWN-NJ,"",101 EAST AVE,"WOODSTOWN, NJ",08098,US,39.74098,-75.31921,"Rail,Truck","Rail,Truck",198559000,SWEDESBORO (SLRS) NJ
101 FABRIC LN-ELKIN-NC,"",101 FABRIC LN,"ELKIN, NC",28621,US,36.24277,-80.85166,"Rail,Truck","Rail,Truck",413298000,ELKIN NC
101 HILL ST-SALTCOATS-SK,"",101 HILL ST,"SALTCOATS, SK",S0A 3R0,CA,51.03583,-102.15958,"Rail,Truck","Rail,Truck",071814000,SALTCOATS SK
101 MAIN ST-AXTELL-NE,"",101 MAIN ST,"AXTELL, NE",68924,US,40.478,-99.12691,"Rail,Truck","Rail,Truck",558277000,AXTELL NE
101 MAIN ST-DOON-IA,"",101 MAIN ST,"DOON, IA",51235,US,43.27918,-96.23749,"Rail,Truck","Rail,Truck",542484000,DOON IA
101 N PINE ST-MC BAIN-MI,"",101 N PINE ST,"MC BAIN, MI",49657,US,44.19361,-85.21333,"Rail,Truck","Rail,Truck",314192000,MCBAIN MI
101 RAILRD AVE-SELBY-SD,"",101 RAILRD AVE,"SELBY, SD",57472,US,45.50308,-100.03271,"Rail,Truck","Rail,Truck",522530000,SELBY SD
101 RAILROAD ST-LITCHFIELD-NE,"",101 RAILROAD ST,"LITCHFIELD, NE",68852,US,41.15562,-99.15544,"Rail,Truck","Rail,Truck",555384000,LITCHFIELD NE
101 RAILWAY ST SE-BOWBELLS-ND,"",101 RAILWAY ST SE,"BOWBELLS, ND",58721,US,48.8067,-102.23932,"Rail,Truck","Rail,Truck",513370000,BOWBELLS ND
101 S CHERRY ST-NORBORNE-MO,"",101 S CHERRY ST,"NORBORNE, MO",64668,US,39.30383,-93.67639,"Rail,Truck","Rail,Truck",565995000,NORBORNE MO
101 S DETROIT ST-YUMA-CO,"",101 S DETROIT ST,"YUMA, CO",80759,US,40.12726,-102.7395,"Rail,Truck","Rail,Truck",743159000,YUMA CO
101 S MAPLE ST-SUTHERLAND-NE,"",101 S MAPLE ST,"SUTHERLAND, NE",69165,US,41.15587,-101.13344,"Rail,Truck","Rail,Truck",556567000,SUTHERLAND NE
101 STATE HWY 7-EDDY-TX,"",101 STATE HWY 7,"EDDY, TX",76524,US,31.29481,-97.25203,"Rail,Truck","Rail,Truck",669789000,EDDY TX
1010 E GROVE AVE-PARMA-ID,"",1010 E GROVE AVE,"PARMA, ID",83660,US,43.7657,-116.91036,"Rail,Truck","Rail,Truck",839115000,PARMA ID
1012 LARAMIE AVE-HEMINGFORD-NE,"",1012 LARAMIE AVE,"HEMINGFORD, NE",69348,US,42.32343,-103.07202,"Rail,Truck","Rail,Truck",552426000,HEMINGFORD NE
10120 HIRSCH RD-HOUSTON-TX,"",10120 HIRSCH RD,"HOUSTON, TX",77016,US,29.8209,-95.33503,"Rail,Truck","Rail,Truck",684810000,DIXICO TX
102 2ND ST S-MAX-ND,"",102 2ND ST S,"MAX, ND",58759,US,47.82036,-101.29291,"Rail,Truck","Rail,Truck",516127000,MAX ND
102 GRAND AVE-FOREST CITY-MO,"",102 GRAND AVE,"FOREST CITY, MO",64451,US,39.98255,-95.19419,"Rail,Truck","Rail,Truck",563987000,FOREST CITY MO
102 GREENHALL RD-EDENTON-NC,"",102 GREENHALL RD,"EDENTON, NC",27932,US,36.06055,-76.60944,"Rail,Truck","Rail,Truck",401980000,EDENTON NC
102 INDUSTRIAL AVE-MOHALL-ND,"",102 INDUSTRIAL AVE,"MOHALL, ND",58761,US,48.76333,-101.51277,"Rail,Truck","Rail,Truck",513130000,MOHALL ND
102 N FRONT ST-SHARON SPRINGS-KS,"",102 N FRONT ST,"SHARON SPRINGS, KS",67758,US,38.89424,-101.75132,"Rail,Truck","Rail,Truck",596455000,SHARON SPRINGS KS
102 NW 120TH AVE-MACKSVILLE-KS,"",102 NW 120TH AVE,"MACKSVILLE, KS",67557,US,37.9642,-98.9681,"Rail,Truck","Rail,Truck",589367000,MACKSVILLE KS
102 S 29TH ST-PHOENIX-AZ,"",102 S 29TH ST,"PHOENIX, AZ",85034,US,33.4441,-112.14639,"Rail,Truck","Rail,Truck",797159000,CAMPO AZ
102015 RANGE RD 143-GRASSY LAKE-AB,"",102015 RANGE RD 143,"GRASSY LAKE, AB",T0K 0,CA,49.82625,-111.69995,"Rail,Truck","Rail,Truck",080244000,GRASSY LAKE AB
10226 COUNTY RD 5-EDON-OH,"",10226 COUNTY RD 5,"EDON, OH",43518,US,41.5718,-84.768,"Rail,Truck","Rail,Truck",343552000,EDON OH
103 E 3RD ST-LARNED-KS,"",103 E 3RD ST,"LARNED, KS",67550,US,38.16982,-99.10698,"Rail,Truck","Rail,Truck",594940000,LARNED KS
103 E LINCOLN ST-DANVILLE-IN,"",103 E LINCOLN ST,"DANVILLE, IN",46122,US,39.75214,-86.52144,"Rail,Truck","Rail,Truck",368950000,DANVILLE IN
103 S MAIN ST-CENTERVIEW-MO,"",103 S MAIN ST,"CENTERVIEW, MO",64019,US,38.74562,-93.83207,"Rail,Truck","Rail,Truck",569852000,CENTERVIEW MO
1031 POLAND CENTER RD-KENNEDY-NY,"",1031 POLAND CENTER RD,"KENNEDY, NY",14747,US,42.15722,-79.10222,"Rail,Truck","Rail,Truck",189626000,KENNEDY NY
10391 COUNTY RD K-AUBURNDALE-WI,"",10391 COUNTY RD K,"AUBURNDALE, WI",54412,US,44.62679,-90.00698,"Rail,Truck","Rail,Truck",327418000,AUBURNDALE WI
104 E S ST-BLAKESBURG-IA,"",104 E S ST,"BLAKESBURG, IA",52536,US,40.95757,-92.63616,"Rail,Truck","Rail,Truck",538494000,BLAKESBURG IA
1040 S FM 565 RD-BAYTOWN-TX,"",1040 S FM 565 RD,"BAYTOWN, TX",77523,US,29.81529,-94.91812,"Rail,Truck","Rail,Truck",684735000,ELDON TX
105 392ND AVE S-ABERDEEN-SD,"",105 392ND AVE S,"ABERDEEN, SD",57401,US,45.46638,-98.39014,"Rail,Truck","Rail,Truck",522165000,GREBNER SD
105 4TH AVE SW-RUGBY-ND,"",105 4TH AVE SW,"RUGBY, ND",58368,US,48.36937,-100.00607,"Rail,Truck","Rail,Truck",512734000,RUGBY ND
105 GARFIELD AVE-FARNHAMVILLE-IA,"",105 GARFIELD AVE,"FARNHAMVILLE, IA",50538,US,42.2749,-94.40337,"Rail,Truck","Rail,Truck",543883000,FARNHAMVILLE IA
105 N AGNEW ST-BURKEVILLE-VA,"",105 N AGNEW ST,"BURKEVILLE, VA",23922,US,37.18654,-78.22618,"Rail,Truck","Rail,Truck",262910000,BURKEVILLE (BB) VA
10533 ESTATE RD-TOMAH-WI,"",10533 ESTATE RD,"TOMAH, WI",54660,US,44.01835,-90.44154,"Rail,Truck","Rail,Truck",333632000,NORTH TOMAH WI
1055 COMANCHE RD-INMAN-KS,"",1055 COMANCHE RD,"INMAN, KS",67546,US,38.2934,-97.72894,"Rail,Truck","Rail,Truck",586793000,GROVELAND KS
10577 DOSWELL RD-DOSWELL-VA,"",10577 DOSWELL RD,"DOSWELL, VA",23047,US,37.8593,-77.45835,"Rail,Truck","Rail,Truck",257113000,DOSWELL VA
106 2ND ST NE-LAKE PRESTON-SD,"",106 2ND ST NE,"LAKE PRESTON, SD",57249,US,44.3647,-97.13276,"Rail,Truck","Rail,Truck",524260000,ARLINGTON SD
106 E 19TH ST-GOODLAND-KS,"",106 E 19TH ST,"GOODLAND, KS",67735,US,39.34125,-101.71019,"Rail,Truck","Rail,Truck",593852000,GOODLAND KS
106 N MAIN ST-BOTTINEAU-ND,"",106 N MAIN ST,"BOTTINEAU, ND",58318,US,48.82588,-100.44265,"Rail,Truck","Rail,Truck",512414000,BOTTINEAU ND
106 SCOTSMAN DR-FAIRFAX-SC,"",106 SCOTSMAN DR,"FAIRFAX, SC",29827,US,32.9586,-81.23598,"Rail,Truck","Rail,Truck",448960000,FAIRFAX SC
107 2ND ST-MALCOM-IA,"",107 2ND ST,"MALCOM, IA",50157,US,41.70372,-92.56288,"Rail,Truck","Rail,Truck",535940000,MALCOM IA
10741 S SHORT WAY-YUMA-AZ,"",10741 S SHORT WAY,"YUMA, AZ",85365,US,32.72631,-114.61543,"Rail,Truck","Rail,Truck",798190000,YUMA AZ
10757 US HWY 30-SIDNEY-NE,"",10757 US HWY 30,"SIDNEY, NE",69162,US,41.13913,-102.97726,"Rail,Truck","Rail,Truck",556860000,SIDNEY NE
1080 INDUSTRIAL DRIVE-CHEROKEE-AL,"",1080 INDUSTRIAL DRIVE,"CHEROKEE, AL",35616,US,34.75186,-87.95282,"Rail,Truck","Rail,Truck",473353000,VERTAGREEN AL
10800 RIVER RD-NEW ORLEANS-LA,"",10800 RIVER RD,"NEW ORLEANS, LA",70032,US,29.92,-90.06,"Rail,Truck","Rail,Truck",647000000,EAST BRIDGE LA
10810 6TH ST SE-HANNAFORD-ND,"",10810 6TH ST SE,"HANNAFORD, ND",58448,US,47.31005,-98.19006,"Rail,Truck","Rail,Truck",514474000,HANNAFORD ND
10810 7TH ST SE-HANNAFORD-ND,"",10810 7TH ST SE,"HANNAFORD, ND",58448,US,47.31005,-98.19006,"Rail,Truck","Rail,Truck",514474000,HANNAFORD ND
1084 S PINE ST-COOLIDGE-GA,"",1084 S PINE ST,"COOLIDGE, GA",31738,US,31.01114,-83.86589,"Rail,Truck","Rail,Truck",468820000,COOLIDGE GA
10885 ND HWY 5 NW-NOONAN-ND,"",10885 ND HWY 5 NW,"NOONAN, ND",58765,US,48.8914,-103.0088,"Rail,Truck","Rail,Truck",513415000,NOONAN ND
10889 SD HWY 63-MC LAUGHLIN-SD,"",10889 SD HWY 63,"MC LAUGHLIN, SD",57642,US,45.81565,-100.80952,"Rail,Truck","Rail,Truck",523127000,MCLAUGHLIN SD
109 1ST ST SE-ELBOW LAKE-MN,"",109 1ST ST SE,"ELBOW LAKE, MN",56531,US,45.99046,-95.9764,"Rail,Truck","Rail,Truck",506340000,ELBOW LAKE MN
109 S 6TH ST-WALKER-MO,"",109 S 6TH ST,"WALKER, MO",64790,US,37.89894,-94.23107,"Rail,Truck","Rail,Truck",573847000,WALKER MO
10917 E FM 2150 E COUNTY RD 78-SLATON-TX,"",10917 E FM 2150 E COUNTY RD 78,"SLATON, TX",79364,US,33.4433,-101.6387,"Rail,Truck","Rail,Truck",677173000,SLATON TX
10931 COUNTY HWY K-AUBURNDALE-WI,"",10931 COUNTY HWY K,"AUBURNDALE, WI",54412,US,44.62679,-90.00698,"Rail,Truck","Rail,Truck",327418000,AUBURNDALE WI
1095 S PACIFIC HWY # 99W-RICKREALL-OR,"",1095 S PACIFIC HWY # 99W,"RICKREALL, OR",97371,US,44.907,-123.235,"Rail,Truck","Rail,Truck",854330000,DALLAS OR
11 EXCHANGE ST-STROMSBURG-NE,"",11 EXCHANGE ST,"STROMSBURG, NE",68666,US,41.10639,-97.6098,"Rail,Truck","Rail,Truck",554570000,STROMSBURG NE
11 MAIN AVE-AYR-ND,"",11 MAIN AVE,"AYR, ND",58007,US,47.041,-97.4906,"Rail,Truck","Rail,Truck",514736000,AYR ND
11 MILL ST-AFTON-NY,"",11 MILL ST,"AFTON, NY",13730,US,42.23157,-75.52032,"Rail,Truck","Rail,Truck",186161000,AFTON NY
110 E PINE ST-DENMARK-WI,"",110 E PINE ST,"DENMARK, WI",54208,US,44.3483,-87.8296,"Rail,Truck","Rail,Truck",324773000,DENMARK WI
110 N JEFFERSON AVE-FREDERICKSBURG-IA,"",110 N JEFFERSON AVE,"FREDERICKSBURG, IA",50630,US,43.03672,-92.45828,"Rail,Truck","Rail,Truck",532394000,IONIA IA
110 N RAILROAD ST-MAYVIEW-MO,"",110 N RAILROAD ST,"MAYVIEW, MO",64071,US,39.05258,-93.83386,"Rail,Truck","Rail,Truck",569280000,MAYVIEW MO
110 RAILROAD AVE-GARRETSON-SD,"",110 RAILROAD AVE,"GARRETSON, SD",57030,US,43.71847,-96.50291,"Rail,Truck","Rail,Truck",527135000,GARRETSON SD
110 S COMMERCIAL ST-LA CYGNE-KS,"",110 S COMMERCIAL ST,"LA CYGNE, KS",66040,US,38.34382,-94.76174,"Rail,Truck","Rail,Truck",584714000,LA CYGNE KS
1101 NEWCOMER RD-MOUNT JOY-PA,"",1101 NEWCOMER RD,"MOUNT JOY, PA",17552,US,40.10972,-76.50361,"Rail,Truck","Rail,Truck",209195000,MOUNT JOY PA
1101 WEST HWY 34-AURORA-NE,"",1101 WEST HWY 34,"AURORA, NE",68818,US,40.86331,-98.02101,"Rail,Truck","Rail,Truck",554940000,AURORA NE
11018 STATE HWY 254-FROST-MN,"",11018 STATE HWY 254,"FROST, MN",56033,US,43.58164,-93.92037,"Rail,Truck","Rail,Truck",508787000,FROST MN
1107 DENNIS ST EXT-ENFIELD-NC,"",1107 DENNIS ST EXT,"ENFIELD, NC",27823,US,36.18751,-77.65825,"Rail,Truck","Rail,Truck",402880000,ENFIELD NC
1107 NUMBERLAND ST-AYR-ON,"",1107 NUMBERLAND ST,"AYR, ON",N0B 1E0,CA,43.45529,-80.49446,"Rail,Truck","Rail,Truck",047710000,KITCHENER ON
1107 RENO DR-WAYLAND-MI,"",1107 RENO DR,"WAYLAND, MI",49348,US,42.67354,-85.65034,"Rail,Truck","Rail,Truck",317958000,WAYLAND MI
111 2ND AVE-WALL-SD,"",111 2ND AVE,"WALL, SD",57790,US,43.99666,-102.24144,"Rail,Truck","Rail,Truck",526828000,WALL SD
111 N WEIMER ST-VENTURA-IA,"",111 N WEIMER ST,"VENTURA, IA",50482,US,43.12913,-93.47962,"Rail,Truck","Rail,Truck",533357000,VENTURA IA
11122 S TERMINAL RD-MAPLETON-IL,"",11122 S TERMINAL RD,"MAPLETON, IL",61547,US,40.57903,-89.68,"Rail,Truck","Rail,Truck",388295000,MAPLETON IL
1117 N 400 E-NORTH SALT LAKE-UT,"",1117 N 400 E,"NORTH SALT LAKE, UT",84054,US,40.85993,-111.91086,"Rail,Truck","Rail,Truck",762801000,PIONEER UT
112 GRACE AVE-CLONTARF-MN,"",112 GRACE AVE,"CLONTARF, MN",56226,US,45.37652,-95.67792,"Rail,Truck","Rail,Truck",506724000,CLONTARF MN
112 W 2ND ST-HAVEN-KS,"",112 W 2ND ST,"HAVEN, KS",67543,US,37.89918,-97.78291,"Rail,Truck","Rail,Truck",589143000,HAVEN KS
112 WASHINGTON ST-ONARGA-IL,"",112 WASHINGTON ST,"ONARGA, IL",60955,US,40.72132,-88.00521,"Rail,Truck","Rail,Truck",387158000,ONARGA IL
1124 W RAILROAD ST-FOUNTAINTOWN-IN,"",1124 W RAILROAD ST,"FOUNTAINTOWN, IN",46130,US,39.70735,-85.82492,"Rail,Truck","Rail,Truck",367998000,REEDVILLE IN
1139 WESLEY RD-PEORIA-IL,"",1139 WESLEY RD,"PEORIA, IL",61610,US,40.6816,-89.5973,"Rail,Truck","Rail,Truck",388260000,PEORIA IL
11409 BELTON HONEA PATH HWY-HONEA PATH-SC,"",11409 BELTON HONEA PATH HWY,"HONEA PATH, SC",29654,US,34.44638,-82.39166,"Rail,Truck","Rail,Truck",443669000,HONEA PATH SC
115 DOWNIEVILLE RD-MARS-PA,"",115 DOWNIEVILLE RD,"MARS, PA",16052,US,40.69583,-80.01194,"Rail,Truck","Rail,Truck",216285000,MARS PA
115 N ESSEX ST NE-KALKASKA-MI,"",115 N ESSEX ST NE,"KALKASKA, MI",49646,US,44.73021,-85.16529,"Rail,Truck","Rail,Truck",312650000,KALKASKA MI
1150 E 145TH ST-EAST CHICAGO-IN,"",1150 E 145TH ST,"EAST CHICAGO, IN",46312,US,41.63042,-87.48934,"Rail,Truck","Rail,Truck",363510000,EAST CHICAGO IN
1150 SHOP RD-COLUMBIA-SC,"",1150 SHOP RD,"COLUMBIA, SC",29201,US,34.00621,-81.05057,"Rail,Truck","Rail,Truck",445450000,COLUMBIA SC
11559 US HWY 50-DODGE CITY-KS,"",11559 US HWY 50,"DODGE CITY, KS",67801,US,37.7524,-100.0262,"Rail,Truck","Rail,Truck",597660000,DODGE CITY KS
1157 LINDSAY BLVD-IDAHO FALLS-ID,"",1157 LINDSAY BLVD,"IDAHO FALLS, ID",83402,US,43.50234,-112.03033,"Rail,Truck","Rail,Truck",835150000,IDAHO FALLS ID
116250 HWY 10 NW-ROYALTON-MN,"",116250 HWY 10 NW,"ROYALTON, MN",56373,US,45.8329,-94.2977,"Rail,Truck","Rail,Truck",502870000,ROYALTON MN
118 S COMMERCIAL ST-GLENNS FERRY-ID,"",118 S COMMERCIAL ST,"GLENNS FERRY, ID",83623,US,42.96103,-115.2813,"Rail,Truck","Rail,Truck",838586000,GLENNS FERRY ID
11800 SEARS ST-LIVONIA-MI,"",11800 SEARS ST,"LIVONIA, MI",48150,US,42.37757,-83.41411,"Rail,Truck","Rail,Truck",318333000,LIVONIA MI
11834 DUNCAN AVE-WALNUT GROVE-MN,"",11834 DUNCAN AVE,"WALNUT GROVE, MN",56180,US,44.22485,-95.46795,"Rail,Truck","Rail,Truck",509298000,WALNUT GROVE MN
1185 WILLOW RD-PLYMOUTH-WI,"",1185 WILLOW RD,"PLYMOUTH, WI",53073,US,43.73995,-87.96899,"Rail,Truck","Rail,Truck",332158000,PLYMOUTH WI
11853 733 RD-HOLDREGE-NE,"",11853 733 RD,"HOLDREGE, NE",68949,US,40.45192,-99.29874,"Rail,Truck","Rail,Truck",558347000,WAC NE
1191 LONGSTREET-WILLIS-TX,"",1191 LONGSTREET,"WILLIS, TX",77318,US,30.41813,-95.47703,"Rail,Truck","Rail,Truck",682920000,WILLIS TX
1193 RICHVALE HWY-RICHVALE-CA,"",1193 RICHVALE HWY,"RICHVALE, CA",95974,US,39.51684,-121.75134,"Rail,Truck","Rail,Truck",872794000,RICHVALE CA
12 HAMILTON ST-SCRANTON-ND,"",12 HAMILTON ST,"SCRANTON, ND",58653,US,46.1445,-103.1427,"Rail,Truck","Rail,Truck",519965000,SCRANTON ND
12 KM W OF BIGGAR ON HWY 14-BIGGAR-SK,"",12 KM W OF BIGGAR ON HWY 14,"BIGGAR, SK",S0K 0M0,CA,52.12716,-108.14243,"Rail,Truck","Rail,Truck",077203000,OBAN SK
120 5TH AVE-LANGDON-ND,"",120 5TH AVE,"LANGDON, ND",58249,US,48.7536,-98.3661,"Rail,Truck","Rail,Truck",511357000,LANGDON ND
120 S FRANKLIN ST-PARKER-IN,"",120 S FRANKLIN ST,"PARKER, IN",47368,US,40.18956,-85.20299,"Rail,Truck","Rail,Truck",367155000,PARKER CITY IN
1200 MORICE RIVER SERVICE RD-HOUSTON-BC,"",1200 MORICE RIVER SERVICE RD,"HOUSTON, BC",V0J 1Z1,CA,54.4003,-126.65032,"Rail,Truck","Rail,Truck",097218000,HOUSTON BC
1201 N MAIN ST-MOULTRIE-GA,"",1201 N MAIN ST,"MOULTRIE, GA",31768,US,31.17972,-83.78916,"Rail,Truck","Rail,Truck",468660000,MOULTRIE GA
12015 STATE ROUTE 65-OTTAWA-OH,"",12015 STATE ROUTE 65,"OTTAWA, OH",45875,US,41.02219,-84.04709,"Rail,Truck","Rail,Truck",346350000,OTTAWA OH
1203 330TH ST-BURT-IA,"",1203 330TH ST,"BURT, IA",50522,US,43.20176,-94.21911,"Rail,Truck","Rail,Truck",541143000,BURT IA
1203 RISING RIDGE RD-MOUNT AIRY-MD,"",1203 RISING RIDGE RD,"MOUNT AIRY, MD",21771,US,39.36141,-77.15753,"Rail,Truck","Rail,Truck",232860000,MT AIRY MD
1205 RICHMOND AVE STE B-STAUNTON-VA,"",1205 RICHMOND AVE STE B,"STAUNTON, VA",24401,US,38.14679,-79.06685,"Rail,Truck","Rail,Truck",258700000,STAUNTON (BB) VA
1208 MAIN ST-MOORLAND-IA,"",1208 MAIN ST,"MOORLAND, IA",50566,US,42.4048,-94.37806,"Rail,Truck","Rail,Truck",543691000,ROELYN IA
1208 W 50 S-BLACKFOOT-ID,"",1208 W 50 S,"BLACKFOOT, ID",83221,US,43.19221,-112.53376,"Rail,Truck","Rail,Truck",835277000,ROCKFORD ID
121 ELLIOTT AVE-HYSHAM-MT,"",121 ELLIOTT AVE,"HYSHAM, MT",59038,US,46.29289,-107.23831,"Rail,Truck","Rail,Truck",708440000,HYSHAM MT
121 LASSIE-HILLS-IA,"",121 LASSIE,"HILLS, IA",52235,US,41.55433,-91.53681,"Rail,Truck","Rail,Truck",535688000,HILLS IA
121 S 1ST-THOMAS-OK,"",121 S 1ST,"THOMAS, OK",73669,US,35.74972,-98.75972,"Rail,Truck","Rail,Truck",635417000,THOMAS OK
1210 S MANUFACTURERS ROW-TRENTON-TN,"",1210 S MANUFACTURERS ROW,"TRENTON, TN",38382,US,35.98042,-88.95548,"Rail,Truck","Rail,Truck",438550000,TRENTON TN
1212 BAY LAKES RD-SHAWANO-WI,"",1212 BAY LAKES RD,"SHAWANO, WI",54166,US,44.78193,-88.59991,"Rail,Truck","Rail,Truck",325250000,SHAWANO WI
1219 INDUSTRIAL RD-NAMPA-ID,"",1219 INDUSTRIAL RD,"NAMPA, ID",83687,US,43.57838,-116.55695,"Rail,Truck","Rail,Truck",839167000,NAMPA ID
1220 HOLTON RD-MUSKEGON-MI,"",1220 HOLTON RD,"MUSKEGON, MI",49445,US,43.23416,-86.24833,"Rail,Truck","Rail,Truck",317270000,MUSKEGON MI
123 MCARTHUR DR-COLEMAN-WI,"",123 MCARTHUR DR,"COLEMAN, WI",54112,US,45.065,-88.03416,"Rail,Truck","Rail,Truck",320498000,COLEMAN WI
1231 POPE ST-MEMPHIS-TN,"",1231 POPE ST,"MEMPHIS, TN",38108,US,35.0386,-89.91302,"Rail,Truck","Rail,Truck",439900000,AIR PARK TN
1234 E COUNTRY RD JUA WITH PRIVATELY OWNED TRACK-DON-ID,"",1234 E COUNTRY RD JUA WITH PRIVATELY OWNED TRACK,"DON, ID",83201,US,42.9099,-112.53295,"Rail,Truck","Rail,Truck",836311000,DON ID
1234 E COUNTY RD-POCATELLO-ID,"",1234 E COUNTY RD,"POCATELLO, ID",83204,US,42.9099,-112.53295,"Rail,Truck","Rail,Truck",836311000,DON ID
12390 BRIGHTON RD-HENDERSON-CO,"",12390 BRIGHTON RD,"HENDERSON, CO",80640,US,39.92502,-104.84992,"Rail,Truck","Rail,Truck",744169000,HENDERSON CO
1250 146TH AVE-WAYLAND-MI,"",1250 146TH AVE,"WAYLAND, MI",49348,US,42.74053,-85.66516,"Rail,Truck","Rail,Truck",317939000,MOLINE MI
12550 S COLORADO-HELM-CA,"",12550 S COLORADO,"HELM, CA",93627,US,36.53204,-120.09508,"Rail,Truck","Rail,Truck",878779000,HELM CA
1280 JEFFERSON LN-COLTON-CA,"",1280 JEFFERSON LN,"COLTON, CA",92324,US,34.06537,-117.32826,"Rail,Truck","Rail,Truck",880286000,COLTON CA
1280 SERN WAY-SPARKS-NV,"",1280 SERN WAY,"SPARKS, NV",89431,US,39.53146,-119.75213,"Rail,Truck","Rail,Truck",864168000,SPARKS NV
12804 90TH ST SW-SCRANTON-ND,"",12804 90TH ST SW,"SCRANTON, ND",58653,US,46.1121,-103.0445,"Rail,Truck","Rail,Truck",519832000,KNIFE RIVER ND
1284 CHERRY ST RD-CRESTON-IA,"",1284 CHERRY ST RD,"CRESTON, IA",50801,US,41.0569,-94.3546,"Rail,Truck","Rail,Truck",548450000,CRESTON IA
12862 COTTONVILLE RD-NORWOOD-NC,"",12862 COTTONVILLE RD,"NORWOOD, NC",28128,US,35.2236,-80.12694,"Rail,Truck","Rail,Truck",416675000,NORWOOD (ACWR) NC
1290 RUNDELL RD-GERING-NE,"",1290 RUNDELL RD,"GERING, NE",69341,US,41.83017,-103.65925,"Rail,Truck","Rail,Truck",556360000,GERING NE
12939 AVON ALLEN RD-BURLINGTON-WA,"",12939 AVON ALLEN RD,"BURLINGTON, WA",98233,US,48.47477,-122.32845,"Rail,Truck","Rail,Truck",844391000,BURLINGTON WA
12965 DEFIANCE PIKE-CYGNET-OH,"",12965 DEFIANCE PIKE,"CYGNET, OH",43413,US,41.24,-83.65,"Rail,Truck","Rail,Truck",343681000,CYGNET OH
13007 DOWNS RD NE-MOUNT ANGEL-OR,"",13007 DOWNS RD NE,"MOUNT ANGEL, OR",97362,US,45.0679,-122.7999,"Rail,Truck","Rail,Truck",854123000,MT ANGEL OR
1301 RUST RD-CONCORDIA-KS,"",1301 RUST RD,"CONCORDIA, KS",66901,US,39.57453,-97.66063,"Rail,Truck","Rail,Truck",583628000,CONCORDIA KS
1301 SPRING CREEK RD-BAINBRIDGE-GA,"",1301 SPRING CREEK RD,"BAINBRIDGE, GA",39817,US,30.91,-84.58636,"Rail,Truck","Rail,Truck",469850000,BAINBRIDGE (GSWR) GA
1306 E WALNUT-LEXINGTON-NE,"",1306 E WALNUT,"LEXINGTON, NE",68850,US,40.77663,-99.74468,"Rail,Truck","Rail,Truck",555960000,LEXINGTON NE
1306 NGATE RD-WASHBURN-ND,"",1306 NGATE RD,"WASHBURN, ND",58577,US,47.28839,-101.0315,"Rail,Truck","Rail,Truck",516190000,WASHBURN ND
1307 S X RD-HAMPTON-NE,"",1307 S X RD,"HAMPTON, NE",68843,US,40.87811,-97.8834,"Rail,Truck","Rail,Truck",554934000,HAMPTON NE
13100 12TH AVE N-PLYMOUTH-MN,"",13100 12TH AVE N,"PLYMOUTH, MN",55441,US,45.04896,-93.39724,"Rail,Truck","Rail,Truck",504546000,PLYMOUTH MN
1311 RD B-BRADSHAW-NE,"",1311 RD B,"BRADSHAW, NE",68319,US,40.88178,-97.74657,"Rail,Truck","Rail,Truck",554864000,BRADSHAW NE
13118 STATE RD 31 S-KENTON-OH,"",13118 STATE RD 31 S,"KENTON, OH",43326,US,40.64382,-83.60921,"Rail,Truck","Rail,Truck",346650000,KENTON OH
132 POSTLE AVE-MORRAL-OH,"",132 POSTLE AVE,"MORRAL, OH",43337,US,40.68681,-83.2125,"Rail,Truck","Rail,Truck",348520000,MORRAL OH
13209 RICHFIELD DR-CLINT-TX,"",13209 RICHFIELD DR,"CLINT, TX",79836,US,31.59152,-106.22793,"Rail,Truck","Rail,Truck",696823000,CLINT TX
13219 HWY 13-GWINNER-ND,"",13219 HWY 13,"GWINNER, ND",58040,US,46.22779,-97.66297,"Rail,Truck","Rail,Truck",517627000,GWINNER ND
13219 MAUGANSVILLE RD-HAGERSTOWN-MD,"",13219 MAUGANSVILLE RD,"HAGERSTOWN, MD",21740,US,39.69346,-77.74867,"Rail,Truck","Rail,Truck",233425000,MAUGANSVILLE MD
1323 RIALTO RD-YAZOO CITY-MS,"",1323 RIALTO RD,"YAZOO CITY, MS",39194,US,32.8511,-90.4137,"Rail,Truck","Rail,Truck",485730000,YAZOO CITY MS
13310 BEECH RD-BOURBON-IN,"",13310 BEECH RD,"BOURBON, IN",46504,US,41.29555,-86.11638,"Rail,Truck","Rail,Truck",362865000,BOURBON IN
13323 JAMES MADISON HWY-ORANGE-VA,"",13323 JAMES MADISON HWY,"ORANGE, VA",22960,US,38.24314,-78.11,"Rail,Truck","Rail,Truck",252778000,ORANGE (BB) VA
13395 N HWY 91-LEWISTON-UT,"",13395 N HWY 91,"LEWISTON, UT",84320,US,41.9816,-111.81322,"Rail,Truck","Rail,Truck",761320000,PRESTO UT
1340 HARLLEES BRIDGE RD-LITTLE ROCK-SC,"",1340 HARLLEES BRIDGE RD,"LITTLE ROCK, SC",29567,US,34.4725,-79.40689,"Rail,Truck","Rail,Truck",444116000,LITTLE ROCK SC
13438 TERMINAL RD-IPSWICH-SD,"",13438 TERMINAL RD,"IPSWICH, SD",57451,US,45.44299,-98.92507,"Rail,Truck","Rail,Truck",522417000,CRAVEN SD
13445 341ST AVE-ROSCOE-SD,"",13445 341ST AVE,"ROSCOE, SD",57471,US,45.44928,-99.33979,"Rail,Truck","Rail,Truck",522444000,ROSCOE SD
1349 75TH ST-BRADFORD-IA,"",1349 75TH ST,"BRADFORD, IA",50041,US,42.63225,-93.247,"Rail,Truck","Rail,Truck",533687000,BRADFORD IA
13555 11TH AVE-HANFORD-CA,"",13555 11TH AVE,"HANFORD, CA",93230,US,36.26925,-119.6459,"Rail,Truck","Rail,Truck",879556000,KINGS PARK CA
13583 WHEELER RD NE-MOSES LAKE-WA,"",13583 WHEELER RD NE,"MOSES LAKE, WA",98837,US,47.1361,-119.17689,"Rail,Truck","Rail,Truck",842652000,WHEELER WA
13589 MAIN ST-LEMONT-IL,"",13589 MAIN ST,"LEMONT, IL",60439,US,41.67536,-88.00293,"Rail,Truck","Rail,Truck",381364000,LEMONT IL
136 ALEXIS DR-BRISTOL-VA,"",136 ALEXIS DR,"BRISTOL, VA",24202,US,36.62869,-82.13911,"Rail,Truck","Rail,Truck",267883000,CECIL VA
1368 PHELPS JUNCTION RD-PHELPS-NY,"",1368 PHELPS JUNCTION RD,"PHELPS, NY",14532,US,42.96744,-77.08649,"Rail,Truck","Rail,Truck",183707000,PHELPS JCT NY
13730 HWY S27-ALDEN-IA,"",13730 HWY S27,"ALDEN, IA",50006,US,39.15494,-108.73282,"Rail,Truck","Rail,Truck",756436000,FRUITA CO
1377 COUNTY RD 10-CAVAN-ON,"",1377 COUNTY RD 10,"CAVAN, ON",L0A 1C0,CA,44.22932,-78.38849,"Rail,Truck","Rail,Truck",042515000,CAVAN ON
13795 N 100 E-MILFORD-IN,"",13795 N 100 E,"MILFORD, IN",46542,US,41.42907,-85.84478,"Rail,Truck","Rail,Truck",362621000,MILFORD JCT IN
13845 HWY 66-CRYSTAL-ND,"",13845 HWY 66,"CRYSTAL, ND",58222,US,48.59845,-97.66836,"Rail,Truck","Rail,Truck",511187000,CRYSTAL ND
13866 US HWY 301 S-ROWLAND-NC,"",13866 US HWY 301 S,"ROWLAND, NC",28383,US,34.54461,-79.28751,"Rail,Truck","Rail,Truck",408677000,ROWLAND NC
13906 US HWY 24 W-BURNETTSVILLE-IN,"",13906 US HWY 24 W,"BURNETTSVILLE, IN",47926,US,40.7666,-86.59495,"Rail,Truck","Rail,Truck",366432000,BURNETTSVILLE IN
140 PACIFIC AVE-WINNEMUCCA-NV,"",140 PACIFIC AVE,"WINNEMUCCA, NV",89445,US,40.97156,-117.75112,"Rail,Truck","Rail,Truck",861165000,WINNEMUCCA NV
1400 - 17TH ST EAST-BRANDON-MB,"",1400 - 17TH ST EAST,"BRANDON, MB",R7A 7,CA,49.8413,-99.9515,"Rail,Truck","Rail,Truck",063495000,BRANDON MB
14000 SW HWY 99W-MCMINNVILLE-OR,"",14000 SW HWY 99W,"MCMINNVILLE, OR",97128,US,45.106,-123.079,"Rail,Truck","Rail,Truck",853973000,WHITESON OR
1401 E HADLEY ST-PHOENIX-AZ,"",1401 E HADLEY ST,"PHOENIX, AZ",85034,US,33.44353,-112.07904,"Rail,Truck","Rail,Truck",797000000,PHOENIX AZ
1401 SE 1ST ST-ONTARIO-OR,"",1401 SE 1ST ST,"ONTARIO, OR",97914,US,43.9885,-116.97316,"Rail,Truck","Rail,Truck",856121000,ONTARIO OR
1402 N THIERMAN RD-SPOKANE VALLEY-WA,"",1402 N THIERMAN RD,"SPOKANE VALLEY, WA",99212,US,47.65582,-117.41665,"Rail,Truck","Rail,Truck",840600000,SPOKANE WA
1403 PINE CREEK RD-COKEVILLE-WY,"",1403 PINE CREEK RD,"COKEVILLE, WY",83114,US,42.06599,-110.9516,"Rail,Truck","Rail,Truck",739154000,COKEVILLE WY
1403 RD 14-YORK-NE,"",1403 RD 14,"YORK, NE",68467,US,40.87417,-97.59857,"Rail,Truck","Rail,Truck",554850000,YORK NE
1408 EBENEZER RD-DARLINGTON-SC,"",1408 EBENEZER RD,"DARLINGTON, SC",29532,US,34.29972,-79.87638,"Rail,Truck","Rail,Truck",441760000,DARLINGTON SC
141 N RAILROAD ST-MERNA-NE,"",141 N RAILROAD ST,"MERNA, NE",68856,US,41.4845,-99.7578,"Rail,Truck","Rail,Truck",555437000,MERNA NE
14101 INDUSTRIAL PKWY-MARYSVILLE-OH,"",14101 INDUSTRIAL PKWY,"MARYSVILLE, OH",43040,US,40.20522,-83.31951,"Rail,Truck","Rail,Truck",348962000,SCOTTSLAWN OH
1411 CAMPBELL ST-TOLEDO-OH,"",1411 CAMPBELL ST,"TOLEDO, OH",43607,US,41.63993,-83.58664,"Rail,Truck","Rail,Truck",343138000,AIR LINE JUNCTION OH
1411 INDUSTRIAL DR-FAYETTEVILLE-NC,"",1411 INDUSTRIAL DR,"FAYETTEVILLE, NC",28301,US,35.04972,-78.88722,"Rail,Truck","Rail,Truck",407774000,RIVER TERMINAL NC
1412 ELEVATOR RD-CROSSFIELD-AB,"",1412 ELEVATOR RD,"CROSSFIELD, AB",T0M 0S0,CA,51.27882,-114.0107,"Rail,Truck","Rail,Truck",084122000,CROSSFIELD AB
14139 US HWY 84-ANDALUSIA-AL,"",14139 US HWY 84,"ANDALUSIA, AL",36421,US,31.30833,-86.48333,"Rail,Truck","Rail,Truck",478460000,ANDALUSIA AL
1414 MANKIN ST-AURORA-NE,"",1414 MANKIN ST,"AURORA, NE",68818,US,40.86331,-98.02101,"Rail,Truck","Rail,Truck",554940000,AURORA NE
1417 N BARWISE ST-WICHITA-KS,"",1417 N BARWISE ST,"WICHITA, KS",67214,US,37.73116,-97.33559,"Rail,Truck","Rail,Truck",588440000,WICHITA KS
1420 COUNTY RD 25-BIRD CITY-KS,"",1420 COUNTY RD 25,"BIRD CITY, KS",67731,US,39.75692,-101.53538,"Rail,Truck","Rail,Truck",593444000,BIRD CITY KS
1421 CHANNEL AVE-MEMPHIS-TN,"",1421 CHANNEL AVE,"MEMPHIS, TN",38113,US,35.0386,-89.91302,"Rail,Truck","Rail,Truck",439900000,AIR PARK TN
1425 EDWARDS ST-SYLACAUGA-AL,"",1425 EDWARDS ST,"SYLACAUGA, AL",35150,US,33.17305,-86.25166,"Rail,Truck","Rail,Truck",472880000,SYLACAUGA AL
1432 CHESTNUT ST-ERIE-PA,"",1432 CHESTNUT ST,"ERIE, PA",16502,US,42.12299,-80.032,"Rail,Truck","Rail,Truck",214130000,ERIE ALY PA
1450 COUNTY RD 1240-TUTTLE-OK,"",1450 COUNTY RD 1240,"TUTTLE, OK",73089,US,35.2937,-97.8166,"Rail,Truck","Rail,Truck",626810000,TUTTLE OK
1451 65 ST E-BRANDON-MB,"",1451 65 ST E,"BRANDON, MB",R7A 7L5,CA,49.8413,-99.9515,"Rail,Truck","Rail,Truck",063495000,BRANDON MB
1451 FIFTH AVE-MCPHERSON-KS,"",1451 FIFTH AVE,"MCPHERSON, KS",67460,US,38.37077,-97.78862,"Rail,Truck","Rail,Truck",586773000,CONWAY KS
1455 140TH ST-HAMPTON-IA,"",1455 140TH ST,"HAMPTON, IA",50441,US,42.73663,-93.21932,"Rail,Truck","Rail,Truck",533640000,HAMPTON IA
14794 RD 1 3 SE-MOSES LAKE-WA,"",14794 RD 1 3 SE,"MOSES LAKE, WA",98837,US,47.06918,-119.19392,"Rail,Truck","Rail,Truck",842655000,SIELER WA
148 JOHNSONVILLE RD-BANGOR-PA,"",148 JOHNSONVILLE RD,"BANGOR, PA",18013,US,40.88842,-75.16253,"Rail,Truck","Rail,Truck",204125000,STIER PA
149 N 740 W-BLACKFOOT-ID,"",149 N 740 W,"BLACKFOOT, ID",83221,US,43.21677,-112.44236,"Rail,Truck","Rail,Truck",835275000,MORELAND ID
14900 INTRACOASTAL DRIVE-NEW ORLEANS-LA,"",14900 INTRACOASTAL DRIVE,"NEW ORLEANS, LA",70126,US,30.03,-89.92583,"Rail,Truck","Rail,Truck",647011000,MICHOUD LA
15 BLITCH ST-STATESBORO-GA,"",15 BLITCH ST,"STATESBORO, GA",30458,US,32.2725,-81.4647,"Rail,Truck","Rail,Truck",461140000,STATESBORO GA
15 CHAMBERLAIN RD-BROAD BROOK-CT,"",15 CHAMBERLAIN RD,"BROAD BROOK, CT",06016,US,41.925,-72.53709,"Rail,Truck","Rail,Truck",163131000,BROAD BROOK CT
15 S RAILWAY AVE-EDGAR-MT,"",15 S RAILWAY AVE,"EDGAR, MT",59026,US,45.46768,-108.84968,"Rail,Truck","Rail,Truck",709822000,EDGAR MT
150 MILL SUPPLY RD-CROSSETT-AR,"",150 MILL SUPPLY RD,"CROSSETT, AR",71635,US,33.12735,-91.96601,"Rail,Truck","Rail,Truck",616780000,CROSSETT AR
150 N BURLINGTON ST-PASCO-WA,"",150 N BURLINGTON ST,"PASCO, WA",99301,US,46.20972,-119.03892,"Rail,Truck","Rail,Truck",847890000,PASCO PASSENGER WA
1500 W 2550 S-OGDEN-UT,"",1500 W 2550 S,"OGDEN, UT",84401,US,41.21296,-111.98273,"Rail,Truck","Rail,Truck",761560000,OGDEN UT
1504 CENTER ST W-ROSEAU-MN,"",1504 CENTER ST W,"ROSEAU, MN",56751,US,48.84409,-95.76235,"Rail,Truck","Rail,Truck",503060000,ROSEAU MN
1507 128TH AVE SE-PILLSBURY-ND,"",1507 128TH AVE SE,"PILLSBURY, ND",58065,US,47.2044,-97.79437,"Rail,Truck","Rail,Truck",514914000,PILLSBURY ND
15172 BRANDY RD-CULPEPER-VA,"",15172 BRANDY RD,"CULPEPER, VA",22701,US,38.47002,-77.99182,"Rail,Truck","Rail,Truck",252250000,CULPEPER VA
15200 780TH AVE-ALBERT LEA-MN,"",15200 780TH AVE,"ALBERT LEA, MN",56007,US,43.6452,-93.367,"Rail,Truck","Rail,Truck",508660000,ALBERT LEA MN
1525 LOCKWOOD RD-BILLINGS-MT,"",1525 LOCKWOOD RD,"BILLINGS, MT",59101,US,45.78713,-108.49179,"Rail,Truck","Rail,Truck",708549000,EAST BILLINGS MRL MT
1525 WILLARD ST-COLBY-KS,"",1525 WILLARD ST,"COLBY, KS",67701,US,39.15091,-100.87285,"Rail,Truck","Rail,Truck",593654000,COLBY KS
1545 HWY 312-WORDEN-MT,"",1545 HWY 312,"WORDEN, MT",59088,US,45.9601,-108.15968,"Rail,Truck","Rail,Truck",708586000,WORDEN MT
1546 FRONT ST-VERDI-MN,"",1546 FRONT ST,"VERDI, MN",56164,US,44.21058,-96.35469,"Rail,Truck","Rail,Truck",509497000,VERDI MN
1550 W 801 N-CEDAR CITY-UT,"",1550 W 801 N,"CEDAR CITY, UT",84720,US,37.68668,-113.08734,"Rail,Truck","Rail,Truck",769175000,CEDAR CITY UT
1559 COUNTY RD 1400 N-HENRY-IL,"",1559 COUNTY RD 1400 N,"HENRY, IL",61537,US,41.11138,-89.35638,"Rail,Truck","Rail,Truck",385652000,HENRY IL
156 COUNTY RD N-EDGERTON-WI,"",156 COUNTY RD N,"EDGERTON, WI",53534,US,42.83527,-89.0675,"Rail,Truck","Rail,Truck",338623000,EDGERTON WI
156 COUNTY TRUNK N-EDGERTON-WI,"",156 COUNTY TRUNK N,"EDGERTON, WI",53534,US,42.83527,-89.0675,"Rail,Truck","Rail,Truck",338623000,EDGERTON WI
1575 380TH ST-MANLY-IA,"",1575 380TH ST,"MANLY, IA",50456,US,43.28339,-93.2038,"Rail,Truck","Rail,Truck",533173000,MANLY IA
158 MIDDLETOWN AVE-NEW HAVEN-CT,"",158 MIDDLETOWN AVE,"NEW HAVEN, CT",06513,US,41.2969,-72.92679,"Rail,Truck","Rail,Truck",167530000,NEW HAVEN CT
1583 700TH ST-MOUNT PULASKI-IL,"",1583 700TH ST,"MOUNT PULASKI, IL",62548,US,40.00459,-89.28521,"Rail,Truck","Rail,Truck",388682000,MT PULASKI IL
16 S COUNTY RD 1100 E-FRANKFORT-IN,"",16 S COUNTY RD 1100 E,"FRANKFORT, IN",46041,US,40.28742,-86.29228,"Rail,Truck","Rail,Truck",368252000,SCIRCLEVILLE IN
1604 S EISENHOWER-MASON CITY-IA,"",1604 S EISENHOWER,"MASON CITY, IA",50401,US,43.15456,-93.21082,"Rail,Truck","Rail,Truck",533340000,MASON CITY IA
161 W 650 S-REAGAN-IN,"",161 W 650 S,"REAGAN, IN",46041,US,40.1957,-86.51049,"Rail,Truck","Rail,Truck",368295000,REAGAN IN
1610 COUNTY RD 65-ALLIANCE-NE,"",1610 COUNTY RD 65,"ALLIANCE, NE",69301,US,42.2127,-102.97688,"Rail,Truck","Rail,Truck",552442000,BEREA NE
16115 PITTMAN RD-BRANCHVILLE-VA,"",16115 PITTMAN RD,"BRANCHVILLE, VA",23828,US,36.56901,-77.25165,"Rail,Truck","Rail,Truck",261987000,BRANCHVILLE VA
1619 S 78TH ST-ENID-OK,"",1619 S 78TH ST,"ENID, OK",73701,US,36.40538,-97.88858,"Rail,Truck","Rail,Truck",623550000,ENID OK
1632 HADEN RD-HOUSTON-TX,"",1632 HADEN RD,"HOUSTON, TX",77015,US,29.67523,-95.38251,"Rail,Truck","Rail,Truck",684800000,HOUSTON - BNSF TX
1639 TANEY ST-KANSAS CITY-MO,"",1639 TANEY ST,"KANSAS CITY, MO",64116,US,39.08136,-94.60913,"Rail,Truck","Rail,Truck",566900000,KANSAS CITY MO
1643 N US HWY 45-GILMAN-IL,"",1643 N US HWY 45,"GILMAN, IL",60938,US,40.736,-88.001,"Rail,Truck","Rail,Truck",387156000,GILMAN IL
1650 N SHERLOCK RD-GARDEN CITY-KS,"",1650 N SHERLOCK RD,"GARDEN CITY, KS",67846,US,37.9656,-100.8808,"Rail,Truck","Rail,Truck",598180000,GARDEN CITY KS
16515 COUNTY RD 14-CHAPPELL-NE,"",16515 COUNTY RD 14,"CHAPPELL, NE",69129,US,41.09379,-102.47857,"Rail,Truck","Rail,Truck",556760000,CHAPPELL NE
1655 INDUSTRIAL AVE-SIDNEY-NE,"",1655 INDUSTRIAL AVE,"SIDNEY, NE",69162,US,41.18659,-103.11282,"Rail,Truck","Rail,Truck",556874000,BROWNSON NE
16646 CHESNUT ST-HESPERIA-CA,"",16646 CHESNUT ST,"HESPERIA, CA",92308,US,34.425,-117.30094,"Rail,Truck","Rail,Truck",880207000,HESPERIA CA
16653 HWY K45-WHITING-IA,"",16653 HWY K45,"WHITING, IA",51063,US,42.1273,-96.15064,"Rail,Truck","Rail,Truck",547634000,WHITING IA
16715 WESTERBERG ST N-EDWALL-WA,"",16715 WESTERBERG ST N,"EDWALL, WA",99008,US,47.50981,-117.94386,"Rail,Truck","Rail,Truck",840763000,EDWALL WA
16721 US 131-SCHOOLCRAFT-MI,"",16721 US 131,"SCHOOLCRAFT, MI",49087,US,42.11058,-85.63212,"Rail,Truck","Rail,Truck",319295000,SCHOOLCRAFT MI
17005 W STATE ROUTE 904-CHENEY-WA,"",17005 W STATE ROUTE 904,"CHENEY, WA",99004,US,47.48272,-117.57963,"Rail,Truck","Rail,Truck",840576000,CHENEY WA
1701 E 7TH ST-WASHINGTON-IA,"",1701 E 7TH ST,"WASHINGTON, IA",52353,US,41.30262,-91.6868,"Rail,Truck","Rail,Truck",537370000,WASHINGTON IA
17149 HWY 24-BRUNSWICK-MO,"",17149 HWY 24,"BRUNSWICK, MO",65236,US,39.42199,-93.12294,"Rail,Truck","Rail,Truck",565788000,BRUNSWICK MO
1735 STATE RD 419-LONGWOOD-FL,"",1735 STATE RD 419,"LONGWOOD, FL",32750,US,28.73059,-81.3043,"Rail,Truck","Rail,Truck",496216000,CHASE FL
175 MAIN ST-TORRINGTON-WY,"",175 MAIN ST,"TORRINGTON, WY",82240,US,42.04846,-104.18369,"Rail,Truck","Rail,Truck",727162000,SOUTH TORRINGTON WY
175 N HUGHES AVE-FRESNO-CA,"",175 N HUGHES AVE,"FRESNO, CA",93706,US,36.74635,-119.86208,"Rail,Truck","Rail,Truck",878805000,CRAYOLD CA
17500 E 22ND AVE-AURORA-CO,"",17500 E 22ND AVE,"AURORA, CO",80011,US,39.76795,-104.85296,"Rail,Truck","Rail,Truck",744149000,ROYDALE CO
17505 SIMPLOT BLVD-CALDWELL-ID,"",17505 SIMPLOT BLVD,"CALDWELL, ID",83607,US,43.66905,-116.73618,"Rail,Truck","Rail,Truck",839141000,SIMPLOT ID
1753 N 6TH AVE-SAGINAW-MI,"",1753 N 6TH AVE,"SAGINAW, MI",48601,US,43.44132,-83.93472,"Rail,Truck","Rail,Truck",316100000,SAGINAW MI
1765 MCKENZIE ST-KERWOOD-ON,"",1765 MCKENZIE ST,"KERWOOD, ON",N0M 2B0,CA,42.94492,-81.73467,"Rail,Truck","Rail,Truck",049511000,KERWOOD ON
17705 N ELEVATOR RD-EDELSTEIN-IL,"",17705 N ELEVATOR RD,"EDELSTEIN, IL",61526,US,40.90015,-89.65443,"Rail,Truck","Rail,Truck",388225000,AKRON IL
1776 W MARCH LANE-STOCKTON-CA,"",1776 W MARCH LANE,"STOCKTON, CA",95201,US,37.94462,-121.28839,"Rail,Truck","Rail,Truck",875640000,STOCKTON CA
179 HARRISON ST-AMERICAN FALLS-ID,"",179 HARRISON ST,"AMERICAN FALLS, ID",83211,US,42.7967,-112.84931,"Rail,Truck","Rail,Truck",836343000,AMERICAN FALLS ID
1795 S HIGH ST-HARRISONBURG-VA,"",1795 S HIGH ST,"HARRISONBURG, VA",22801,US,37.97187,-77.363,"Rail,Truck","Rail,Truck",253868000,PLEASANT HILL VA
1799 HWY 701 N-LORIS-SC,"",1799 HWY 701 N,"LORIS, SC",29569,US,34.05,-78.89,"Rail,Truck","Rail,Truck",444343000,LORIS SC
18 ADELAIDE ST-MAXVILLE-ON,"",18 ADELAIDE ST,"MAXVILLE, ON",K0C 1T0,CA,45.2791,-74.8678,"Rail,Truck","Rail,Truck",040508000,MAXVILLE ON
18 S 4TH ST-IPSWICH-SD,"",18 S 4TH ST,"IPSWICH, SD",57451,US,45.44299,-99.02556,"Rail,Truck","Rail,Truck",522420000,IPSWICH SD
1800 ELEVATOR RD-MITCHELL-SD,"",1800 ELEVATOR RD,"MITCHELL, SD",57301,US,43.70773,-98.02583,"Rail,Truck","Rail,Truck",528230000,MITCHELL SD
1809 FRANCIS SCOTT KEY HWY-KEYMAR-MD,"",1809 FRANCIS SCOTT KEY HWY,"KEYMAR, MD",21757,US,39.59944,-77.23722,"Rail,Truck","Rail,Truck",232797000,KEYMAR MD
18145 HWY 11-FAIRMOUNT-ND,"",18145 HWY 11,"FAIRMOUNT, ND",58030,US,46.05846,-96.60466,"Rail,Truck","Rail,Truck",517173000,FAIRMOUNT ND
1815 PARK AVE SE-AIKEN-SC,"",1815 PARK AVE SE,"AIKEN, SC",29801,US,33.55333,-81.70555,"Rail,Truck","Rail,Truck",446860000,AIKEN (AIKR) SC
18250 W 26TH ST-KENESAW-NE,"",18250 W 26TH ST,"KENESAW, NE",68956,US,40.62057,-98.65959,"Rail,Truck","Rail,Truck",558150000,KENESAW NE
18268 ST HWY 220 SW-EAST GRAND FORKS-MN,"",18268 ST HWY 220 SW,"EAST GRAND FORKS, MN",56721,US,47.9247,-97.0089,"Rail,Truck","Rail,Truck",503550000,EAST GRAND FORKS MN
1830 LINDER INDUSTRIAL DR-NASHVILLE-TN,"",1830 LINDER INDUSTRIAL DR,"NASHVILLE, TN",37209,US,36.11168,-86.77062,"Rail,Truck","Rail,Truck",434300000,11TH AVE NASHVILLE TN
1830 PERRY RD-NORTH JAVA-NY,"",1830 PERRY RD,"NORTH JAVA, NY",14113,US,42.68361,-78.33805,"Rail,Truck","Rail,Truck",184769000,NORTH JAVA NY
185 N INDUSTRIAL DR-HOPE-AR,"",185 N INDUSTRIAL DR,"HOPE, AR",71801,US,33.70708,-93.62213,"Rail,Truck","Rail,Truck",618349000,NORTH HOPE AR
1861 EASTLAND AVE-KINGSTREE-SC,"",1861 EASTLAND AVE,"KINGSTREE, SC",29556,US,33.65118,-79.83349,"Rail,Truck","Rail,Truck",444930000,KINGSTREE SC
18676 HWY 152-SAYRE-OK,"",18676 HWY 152,"SAYRE, OK",73662,US,35.29422,-99.6257,"Rail,Truck","Rail,Truck",636730000,SAYRE OK
187710 S PLYMOUTH INDUSTRIAL RD-PLYMOUTH-WA,"",187710 S PLYMOUTH INDUSTRIAL RD,"PLYMOUTH, WA",99346,US,45.93988,-119.36381,"Rail,Truck","Rail,Truck",848192000,PLYMOUTH WA
18805 HWY 6-GREENWOOD-NE,"",18805 HWY 6,"GREENWOOD, NE",68366,US,40.9621,-96.44219,"Rail,Truck","Rail,Truck",553646000,GREENWOOD NE
1881 N WALKER ST-GRAYTOWN-OH,"",1881 N WALKER ST,"GRAYTOWN, OH",43432,US,41.54277,-83.25777,"Rail,Truck","Rail,Truck",342659000,GRAYTOWN OH
18873 COUNTRY RD H-HOLGATE-OH,"",18873 COUNTRY RD H,"HOLGATE, OH",43527,US,41.26773,-84.22871,"Rail,Truck","Rail,Truck",343858000,STANDLEY OH
1899 E 2500TH ST-CAMP POINT-IL,"",1899 E 2500TH ST,"CAMP POINT, IL",62320,US,40.04141,-91.06764,"Rail,Truck","Rail,Truck",389936000,CAMP POINT IL
1903 BELOIT AVE-JANESVILLE-WI,"",1903 BELOIT AVE,"JANESVILLE, WI",53546,US,42.67626,-89.03563,"Rail,Truck","Rail,Truck",338650000,JANESVILLE WI
1905 W FORTUNE RD-SALT LAKE CITY-UT,"",1905 W FORTUNE RD,"SALT LAKE CITY, UT",84104,US,40.39194,-111.85722,"Rail,Truck","Rail,Truck",762800000,SALT LAKE CITY UT
191 W 28TH AVE-OSHKOSH-WI,"",191 W 28TH AVE,"OSHKOSH, WI",54902,US,44.00873,-88.53481,"Rail,Truck","Rail,Truck",331560000,OSHKOSH WI
1912 W MAIN ST-BURLEY-ID,"",1912 W MAIN ST,"BURLEY, ID",83318,US,42.53949,-113.79832,"Rail,Truck","Rail,Truck",836727000,BURLEY ID
19369 195TH AVE-GLENWOOD-MN,"",19369 195TH AVE,"GLENWOOD, MN",56334,US,45.64878,-95.36522,"Rail,Truck","Rail,Truck",506530000,GLENWOOD MN
1949 N LINN AVE-NEW HAMPTON-IA,"",1949 N LINN AVE,"NEW HAMPTON, IA",50659,US,43.06509,-92.32029,"Rail,Truck","Rail,Truck",532370000,NEW HAMPTON IA
1975 WATKINS RD-COLUMBUS-OH,"",1975 WATKINS RD,"COLUMBUS, OH",43207,US,39.975,-82.975,"Rail,Truck","Rail,Truck",353100000,COLUMBUS (CCRA) OH
1975 WATKINS RD-COLUMBUS-OH,"",1975 WATKINS RD,"COLUMBUS, OH",43207,US,39.89374,-82.94888,"Rail,Truck","Rail,Truck",353279000,DISCOVERY PARK OH
19856 MAIN ST-MASON CITY-IA,"",19856 MAIN ST,"MASON CITY, IA",50401,US,43.12899,-93.12118,"Rail,Truck","Rail,Truck",533332000,PORTLAND IA
1992 PANSEY RD-ASHFORD-AL,"",1992 PANSEY RD,"ASHFORD, AL",36312,US,31.23048,-85.39183,"Rail,Truck","Rail,Truck",477830000,DOTHAN AL
19973 MORSE LN-WATERTOWN-NY,"",19973 MORSE LN,"WATERTOWN, NY",13601,US,43.86111,-76.00841,"Rail,Truck","Rail,Truck",181268000,ADAMS CENTER NY
2 5 KM W OF CARSELAND HWY 24-CARSELAND-AB,"",2 5 KM W OF CARSELAND HWY 24,"CARSELAND, AB",T0J 0M0,CA,50.84982,-113.46658,"Rail,Truck","Rail,Truck",081116000,CARSELAND AB
2 GRAIN MILLERS RD HWY # 9 N-YORKTON-SK,"",2 GRAIN MILLERS RD HWY # 9 N,"YORKTON, SK",S3N 0X1,CA,51.21392,-102.4674,"Rail,Truck","Rail,Truck",071810000,YORKTON SK
2 MI S 1 M W-CUT KNIFE-SK,"",2 MI S 1 M W,"CUT KNIFE, SK",S0M 0N0,CA,52.73506,-108.97395,"Rail,Truck","Rail,Truck",077126000,CUTKNIFE SK
2 MILE RD-MORRIS-MB,"",2 MILE RD,"MORRIS, MB",R0G 1K0,CA,49.35473,-97.37041,"Rail,Truck","Rail,Truck",063022000,MORRIS MB
200 29TH AVE-COUNCIL BLUFFS-IA,"",200 29TH AVE,"COUNCIL BLUFFS, IA",51501,US,41.2499,-95.91167,"Rail,Truck","Rail,Truck",549260000,COUNCIL BLUFFS IA
200 AMPAC RD-CONWAY-NC,"",200 AMPAC RD,"CONWAY, NC",27820,US,36.44,-77.23,"Rail,Truck","Rail,Truck",402418000,CONWAY NC
200 HESTER ST-ROXBORO-NC,"",200 HESTER ST,"ROXBORO, NC",27573,US,36.39249,-78.98,"Rail,Truck","Rail,Truck",411440000,ROXBORO NC
200 PACKER AVE-TOWANDA-PA,"",200 PACKER AVE,"TOWANDA, PA",18848,US,41.78392,-76.4426,"Rail,Truck","Rail,Truck",201160000,TOWANDA (LRWY) PA
200 S DEPOT ST-JUNIATA-NE,"",200 S DEPOT ST,"JUNIATA, NE",68955,US,40.666,-98.59203,"Rail,Truck","Rail,Truck",558127000,HAYLAND NE
200 S WILCOX DR-KINGSPORT-TN,"",200 S WILCOX DR,"KINGSPORT, TN",37660,US,36.54203,-82.55845,"Rail,Truck","Rail,Truck",421350000,KINGSPORT TN
2000 4TH ST-ONIDA-SD,"",2000 4TH ST,"ONIDA, SD",57564,US,44.68911,-100.06287,"Rail,Truck","Rail,Truck",525520000,ONIDA SD
2003 S HWY 191-REXBURG-ID,"",2003 S HWY 191,"REXBURG, ID",83440,US,43.819,-111.79655,"Rail,Truck","Rail,Truck",832638000,REXBURG ID
201 MAGNOLIA ST-WINCHESTER-KY,"",201 MAGNOLIA ST,"WINCHESTER, KY",40391,US,37.9879,-84.17219,"Rail,Truck","Rail,Truck",285730000,WINCHESTER KY
201 MAIN ST W-CLARKS GROVE-MN,"",201 MAIN ST W,"CLARKS GROVE, MN",56016,US,43.76514,-93.33108,"Rail,Truck","Rail,Truck",508637000,CLARKS GROVE MN
201 MAIN ST-AYR-ND,"",201 MAIN ST,"AYR, ND",58007,US,47.041,-97.4906,"Rail,Truck","Rail,Truck",514736000,AYR ND
201 W RDWAY AVE-EFFINGHAM-IL,"",201 W RDWAY AVE,"EFFINGHAM, IL",62401,US,39.091,-88.527,"Rail,Truck","Rail,Truck",395140000,EFFINGHAM IL
20137 U S HWY 281-WOLSEY-SD,"",20137 U S HWY 281,"WOLSEY, SD",57384,US,44.41012,-98.47664,"Rail,Truck","Rail,Truck",524490000,WOLSEY SD
20137 US HWY 281-WOLSEY-SD,"",20137 US HWY 281,"WOLSEY, SD",57384,US,44.41012,-98.47664,"Rail,Truck","Rail,Truck",524490000,WOLSEY SD
202 E MAIN ST-HARDIN-MO,"",202 E MAIN ST,"HARDIN, MO",64035,US,39.2711,-93.83236,"Rail,Truck","Rail,Truck",566457000,HARDIN MO
202 MINNEAPOLIS AVE-FULLERTON-ND,"",202 MINNEAPOLIS AVE,"FULLERTON, ND",58441,US,46.16527,-98.42666,"Rail,Truck","Rail,Truck",517834000,FULLERTON ND
2022 N BROADWAY ST-BALLINGER-TX,"",2022 N BROADWAY ST,"BALLINGER, TX",76821,US,31.44,-99.52,"Rail,Truck","Rail,Truck",691170000,BALLINGER TX
203 S PERKINS AVE-ELSIE-NE,"",203 S PERKINS AVE,"ELSIE, NE",69134,US,40.84602,-101.38797,"Rail,Truck","Rail,Truck",559143000,ELSIE NE
203 W OAK ST-RED OAK-IA,"",203 W OAK ST,"RED OAK, IA",51566,US,41.00306,-95.22765,"Rail,Truck","Rail,Truck",549550000,RED OAK IA
20313 RIVERSIDE DR-STERLING-CO,"",20313 RIVERSIDE DR,"STERLING, CO",80751,US,40.63166,-103.17666,"Rail,Truck","Rail,Truck",741680000,STERLING CO
204 36TH ST-BETTENDORF-IA,"",204 36TH ST,"BETTENDORF, IA",52722,US,41.52383,-90.50821,"Rail,Truck","Rail,Truck",534576000,BETTENDORF IA
204 N FRONT ST-FAIRMOUNT-ND,"",204 N FRONT ST,"FAIRMOUNT, ND",58030,US,46.05846,-96.60466,"Rail,Truck","Rail,Truck",517173000,FAIRMOUNT ND
205 E IDAHO ST-NEW PLYMOUTH-ID,"",205 E IDAHO ST,"NEW PLYMOUTH, ID",83655,US,43.9753,-116.80748,"Rail,Truck","Rail,Truck",838447000,NEW PLYMOUTH ID
205 EAST ST-LYNDONVILLE-VT,"",205 EAST ST,"LYNDONVILLE, VT",05851,US,44.53361,-72.00361,"Rail,Truck","Rail,Truck",131367000,LYNDONVILLE VT
205 N PARISH AVE-JOHNSTOWN-CO,"",205 N PARISH AVE,"JOHNSTOWN, CO",80534,US,40.39672,-105.07617,"Rail,Truck","Rail,Truck",742585000,LOVELAND CO
205 RAILROAD AVE-GARRETSON-SD,"",205 RAILROAD AVE,"GARRETSON, SD",57030,US,43.71847,-96.50291,"Rail,Truck","Rail,Truck",527135000,GARRETSON SD
205 S STATE ST-BRULE-NE,"",205 S STATE ST,"BRULE, NE",69127,US,41.09436,-101.8725,"Rail,Truck","Rail,Truck",556693000,BRULE NE
20501 HILLS RD E-CRESTON-WA,"",20501 HILLS RD E,"CRESTON, WA",99117,US,47.7571,-118.5195,"Rail,Truck","Rail,Truck",840743000,CRESTON WA
2052 VAIL AVE-WILLIAMS-IA,"",2052 VAIL AVE,"WILLIAMS, IA",50271,US,42.48948,-93.54718,"Rail,Truck","Rail,Truck",533910000,WILLIAMS IA
20565 WASS AVE-BREWSTER-MN,"",20565 WASS AVE,"BREWSTER, MN",56119,US,43.69921,-95.46987,"Rail,Truck","Rail,Truck",509818000,BREWSTER MN
206 ATLANTA AVE E-ATWATER-MN,"",206 ATLANTA AVE E,"ATWATER, MN",56209,US,45.13675,-94.78245,"Rail,Truck","Rail,Truck",505653000,ATWATER MN
206 E MORROW RD-SAND SPRINGS-OK,"",206 E MORROW RD,"SAND SPRINGS, OK",74063,US,36.13972,-96.10861,"Rail,Truck","Rail,Truck",622258000,SAND SPRINGS OK
2075 N HWY 27-SOMERSET-KY,"",2075 N HWY 27,"SOMERSET, KY",42501,US,37.07775,-84.60876,"Rail,Truck","Rail,Truck",292177000,SOMERSET KY
208 MONTIER-PORT LAVACA-TX,"",208 MONTIER,"PORT LAVACA, TX",77979,US,28.61394,-96.62905,"Rail,Truck","Rail,Truck",688130000,PORT LAVACA TX
208 SK-41A-MELFORT-SK,"",208 SK-41A,"MELFORT, SK",S0E 1A0,CA,52.85958,-104.61239,"Rail,Truck","Rail,Truck",073324000,MELFORT SK
20870 VAN SLYKE RD-GREENLEAF-ID,"",20870 VAN SLYKE RD,"GREENLEAF, ID",83626,US,43.67615,-116.82275,"Rail,Truck","Rail,Truck",839153000,GREENLEAF ID
209 LOVERS LN-WAYNESBORO-GA,"",209 LOVERS LN,"WAYNESBORO, GA",30830,US,33.09388,-82.0275,"Rail,Truck","Rail,Truck",457519000,EAST WAYNESBORO GA
209 S 57TH AVE-PHOENIX-AZ,"",209 S 57TH AVE,"PHOENIX, AZ",85043,US,33.44412,-112.17448,"Rail,Truck","Rail,Truck",797211000,PIPEOLA AZ
20910 WISE RD-JACKSON CENTER-OH,"",20910 WISE RD,"JACKSON CENTER, OH",45334,US,40.3452,-83.9968,"Rail,Truck","Rail,Truck",349613000,JACKSON CENTER OH
210 5TH AVE S-MADISON-MN,"",210 5TH AVE S,"MADISON, MN",56256,US,45.0082,-96.1873,"Rail,Truck","Rail,Truck",509070000,MADISON MN
210 PACIFIC AVE-MILES CITY-MT,"",210 PACIFIC AVE,"MILES CITY, MT",59301,US,46.40275,-105.84885,"Rail,Truck","Rail,Truck",707450000,MILES CITY MT
210 S COMMERCIAL ST-HOLLOWAY-MN,"",210 S COMMERCIAL ST,"HOLLOWAY, MN",56249,US,45.2486,-95.9079,"Rail,Truck","Rail,Truck",506767000,HOLLOWAY MN
210 S PACIFIC ST-COOLIDGE-AZ,"",210 S PACIFIC ST,"COOLIDGE, AZ",85128,US,32.97242,-111.51463,"Rail,Truck","Rail,Truck",796554000,COOLIDGE AZ
2108 140TH AVE-ALGONA-IA,"",2108 140TH AVE,"ALGONA, IA",50511,US,43.07666,-94.21769,"Rail,Truck","Rail,Truck",541160000,ALGONA IA
2109 COUNTY RD-OXFORD STATION-ON,"",2109 COUNTY RD,"OXFORD STATION, ON",K0G 1T0,CA,44.59256,-75.69183,"Rail,Truck","Rail,Truck",040680000,BROCKVILLE ON
211 MILBOURNE ST-LAKE ODESSA-MI,"",211 MILBOURNE ST,"LAKE ODESSA, MI",48849,US,42.7631,-85.07103,"Rail,Truck","Rail,Truck",316924000,WOODBURY MI
211 N MONTANA ST-DILLON-MT,"",211 N MONTANA ST,"DILLON, MT",59725,US,45.21631,-112.63997,"Rail,Truck","Rail,Truck",719550000,DILLON MT
211 S ADEWAY-FOWLER-IN,"",211 S ADEWAY,"FOWLER, IN",47944,US,40.62084,-87.31476,"Rail,Truck","Rail,Truck",366820000,FOWLER IN
21178 SWEST 89TH RD-BEATRICE-NE,"",21178 SWEST 89TH RD,"BEATRICE, NE",68310,US,40.3175,-96.8325,"Rail,Truck","Rail,Truck",557463000,HOAG NE
212 MAIN ST-SCHAGHTICOKE-NY,"",212 MAIN ST,"SCHAGHTICOKE, NY",12154,US,42.9,-73.58583,"Rail,Truck","Rail,Truck",173137000,SCHAGHTICOKE NY
2130 ENERGY PARK DR-SAINT PAUL-MN,"",2130 ENERGY PARK DR,"SAINT PAUL, MN",55108,US,44.98652,-93.27046,"Rail,Truck","Rail,Truck",504600000,E SIDE MPLS MN
2130 JAY MAR RD-PLOVER-WI,"",2130 JAY MAR RD,"PLOVER, WI",54467,US,44.46259,-89.54928,"Rail,Truck","Rail,Truck",327278000,PLOVER WI
21443 COUNTY RD 34-STERLING-CO,"",21443 COUNTY RD 34,"STERLING, CO",80751,US,40.64883,-103.18676,"Rail,Truck","Rail,Truck",741673000,ACKERMAN CO
2156 FIR AVE-KEOTA-IA,"",2156 FIR AVE,"KEOTA, IA",52248,US,41.30262,-91.6868,"Rail,Truck","Rail,Truck",537370000,WASHINGTON IA
216 EASTMAN ST-BRECKENRIDGE-MI,"",216 EASTMAN ST,"BRECKENRIDGE, MI",48615,US,43.40805,-84.475,"Rail,Truck","Rail,Truck",316314000,BRECKENRIDGE MI
216 MECHANIC ST-OSAGE-IA,"",216 MECHANIC ST,"OSAGE, IA",50461,US,43.28403,-92.81858,"Rail,Truck","Rail,Truck",532270000,OSAGE IA
216 WARDWELL ST-ARVILLA-ND,"",216 WARDWELL ST,"ARVILLA, ND",58214,US,47.9193,-97.499,"Rail,Truck","Rail,Truck",511768000,ARVILLA ND
217 E STRETCH ST-MONROE-WA,"",217 E STRETCH ST,"MONROE, WA",98272,US,47.85719,-121.9672,"Rail,Truck","Rail,Truck",844767000,MONROE WA
21778 HIGHVIEW AVE-LAKEVILLE-MN,"",21778 HIGHVIEW AVE,"LAKEVILLE, MN",55044,US,44.65,-93.248,"Rail,Truck","Rail,Truck",504760000,LAKEVILLE MN
2178 HILIGHT RD-GILLETTE-WY,"",2178 HILIGHT RD,"GILLETTE, WY",82718,US,44.29479,-105.5032,"Rail,Truck","Rail,Truck",731146000,GILLETTE WY
2187 COUNTY RD 17-FRIONA-TX,"",2187 COUNTY RD 17,"FRIONA, TX",79035,US,34.63442,-102.71789,"Rail,Truck","Rail,Truck",674620000,FRIONA TX
2188 W 145 N-IDAHO FALLS-ID,"",2188 W 145 N,"IDAHO FALLS, ID",83402,US,43.62591,-112.07427,"Rail,Truck","Rail,Truck",835119000,OSGOOD ID
219 E STATE RD 218-PONETO-IN,"",219 E STATE RD 218,"PONETO, IN",46781,US,40.65641,-85.22464,"Rail,Truck","Rail,Truck",364476000,PONETO IN
2190 OLD SALEM RD NE-ALBANY-OR,"",2190 OLD SALEM RD NE,"ALBANY, OR",97321,US,44.68909,-123.05377,"Rail,Truck","Rail,Truck",854542000,MILLERSBURG OR
2202 S RED RIVER EXPY-BURKBURNETT-TX,"",2202 S RED RIVER EXPY,"BURKBURNETT, TX",76354,US,34.09857,-98.57565,"Rail,Truck","Rail,Truck",664410000,BURKBURNETT TX
2205 E SHERMAN AVE-HUTCHINSON-KS,"",2205 E SHERMAN AVE,"HUTCHINSON, KS",67501,US,38.04716,-97.93285,"Rail,Truck","Rail,Truck",589120000,HUTCHINSON KS
2208 WALNUT ST-WHITE PINE-TN,"",2208 WALNUT ST,"WHITE PINE, TN",37890,US,36.1076,-83.28553,"Rail,Truck","Rail,Truck",423710000,WHITE PINE TN
221 SIMUEL RD-SPARTANBURG-SC,"",221 SIMUEL RD,"SPARTANBURG, SC",29303,US,34.95813,-81.93013,"Rail,Truck","Rail,Truck",442340000,SPARTANBURG SC
2222 S GRANDVIEW AVE-ODESSA-TX,"",2222 S GRANDVIEW AVE,"ODESSA, TX",79766,US,31.86783,-102.32153,"Rail,Truck","Rail,Truck",694250000,ODESSA TX
2227 DEADRICK AVE-MEMPHIS-TN,"",2227 DEADRICK AVE,"MEMPHIS, TN",38114,US,35.14414,-89.91913,"Rail,Truck","Rail,Truck",439940000,BERCLAIR TN
223 W MAIN-FAIRFIELD-MT,"",223 W MAIN,"FAIRFIELD, MT",59436,US,47.61484,-111.98364,"Rail,Truck","Rail,Truck",703788000,FAIRFIELD MT
2244 GIBSONTON RD-BELLE VERNON-PA,"",2244 GIBSONTON RD,"BELLE VERNON, PA",15012,US,40.15099,-79.90154,"Rail,Truck","Rail,Truck",217772000,MONESSEN PA
22468 COUNTY RD E-CHILTON-WI,"",22468 COUNTY RD E,"CHILTON, WI",53014,US,44.03357,-88.15407,"Rail,Truck","Rail,Truck",331370000,CHILTON WI
225 INDUSTRIAL RD-OAK BLUFF-MB,"",225 INDUSTRIAL RD,"OAK BLUFF, MB",R4G 0A5,CA,49.77698,-97.34609,"Rail,Truck","Rail,Truck",063057000,OAKBLUFF MB
225 STOLTZE LN-DILLON-MT,"",225 STOLTZE LN,"DILLON, MT",59725,US,45.12982,-112.7415,"Rail,Truck","Rail,Truck",719562000,BARRETTS MT
225 W RAILROAD ST-HARDIN-MT,"",225 W RAILROAD ST,"HARDIN, MT",59034,US,45.73036,-107.60445,"Rail,Truck","Rail,Truck",708720000,HARDIN MT
226 COUNTY RD 287-MERKEL-TX,"",226 COUNTY RD 287,"MERKEL, TX",79536,US,32.47255,-100.02941,"Rail,Truck","Rail,Truck",678833000,MERKEL TX
2260 CHURCH ST-MILL VILLAGE-PA,"",2260 CHURCH ST,"MILL VILLAGE, PA",16427,US,41.87638,-79.97166,"Rail,Truck","Rail,Truck",214216000,MILL VILLAGE PA
227 E SPRING ST-LOYAL-WI,"",227 E SPRING ST,"LOYAL, WI",54446,US,44.75769,-90.2975,"Rail,Truck","Rail,Truck",327198000,SPENCER WI
22703 600TH AVE-NEVADA-IA,"",22703 600TH AVE,"NEVADA, IA",50201,US,42.02573,-93.45387,"Rail,Truck","Rail,Truck",536457000,NEVADA IA
2275 DRY VALLEY RD-SODA SPRINGS-ID,"",2275 DRY VALLEY RD,"SODA SPRINGS, ID",83230,US,42.64546,-111.57624,"Rail,Truck","Rail,Truck",835481000,SODA SPRINGS ID
2291 US-28-BLUE HILL-NE,"",2291 US-28,"BLUE HILL, NE",68930,US,40.3328,-98.4509,"Rail,Truck","Rail,Truck",558624000,BLUE HILL NE
230 S 200 W-RUPERT-ID,"",230 S 200 W,"RUPERT, ID",83350,US,42.61433,-113.67378,"Rail,Truck","Rail,Truck",837283000,RUPERT ID
2305 LAKEVILLE RD-AVON-NY,"",2305 LAKEVILLE RD,"AVON, NY",14414,US,42.83638,-77.70527,"Rail,Truck","Rail,Truck",184565000,LAKEVILLE NY
23247 W EAMES ST-CHANNAHON-IL,"",23247 W EAMES ST,"CHANNAHON, IL",60410,US,41.50059,-88.13218,"Rail,Truck","Rail,Truck",384144000,ROCKDALE IL
2345 S 400 E-LOGANSPORT-IN,"",2345 S 400 E,"LOGANSPORT, IN",46947,US,40.75444,-86.35666,"Rail,Truck","Rail,Truck",366250000,LOGANSPORT IN
2345 S COUNTY RD 400 E-LOGANSPORT-IN,"",2345 S COUNTY RD 400 E,"LOGANSPORT, IN",46947,US,40.75444,-86.35666,"Rail,Truck","Rail,Truck",366250000,LOGANSPORT IN
23696 KENT BRIDGE RD-KENT BRIDGE-ON,"",23696 KENT BRIDGE RD,"KENT BRIDGE, ON",N0P 1V0,CA,42.52069,-82.03296,"Rail,Truck","Rail,Truck",049685000,KENT BRIDGE ON
2373 LENA LANDEGGER HWY COUNTY RD 3-PERDUE HILL-AL,"",2373 LENA LANDEGGER HWY COUNTY RD 3,"PERDUE HILL, AL",36470,US,31.65049,-87.37508,"Rail,Truck","Rail,Truck",478763000,FOUNTAIN AL
238 W MAIN ST-MARSHVILLE-NC,"",238 W MAIN ST,"MARSHVILLE, NC",28103,US,34.9889,-80.34461,"Rail,Truck","Rail,Truck",417943000,MARSHVILLE NC
23837 HWY 71 N-PARKTON-NC,"",23837 HWY 71 N,"PARKTON, NC",28371,US,34.90216,-79.01194,"Rail,Truck","Rail,Truck",408612000,PARKTON NC
24 S 1100 E-FRANKFORT-IN,"",24 S 1100 E,"FRANKFORT, IN",46041,US,40.28742,-86.29228,"Rail,Truck","Rail,Truck",368252000,SCIRCLEVILLE IN
2400 E DAKOTA AVE-PIERRE-SD,"",2400 E DAKOTA AVE,"PIERRE, SD",57501,US,44.35956,-100.32979,"Rail,Truck","Rail,Truck",525790000,PIERRE SD
2413 PENNINGTON RD-TYRONE-PA,"",2413 PENNINGTON RD,"TYRONE, PA",16686,US,40.66737,-78.24096,"Rail,Truck","Rail,Truck",212410000,TYRONE NBER PA
2415 VAIL AVE-GARNER-IA,"",2415 VAIL AVE,"GARNER, IA",50438,US,43.10339,-93.6116,"Rail,Truck","Rail,Truck",533430000,GARNER IA
242 E MAIN ST-BRANDON-WI,"",242 E MAIN ST,"BRANDON, WI",53919,US,43.73527,-88.78111,"Rail,Truck","Rail,Truck",332392000,BRANDON WI
2420 COUNTY RD C W-ROSEVILLE-MN,"",2420 COUNTY RD C W,"ROSEVILLE, MN",55113,US,45.02047,-93.15955,"Rail,Truck","Rail,Truck",504442000,ROSEVILLE MN
244 LOOP RD-HOLLIDAYSBURG-PA,"",244 LOOP RD,"HOLLIDAYSBURG, PA",16648,US,40.42616,-78.38933,"Rail,Truck","Rail,Truck",212479000,HOLLIDAYSBURG (EV) PA
2441 PUBLIC RD-ELDORADO-IL,"",2441 PUBLIC RD,"ELDORADO, IL",62930,US,37.8096,-88.443,"Rail,Truck","Rail,Truck",397830000,ELDORADO IL
24497 PORT RD-HARLINGEN-TX,"",24497 PORT RD,"HARLINGEN, TX",78550,US,26.19722,-97.60325,"Rail,Truck","Rail,Truck",689836000,ARROYO TX
2450 NW GRANARY-MOUNTAIN HOME-ID,"",2450 NW GRANARY,"MOUNTAIN HOME, ID",83647,US,43.12347,-115.68953,"Rail,Truck","Rail,Truck",838577000,MOUNTAIN HOME ID
2471 GRAMLING RD-ORANGEBURG-SC,"",2471 GRAMLING RD,"ORANGEBURG, SC",29115,US,33.52034,-80.78828,"Rail,Truck","Rail,Truck",445931000,EAST ORANGEBURG SC
249 BONNEVILLE RD-SHOSHONI-WY,"",249 BONNEVILLE RD,"SHOSHONI, WY",82649,US,43.26736,-108.0715,"Rail,Truck","Rail,Truck",735126000,BONNEVILLE BDW WY
25 3RD AVE W-KREMLIN-MT,"",25 3RD AVE W,"KREMLIN, MT",59532,US,48.57385,-110.08492,"Rail,Truck","Rail,Truck",702855000,KREMLIN MT
25 MAPLE AVE-UPTON-MA,"",25 MAPLE AVE,"UPTON, MA",01568,US,42.04,-71.62083,"Rail,Truck","Rail,Truck",145617000,WEST UPTON MA
25 SEVERANCE RD-SHELDON-VT,"",25 SEVERANCE RD,"SHELDON, VT",05483,US,44.80487,-73.09102,"Rail,Truck","Rail,Truck",133221000,ST ALBANS VT
250 NW QUINCY PL-CHEHALIS-WA,"",250 NW QUINCY PL,"CHEHALIS, WA",98532,US,46.66589,-122.97207,"Rail,Truck","Rail,Truck",849150000,CHEHALIS WA
2501 W 3RD ST-PECOS-TX,"",2501 W 3RD ST,"PECOS, TX",79772,US,31.42946,-103.49149,"Rail,Truck","Rail,Truck",695430000,PECOS TX
25035 367TH AVE-KIMBALL-SD,"",25035 367TH AVE,"KIMBALL, SD",57355,US,43.74666,-98.95805,"Rail,Truck","Rail,Truck",528450000,KIMBALL SD
251 RAILROAD ST-ADAMS-WI,"",251 RAILROAD ST,"ADAMS, WI",53910,US,43.95615,-89.83394,"Rail,Truck","Rail,Truck",333164000,ADAMS WI
2513 MARKEN RD-VALDERS-WI,"",2513 MARKEN RD,"VALDERS, WI",54245,US,44.06518,-87.87842,"Rail,Truck","Rail,Truck",331178000,VALDERS WI
2517 OLD TOWN RD-UNION GAP-WA,"",2517 OLD TOWN RD,"UNION GAP, WA",98903,US,46.60221,-120.5066,"Rail,Truck","Rail,Truck",848440000,YAKIMA WA
2522 S 24TH ST-SHEBOYGAN-WI,"",2522 S 24TH ST,"SHEBOYGAN, WI",53081,US,43.71314,-87.75276,"Rail,Truck","Rail,Truck",332140000,SHEBOYGAN WI
25385 PECKHAM RD-WILDER-ID,"",25385 PECKHAM RD,"WILDER, ID",83676,US,43.67567,-116.90157,"Rail,Truck","Rail,Truck",839157000,WILDER ID
2553 QUALITY LN-KNOXVILLE-TN,"",2553 QUALITY LN,"KNOXVILLE, TN",37931,US,35.94697,-83.92657,"Rail,Truck","Rail,Truck",424250000,KNOXVILLE TN
2555 S YELLOWSTONE HWY-SAINT ANTHONY-ID,"",2555 S YELLOWSTONE HWY,"SAINT ANTHONY, ID",83445,US,43.94806,-111.69072,"Rail,Truck","Rail,Truck",832180000,ST ANTHONY ID
2560 N 3000 W-DELTA-UT,"",2560 N 3000 W,"DELTA, UT",84624,US,39.33777,-112.59721,"Rail,Truck","Rail,Truck",766114000,DELTA UT
2579 PETTIBONE AVE-MUSCATINE-IA,"",2579 PETTIBONE AVE,"MUSCATINE, IA",52761,US,41.41299,-91.05736,"Rail,Truck","Rail,Truck",534960000,MUSCATINE IA
2580 6TH AVE-GRAND MARSH-WI,"",2580 6TH AVE,"GRAND MARSH, WI",53936,US,43.88408,-89.70285,"Rail,Truck","Rail,Truck",333172000,GRAND MARSH WI
2582 SALISBURY HWY-STATESVILLE-NC,"",2582 SALISBURY HWY,"STATESVILLE, NC",28677,US,35.77526,-80.88819,"Rail,Truck","Rail,Truck",414650000,STATESVILLE (ARC) NC
25985 482 AVE-BRANDON-SD,"",25985 482 AVE,"BRANDON, SD",57005,US,43.61741,-96.5731,"Rail,Truck","Rail,Truck",527155000,CORSON SD
26 SUNSET AVE-MILTON-VT,"",26 SUNSET AVE,"MILTON, VT",05468,US,44.63553,-73.09003,"Rail,Truck","Rail,Truck",133721000,MILTON VT
2600 S STATE ROUTE 4-ATTICA-OH,"",2600 S STATE ROUTE 4,"ATTICA, OH",44807,US,41.07,-82.88,"Rail,Truck","Rail,Truck",345372000,ATTICA OH
26033 482ND AVE-BRANDON-SD,"",26033 482ND AVE,"BRANDON, SD",57005,US,43.61741,-96.5731,"Rail,Truck","Rail,Truck",527155000,CORSON SD
26194 HWY 20-CORDER-MO,"",26194 HWY 20,"CORDER, MO",64021,US,39.09948,-93.63855,"Rail,Truck","Rail,Truck",569218000,CORDER MO
2621 TIDAL RD-DEER PARK-TX,"",2621 TIDAL RD,"DEER PARK, TX",77536,US,29.71814,-95.14036,"Rail,Truck","Rail,Truck",684773000,DEER PARK TX
263 EDWARD ST-ST THOMAS-ON,"",263 EDWARD ST,"ST THOMAS, ON",N5P 4A9,CA,42.78615,-81.18895,"Rail,Truck","Rail,Truck",048970000,ST THOMAS ON
2638 W 1700 S-ABERDEEN-ID,"",2638 W 1700 S,"ABERDEEN, ID",83210,US,42.943,-112.83685,"Rail,Truck","Rail,Truck",835299000,ABERDEEN ID
264 E ST-GRANITE CITY-IL,"",264 E ST,"GRANITE CITY, IL",62040,US,38.67443,-90.16065,"Rail,Truck","Rail,Truck",396292000,GRANITE CITY IL
264 S STATE ST-PRESTON-ID,"",264 S STATE ST,"PRESTON, ID",83263,US,42.09307,-111.87932,"Rail,Truck","Rail,Truck",835973000,PRESTON ID
265 E COMMERCIAL ST-WEISER-ID,"",265 E COMMERCIAL ST,"WEISER, ID",83672,US,44.24479,-116.97467,"Rail,Truck","Rail,Truck",834787000,WEISER ID
265 I-35-DEVINE-TX,"",265 I-35,"DEVINE, TX",78016,US,29.14178,-98.90274,"Rail,Truck","Rail,Truck",692674000,DEVINE TX
2651 S MILITARY HWY-CHESAPEAKE-VA,"",2651 S MILITARY HWY,"CHESAPEAKE, VA",23324,US,36.78617,-76.41185,"Rail,Truck","Rail,Truck",261200000,CHESAPEAKE (BB) VA
266 LOUISIANA HWY 3142-TAFT-LA,"",266 LOUISIANA HWY 3142,"TAFT, LA",70057,US,29.98073,-90.45944,"Rail,Truck","Rail,Truck",646143000,TAFT LA
2690 N M 52-WEBBERVILLE-MI,"",2690 N M 52,"WEBBERVILLE, MI",48892,US,42.66055,-84.1615,"Rail,Truck","Rail,Truck",316820000,WEBBERVILLE MI
2690 STATE HWY 194-HART-TX,"",2690 STATE HWY 194,"HART, TX",79043,US,34.3845,-102.1156,"Rail,Truck","Rail,Truck",674570000,HART TX
27 W 250 S-BRINGHURST-IN,"",27 W 250 S,"BRINGHURST, IN",46913,US,40.52447,-86.51932,"Rail,Truck","Rail,Truck",366675000,BRINGHURST IN
"2700 BOUL JEAN-JACQUES COSSETTE-VAL-D'OR-QC","",2700 BOUL JEAN-JACQUES COSSETTE,"VAL-D'OR, QC",J9P 6Y5,CA,48.10834,-77.77483,"Rail,Truck","Rail,Truck",038425000,VAL DOR QC
2701 E COUNTY RD 1 S-MONTE VISTA-CO,"",2701 E COUNTY RD 1 S,"MONTE VISTA, CO",81144,US,37.57967,-106.1421,"Rail,Truck","Rail,Truck",757519000,MONTE VISTA CO
2708 JARMAN ST-MUSKEGON-MI,"",2708 JARMAN ST,"MUSKEGON, MI",49444,US,43.20111,-86.23888,"Rail,Truck","Rail,Truck",317287000,MUSKEGON HEIGHTS MI
271 HWY 30-HANSEN-ID,"",271 HWY 30,"HANSEN, ID",83334,US,42.53231,-114.30915,"Rail,Truck","Rail,Truck",837823000,HANSEN ID
2715 S 6TH ST-SAINT JOSEPH-MO,"",2715 S 6TH ST,"SAINT JOSEPH, MO",64501,US,39.73884,-94.85493,"Rail,Truck","Rail,Truck",566330000,ST JOSEPH MO
272 N BASSETT RD-ROBERTS-ID,"",272 N BASSETT RD,"ROBERTS, ID",83444,US,43.6694,-112.09839,"Rail,Truck","Rail,Truck",832712000,GOLDEN VALLEY ID
272 NASHUA ST-LEOMINSTER-MA,"",272 NASHUA ST,"LEOMINSTER, MA",01453,US,42.54166,-71.7375,"Rail,Truck","Rail,Truck",145155000,N LEOMINSTER MA
2735 PT NEAL CR RD-SERGEANT BLUFF-IA,"",2735 PT NEAL CR RD,"SERGEANT BLUFF, IA",51054,US,42.39962,-96.35429,"Rail,Truck","Rail,Truck",547464000,SERGEANT BLUFF IA
2740 COUCH RD-PUTNAM-ON,"",2740 COUCH RD,"PUTNAM, ON",N0L 2B0,CA,42.98839,-80.94863,"Rail,Truck","Rail,Truck",048501000,PUTNAM ON
2746 OLD DALLAS RD-WACO-TX,"",2746 OLD DALLAS RD,"WACO, TX",76705,US,31.57811,-97.10194,"Rail,Truck","Rail,Truck",669742000,BELLMEAD TX
2750 ACORN RD-SABETHA-KS,"",2750 ACORN RD,"SABETHA, KS",66534,US,39.90475,-95.80306,"Rail,Truck","Rail,Truck",582112000,SABETHA KS
2753 PORT NEAL RD-SERGEANT BLUFF-IA,"",2753 PORT NEAL RD,"SERGEANT BLUFF, IA",51054,US,42.39962,-96.35429,"Rail,Truck","Rail,Truck",547464000,SERGEANT BLUFF IA
27550 LLEWELLYN RD-CORVALLIS-OR,"",27550 LLEWELLYN RD,"CORVALLIS, OR",97333,US,44.532,-123.2,"Rail,Truck","Rail,Truck",854739000,CORVALLIS JCT OR
2760 KELLER RD-OWENSBORO-KY,"",2760 KELLER RD,"OWENSBORO, KY",42301,US,37.76547,-87.1129,"Rail,Truck","Rail,Truck",296230000,OWENSBORO KY
277 S MAPLE ST-GRANT-MI,"",277 S MAPLE ST,"GRANT, MI",49327,US,43.33611,-85.81083,"Rail,Truck","Rail,Truck",314893000,GRANT MI
2777 N BROADWELL AVE-GRAND ISLAND-NE,"",2777 N BROADWELL AVE,"GRAND ISLAND, NE",68803,US,40.93226,-98.33732,"Rail,Truck","Rail,Truck",555720000,GRAND ISLAND NE
2790 W MARKET ST-YORK-PA,"",2790 W MARKET ST,"YORK, PA",17404,US,39.97285,-76.71633,"Rail,Truck","Rail,Truck",209420000,YORK (ESPN) PA
2801 ROCK RD-GRANITE CITY-IL,"",2801 ROCK RD,"GRANITE CITY, IL",62040,US,38.67443,-90.16065,"Rail,Truck","Rail,Truck",396292000,GRANITE CITY IL
28136 HWY 62 E-ARLINGTON-GA,"",28136 HWY 62 E,"ARLINGTON, GA",39813,US,31.43,-84.725,"Rail,Truck","Rail,Truck",469390000,ARLINGTON GA
28232 ENDICOTT RD-COLFAX-WA,"",28232 ENDICOTT RD,"COLFAX, WA",99111,US,46.88789,-117.44513,"Rail,Truck","Rail,Truck",847154000,MOCKONEMA WA
2833 COULSON RD-BILLINGS-MT,"",2833 COULSON RD,"BILLINGS, MT",59101,US,45.8193,-108.4141,"Rail,Truck","Rail,Truck",708559000,LOCKWOOD MT
2833 N PACIFIC HWY-CENTRAL POINT-OR,"",2833 N PACIFIC HWY,"CENTRAL POINT, OR",97502,US,42.37453,-122.9195,"Rail,Truck","Rail,Truck",859181000,CENTRAL POINT OR
2834 COUNTRY RD 359-PALMYRA-MO,"",2834 COUNTRY RD 359,"PALMYRA, MO",63461,US,39.85652,-91.45726,"Rail,Truck","Rail,Truck",564119000,SOUTH RIVER MO
2834 COUNTY RD 359-PALMYRA-MO,"",2834 COUNTY RD 359,"PALMYRA, MO",63461,US,39.85652,-91.45726,"Rail,Truck","Rail,Truck",564119000,SOUTH RIVER MO
28493 S ARIZONA AVE-WELLTON-AZ,"",28493 S ARIZONA AVE,"WELLTON, AZ",85356,US,32.671,-114.12297,"Rail,Truck","Rail,Truck",798181000,WELLTON AZ
2850 S PEART RD-CASA GRANDE-AZ,"",2850 S PEART RD,"CASA GRANDE, AZ",85193,US,32.85721,-111.72542,"Rail,Truck","Rail,Truck",796579000,SECO AZ
28536 US HWY 264 E-BELHAVEN-NC,"",28536 US HWY 264 E,"BELHAVEN, NC",27810,US,35.54,-76.62333,"Rail,Truck","Rail,Truck",403818000,BELHAVEN NC
288 GUADALUPE ST-GUADALUPE-CA,"",288 GUADALUPE ST,"GUADALUPE, CA",93434,US,34.96262,-120.57335,"Rail,Truck","Rail,Truck",885131000,GUADALUPE CA
29261 N HWY 240-SLATER-MO,"",29261 N HWY 240,"SLATER, MO",65349,US,39.22276,-93.06469,"Rail,Truck","Rail,Truck",569126000,SLATER MO
29286 C38-MERRILL-IA,"",29286 C38,"MERRILL, IA",51038,US,42.72046,-96.24831,"Rail,Truck","Rail,Truck",547253000,MERRILL IA
2929 COUNTY RD JJ-ARTOIS-CA,"",2929 COUNTY RD JJ,"ARTOIS, CA",95913,US,39.61965,-122.19384,"Rail,Truck","Rail,Truck",872938000,ARTOIS CA
2936 TELEPHONE RD-CALEDONIA-NY,"",2936 TELEPHONE RD,"CALEDONIA, NY",14423,US,42.97305,-77.85305,"Rail,Truck","Rail,Truck",184512000,CALEDONIA NY
3 MILES N ON HWY 169-VERNON CENTER-MN,"",3 MILES N ON HWY 169,"VERNON CENTER, MN",56090,US,44.17252,-93.9995,"Rail,Truck","Rail,Truck",508420000,MANKATO MN
300 1ST ST-WELCOME-MN,"",300 1ST ST,"WELCOME, MN",56181,US,43.6662,-94.60056,"Rail,Truck","Rail,Truck",508872000,WELCOME MN
300 RAILROAD ST-HARTLAND-MN,"",300 RAILROAD ST,"HARTLAND, MN",56042,US,43.80681,-93.48431,"Rail,Truck","Rail,Truck",508623000,HARTLAND MN
300 W MAIN ST-ASH GROVE-MO,"",300 W MAIN ST,"ASH GROVE, MO",65604,US,37.31536,-93.58582,"Rail,Truck","Rail,Truck",576538000,ASH GROVE MO
301 1ST AVE SW-LAKOTA-ND,"",301 1ST AVE SW,"LAKOTA, ND",58344,US,48.03977,-98.34516,"Rail,Truck","Rail,Truck",511960000,LAKOTA ND
301 1ST ST E-HIGHMORE-SD,"",301 1ST ST E,"HIGHMORE, SD",57345,US,44.52155,-99.44238,"Rail,Truck","Rail,Truck",525350000,HIGHMORE SD
301 6TH ST NE-BOWMAN-ND,"",301 6TH ST NE,"BOWMAN, ND",58623,US,46.1837,-103.3924,"Rail,Truck","Rail,Truck",519943000,BOWMAN ND
301 GAP RD-RONKS-PA,"",301 GAP RD,"RONKS, PA",17572,US,39.98182,-76.16777,"Rail,Truck","Rail,Truck",209252000,STRASBURG PA
301 S 1ST ST-CLINTON-OK,"",301 S 1ST ST,"CLINTON, OK",73601,US,35.50764,-98.98682,"Rail,Truck","Rail,Truck",635478000,CLINTON OK
302 66TH AVE NE-CARRINGTON-ND,"",302 66TH AVE NE,"CARRINGTON, ND",58421,US,47.4565,-99.13305,"Rail,Truck","Rail,Truck",515274000,CARRINGTON ND
302 FRONT ST-MOORETON-ND,"",302 FRONT ST,"MOORETON, ND",58061,US,46.26905,-96.87629,"Rail,Truck","Rail,Truck",517149000,MOORETON ND
302 W DANENBERG RD-EL CENTRO-CA,"",302 W DANENBERG RD,"EL CENTRO, CA",92244,US,32.7935,-115.55121,"Rail,Truck","Rail,Truck",888180000,EL CENTRO CA
302 W SECTIONLINE RD-ASHLEY-MI,"",302 W SECTIONLINE RD,"ASHLEY, MI",48806,US,43.18666,-84.47444,"Rail,Truck","Rail,Truck",316311000,ASHLEY MI
3022 W 1500 S-KENTLAND-IN,"",3022 W 1500 S,"KENTLAND, IN",47951,US,40.77027,-87.44527,"Rail,Truck","Rail,Truck",363980000,KENTLAND IN
303 RAILRD AVE-NICHOLS-SC,"",303 RAILRD AVE,"NICHOLS, SC",29581,US,34.23,-79.14,"Rail,Truck","Rail,Truck",444412000,NICHOLS SC
303 S 14TH ST-ABILENE-TX,"",303 S 14TH ST,"ABILENE, TX",79602,US,32.44925,-99.73844,"Rail,Truck","Rail,Truck",678810000,ABILENE TX
305 N NEWTON ST-MIDDLETON-MI,"",305 N NEWTON ST,"MIDDLETON, MI",48856,US,43.18361,-84.70472,"Rail,Truck","Rail,Truck",316361000,MIDDLETON MI
306 N CAROLINE ST-MIDDLETON-MI,"",306 N CAROLINE ST,"MIDDLETON, MI",48856,US,43.18361,-84.70472,"Rail,Truck","Rail,Truck",316361000,MIDDLETON MI
306 RAILWAY AVE-TULARE-SD,"",306 RAILWAY AVE,"TULARE, SD",57476,US,44.73836,-98.50538,"Rail,Truck","Rail,Truck",522695000,TULARE SD
3060 WILKES ST-MEIGS-GA,"",3060 WILKES ST,"MEIGS, GA",31765,US,31.07222,-84.08916,"Rail,Truck","Rail,Truck",468810000,MEIGS GA
307 N VAN GORDON AVE-GRAETTINGER-IA,"",307 N VAN GORDON AVE,"GRAETTINGER, IA",51342,US,43.23644,-94.74853,"Rail,Truck","Rail,Truck",541734000,GRAETTINGER IA
307 W 1ST ST-SANBORN-IA,"",307 W 1ST ST,"SANBORN, IA",51248,US,43.17992,-95.65647,"Rail,Truck","Rail,Truck",542624000,SANBORN IA
30750 5TH AVE NE-STERLING-ND,"",30750 5TH AVE NE,"STERLING, ND",58572,US,46.81296,-100.29033,"Rail,Truck","Rail,Truck",515947000,STERLING ND
309 SOLLID RD-CONRAD-MT,"",309 SOLLID RD,"CONRAD, MT",59425,US,48.16883,-111.94485,"Rail,Truck","Rail,Truck",703640000,CONRAD MT
310 E 3RD ST-ASHTON-IA,"",310 E 3RD ST,"ASHTON, IA",51232,US,43.31038,-95.78907,"Rail,Truck","Rail,Truck",542294000,ASHTON IA
310 E FRONT ST-RICHLAND-NE,"",310 E FRONT ST,"RICHLAND, NE",68601,US,41.43878,-97.20698,"Rail,Truck","Rail,Truck",554084000,RICHLAND NE
310 FARMLAND DR-KAUKAUNA-WI,"",310 FARMLAND DR,"KAUKAUNA, WI",54130,US,44.28692,-88.27261,"Rail,Truck","Rail,Truck",325562000,KAUKAUNA WI
310 S FRONT ST-TOWNSEND-MT,"",310 S FRONT ST,"TOWNSEND, MT",59644,US,46.32135,-111.52367,"Rail,Truck","Rail,Truck",715140000,TOWNSEND MT
310 W 3RD ST-OAKLEY-MI,"",310 W 3RD ST,"OAKLEY, MI",48649,US,43.13793,-84.157,"Rail,Truck","Rail,Truck",316287000,OAKLEY MI
3100 LOCKBOURNE RD-COLUMBUS-OH,"",3100 LOCKBOURNE RD,"COLUMBUS, OH",43207,US,39.975,-82.975,"Rail,Truck","Rail,Truck",353100000,COLUMBUS (CCRA) OH
3106 S FAITH HOME RD-TURLOCK-CA,"",3106 S FAITH HOME RD,"TURLOCK, CA",95380,US,37.4639,-120.92107,"Rail,Truck","Rail,Truck",875876000,CHEMURGIC CA
311 S BENT ST-POWELL-WY,"",311 S BENT ST,"POWELL, WY",82435,US,44.75316,-108.74878,"Rail,Truck","Rail,Truck",733117000,POWELL WY
3111 N POST RD-INDIANAPOLIS-IN,"",3111 N POST RD,"INDIANAPOLIS, IN",46226,US,39.75,-86.1,"Rail,Truck","Rail,Truck",368700000,INDIANAPOLIS HAWTHO IN
313 MAIN ST-ALBERTA-MN,"",313 MAIN ST,"ALBERTA, MN",56207,US,45.57476,-96.05031,"Rail,Truck","Rail,Truck",506670000,ALBERTA MN
314 RAILROAD AVE-HOLLY HILL-SC,"",314 RAILROAD AVE,"HOLLY HILL, SC",29059,US,33.32233,-80.41163,"Rail,Truck","Rail,Truck",445954000,HOLLY HILL SC
315 N ST-BASIN-WY,"",315 N ST,"BASIN, WY",82410,US,44.38111,-108.03632,"Rail,Truck","Rail,Truck",732163000,BASIN WY
3154 DEPOT ST-WAWAKA-IN,"",3154 DEPOT ST,"WAWAKA, IN",46794,US,41.45886,-85.48382,"Rail,Truck","Rail,Truck",361524000,WAWAKA IN
3154 W DEPOT ST-WAWAKA-IN,"",3154 W DEPOT ST,"WAWAKA, IN",46794,US,41.45886,-85.48382,"Rail,Truck","Rail,Truck",361524000,WAWAKA IN
316 BOHANNON AVE-GREENEVILLE-TN,"",316 BOHANNON AVE,"GREENEVILLE, TN",37745,US,36.16376,-82.83666,"Rail,Truck","Rail,Truck",422550000,GREENEVILLE TN
3162 200TH ST (HWY 20)-DUNCOMBE-IA,"",3162 200TH ST (HWY 20),"DUNCOMBE, IA",50532,US,42.47186,-94.05841,"Rail,Truck","Rail,Truck",543615000,JUDD IA
317 4TH ST NE-MADELIA-MN,"",317 4TH ST NE,"MADELIA, MN",56062,US,44.05451,-94.41812,"Rail,Truck","Rail,Truck",508514000,MADELIA MN
317 WEST LAUNDRE ST-TERRY-MT,"",317 WEST LAUNDRE ST,"TERRY, MT",59349,US,46.79428,-105.31358,"Rail,Truck","Rail,Truck",707170000,TERRY MT
3176 K RD-SYRACUSE-NE,"",3176 K RD,"SYRACUSE, NE",68446,US,40.65596,-96.18534,"Rail,Truck","Rail,Truck",553754000,SYRACUSE NE
320 E INDUSTRIAL PARK RD-SHELBY-MT,"",320 E INDUSTRIAL PARK RD,"SHELBY, MT",59474,US,48.50826,-111.85893,"Rail,Truck","Rail,Truck",703383000,SHELBY MT
320 RUNNING PUMP RD-LANCASTER-PA,"",320 RUNNING PUMP RD,"LANCASTER, PA",17603,US,40.05427,-76.36473,"Rail,Truck","Rail,Truck",209245000,ROHRERSTOWN PA
3201 SUFFOLK DR-FORT WORTH-TX,"",3201 SUFFOLK DR,"FORT WORTH, TX",76133,US,32.70366,-97.33953,"Rail,Truck","Rail,Truck",668175000,BIRDS TX
3202 BAILEY RD-MARLOW-OK,"",3202 BAILEY RD,"MARLOW, OK",73055,US,34.64855,-97.95419,"Rail,Truck","Rail,Truck",629434000,MARLOW OK
3203 HWY 24-WAUCOMA-IA,"",3203 HWY 24,"WAUCOMA, IA",52171,US,43.11472,-92.03325,"Rail,Truck","Rail,Truck",531298000,JACKSON JCT IA
32092 HWY 34-TANGENT-OR,"",32092 HWY 34,"TANGENT, OR",97389,US,44.54072,-123.10829,"Rail,Truck","Rail,Truck",854549000,TANGENT OR
321 8TH AVE S-BUHL-ID,"",321 8TH AVE S,"BUHL, ID",83316,US,42.59748,-114.75401,"Rail,Truck","Rail,Truck",837836000,BUHL ID
321 THURMAN POE WAY-HUNTINGTON-IN,"",321 THURMAN POE WAY,"HUNTINGTON, IN",46750,US,40.88067,-85.49313,"Rail,Truck","Rail,Truck",365150000,HUNTINGTON IN
321 W DAHLIA AVE-FREDERICK-OK,"",321 W DAHLIA AVE,"FREDERICK, OK",73542,US,34.37039,-99.00636,"Rail,Truck","Rail,Truck",638740000,FREDERICK OK
322 4TH AVE-REYNOLDS-ND,"",322 4TH AVE,"REYNOLDS, ND",58275,US,47.6738,-97.10993,"Rail,Truck","Rail,Truck",511786000,REYNOLDS ND
3259 US HWY 52-HARVEY-ND,"",3259 US HWY 52,"HARVEY, ND",58341,US,47.77194,-99.93387,"Rail,Truck","Rail,Truck",515434000,HARVEY ND
326 RAILWAY ST-TEMPLETON-IA,"",326 RAILWAY ST,"TEMPLETON, IA",51463,US,41.92174,-94.94339,"Rail,Truck","Rail,Truck",546293000,TEMPLETON IA
3265 DURANT AVE-YETTER-IA,"",3265 DURANT AVE,"YETTER, IA",51433,US,42.3164,-94.84121,"Rail,Truck","Rail,Truck",543877000,YETTER IA
3269 S VAN BUREN-RICHVILLE-MI,"",3269 S VAN BUREN,"RICHVILLE, MI",48758,US,43.41457,-83.67727,"Rail,Truck","Rail,Truck",315368000,RICHVILLE MI
327 1ST ST SW-ULEN-MN,"",327 1ST ST SW,"ULEN, MN",56585,US,47.0789,-96.2586,"Rail,Truck","Rail,Truck",503913000,ULEN MN
32880 RD 759 3/4-GRANT-NE,"",32880 RD 759 3/4,"GRANT, NE",69140,US,40.83933,-101.72649,"Rail,Truck","Rail,Truck",559160000,GRANT NE
329 1ST ST SW-ULEN-MN,"",329 1ST ST SW,"ULEN, MN",56585,US,47.0789,-96.2586,"Rail,Truck","Rail,Truck",503913000,ULEN MN
3302 E GREENE ST-CARLSBAD-NM,"",3302 E GREENE ST,"CARLSBAD, NM",88220,US,32.44475,-104.1843,"Rail,Truck","Rail,Truck",777550000,CARLSBAD NM
33041 RAILROAD AVE-LUCERNE-CO,"",33041 RAILROAD AVE,"LUCERNE, CO",80646,US,40.47992,-104.69906,"Rail,Truck","Rail,Truck",742228000,LUCERNE CO
3324 S COUNTRY RD 325W-LOGANSPORT-IN,"",3324 S COUNTRY RD 325W,"LOGANSPORT, IN",46947,US,40.7075,-86.44888,"Rail,Truck","Rail,Truck",366276000,CLYMERS IN
3325 RIVER RD-WILMINGTON-NC,"",3325 RIVER RD,"WILMINGTON, NC",28412,US,34.24648,-77.9504,"Rail,Truck","Rail,Truck",409160000,WILMINGTON EX IM NC
3325 US HWY 54-DALHART-TX,"",3325 US HWY 54,"DALHART, TX",79022,US,36.06547,-102.52335,"Rail,Truck","Rail,Truck",672287000,DALHART TCF TX
3327 PIPELINE RD-CLEBURNE-TX,"",3327 PIPELINE RD,"CLEBURNE, TX",76033,US,32.3416,-97.3804,"Rail,Truck","Rail,Truck",668550000,CLEBURNE TX
333 MAIN ST 22ND FL-WINNIPEG-MB,"",333 MAIN ST 22ND FL,"WINNIPEG, MB",R3C 4E2,CA,49.97159,-97.30029,"Rail,Truck","Rail,Truck",061744000,LILYFIELD MB
3330 RIVER RD-WILMINGTON-NC,"",3330 RIVER RD,"WILMINGTON, NC",28412,US,34.24648,-77.9504,"Rail,Truck","Rail,Truck",409160000,WILMINGTON EX IM NC
33388 190TH AVE SE-ERSKINE-MN,"",33388 190TH AVE SE,"ERSKINE, MN",56535,US,47.6663,-96.00306,"Rail,Truck","Rail,Truck",503570000,ERSKINE MN
3377 STATE HWY 18 N-MONAHANS-TX,"",3377 STATE HWY 18 N,"MONAHANS, TX",79756,US,31.59706,-102.88641,"Rail,Truck","Rail,Truck",694910000,MONAHANS TX
3388 EBY RD-SMITHVILLE-OH,"",3388 EBY RD,"SMITHVILLE, OH",44677,US,40.78378,-81.43518,"Rail,Truck","Rail,Truck",345439000,SMITHVILLE OH
34 KIDDER POINT RD-SEARSPORT-ME,"",34 KIDDER POINT RD,"SEARSPORT, ME",04974,US,44.48058,-68.88668,"Rail,Truck","Rail,Truck",117161000,KIDDERS ME
3400 JONES RD-DANVILLE-IL,"",3400 JONES RD,"DANVILLE, IL",61834,US,40.14213,-87.61469,"Rail,Truck","Rail,Truck",387650000,DANVILLE IL
3400 W 7TH ST-BIG SPRING-TX,"",3400 W 7TH ST,"BIG SPRING, TX",79720,US,32.25513,-101.4774,"Rail,Truck","Rail,Truck",679680000,BIG SPRING TX
341 US 29 BUSINESS-REIDSVILLE-NC,"",341 US 29 BUSINESS,"REIDSVILLE, NC",27320,US,36.36027,-79.66333,"Rail,Truck","Rail,Truck",412270000,REIDSVILLE NC
34133 GOLTRA RD SE-ALBANY-OR,"",34133 GOLTRA RD SE,"ALBANY, OR",97322,US,44.63056,-123.10218,"Rail,Truck","Rail,Truck",854550000,ALBANY OR
3415 W 127TH ST-BLUE ISLAND-IL,"",3415 W 127TH ST,"BLUE ISLAND, IL",60406,US,41.63937,-87.65956,"Rail,Truck","Rail,Truck",381380000,BLUE ISLAND IL
3435 S 1450 W-FRANCESVILLE-IN,"",3435 S 1450 W,"FRANCESVILLE, IN",47946,US,40.98944,-86.88313,"Rail,Truck","Rail,Truck",363792000,FRANCESVILLE IN
34708 OLD PRINCIPAL RD RR1-BELLFLOWER-IL,"",34708 OLD PRINCIPAL RD RR1,"BELLFLOWER, IL",61724,US,40.28425,-88.60059,"Rail,Truck","Rail,Truck",387487000,WEEDMAN IL
3486 N GLADE RD-PASCO-WA,"",3486 N GLADE RD,"PASCO, WA",99301,US,46.35318,-119.09482,"Rail,Truck","Rail,Truck",847883000,GLADE WA
350 DUPONT RD-NORTH BAY-ON,"",350 DUPONT RD,"NORTH BAY, ON",P1B 8Z4,CA,46.31385,-79.45981,"Rail,Truck","Rail,Truck",051200000,NORTH BAY ON
3500 DONIPHAN DR-EL PASO-TX,"",3500 DONIPHAN DR,"EL PASO, TX",79922,US,31.744,-106.46,"Rail,Truck","Rail,Truck",696900000,EL PASO TX
35427 US 385-WRAY-CO,"",35427 US 385,"WRAY, CO",80758,US,40.08242,-102.21601,"Rail,Truck","Rail,Truck",743140000,WRAY CO
355 HWY 99 S-JUNCTION CITY-OR,"",355 HWY 99 S,"JUNCTION CITY, OR",97448,US,44.2197,-123.2023,"Rail,Truck","Rail,Truck",855632000,JUNCTION CITY OR
3560 HINDSBURG RD-FANCHER-NY,"",3560 HINDSBURG RD,"FANCHER, NY",14452,US,43.16388,-78.72772,"Rail,Truck","Rail,Truck",185130000,LOCKPORT NY
35610 GENERAL MAHONE BLVD-IVOR-VA,"",35610 GENERAL MAHONE BLVD,"IVOR, VA",23866,US,36.90605,-76.89488,"Rail,Truck","Rail,Truck",261917000,IVOR VA
3588 COUNTY RD H-HEREFORD-TX,"",3588 COUNTY RD H,"HEREFORD, TX",79045,US,34.8174,-102.39228,"Rail,Truck","Rail,Truck",674278000,HEREFORD TX
359 WASHINGTON ST # U-WRIGHTSTOWN-WI,"",359 WASHINGTON ST # U,"WRIGHTSTOWN, WI",54180,US,44.3199,-88.20617,"Rail,Truck","Rail,Truck",324795000,WRIGHTSTOWN WI
36 N RD-DETROIT-ME,"",36 N RD,"DETROIT, ME",04929,US,44.7925,-69.29722,"Rail,Truck","Rail,Truck",115871000,DETROIT ME
3601 PAN AMERICAN FWY-ALBUQUERQUE-NM,"",3601 PAN AMERICAN FWY,"ALBUQUERQUE, NM",87107,US,35.049,-106.6539,"Rail,Truck","Rail,Truck",774900000,ALBUQUERQUE NM
3601 RALPH AVE-LOUISVILLE-KY,"",3601 RALPH AVE,"LOUISVILLE, KY",40211,US,38.2,-85.76,"Rail,Truck","Rail,Truck",286550000,CENTRAL AVENUE KY
36061 US HWY 12-IPSWICH-SD,"",36061 US HWY 12,"IPSWICH, SD",57451,US,45.44292,-98.96358,"Rail,Truck","Rail,Truck",522419000,SUN PRODUCTS SD
3610 E KEARNEY ST-SPRINGFIELD-MO,"",3610 E KEARNEY ST,"SPRINGFIELD, MO",65802,US,37.22708,-93.33,"Rail,Truck","Rail,Truck",576550000,SPRINGFIELD MO
3620 DAVID RAMIREZ ST-SEBASTIAN-TX,"",3620 DAVID RAMIREZ ST,"SEBASTIAN, TX",78594,US,26.34665,-97.79149,"Rail,Truck","Rail,Truck",689790000,SEBASTIAN TX
3625 E US HWY 24-GOODLAND-IN,"",3625 E US HWY 24,"GOODLAND, IN",47948,US,40.76333,-87.29361,"Rail,Truck","Rail,Truck",363993000,GOODLAND IN
36262 STATE HWY 22-MONROE-NE,"",36262 STATE HWY 22,"MONROE, NE",68647,US,41.47309,-97.59388,"Rail,Truck","Rail,Truck",554164000,MONROE NE
3630 BROOKLAKE RD NE-SALEM-OR,"",3630 BROOKLAKE RD NE,"SALEM, OR",97303,US,45.0497,-122.98776,"Rail,Truck","Rail,Truck",854136000,HOPMERE OR
3630 SELVITZ RD-FORT PIERCE-FL,"",3630 SELVITZ RD,"FORT PIERCE, FL",34981,US,27.45,-80.33,"Rail,Truck","Rail,Truck",496840000,FT PIERCE FL
36401 WELD COUNTY RD 24 1/2-ROGGEN-CO,"",36401 WELD COUNTY RD 24 1/2,"ROGGEN, CO",80652,US,40.1675,-104.371,"Rail,Truck","Rail,Truck",742323000,ROGGEN CO
367 N 2500 EAST RD-PANA-IL,"",367 N 2500 EAST RD,"PANA, IL",62557,US,39.39113,-89.09341,"Rail,Truck","Rail,Truck",392783000,PANA IL
3697 MICHIGAN AVE RD NE-CLEVELAND-TN,"",3697 MICHIGAN AVE RD NE,"CLEVELAND, TN",37323,US,35.15688,-84.87264,"Rail,Truck","Rail,Truck",427940000,CLEVELAND TN
37 E 900 N-MILFORD-IN,"",37 E 900 N,"MILFORD, IN",46542,US,41.41268,-85.84524,"Rail,Truck","Rail,Truck",362623000,MILFORD IN
3700 LINCOLN AVE-NORTH LITTLE ROCK-AR,"",3700 LINCOLN AVE,"NORTH LITTLE ROCK, AR",72114,US,34.76374,-92.25571,"Rail,Truck","Rail,Truck",612137000,N LITTLE ROCK AR
3712 NPARK DR-CENTRALIA-WA,"",3712 NPARK DR,"CENTRALIA, WA",98531,US,46.71744,-122.95263,"Rail,Truck","Rail,Truck",849118000,AMTRAK CENTRALIA PA WA
3720 VENOY RD-WAYNE-MI,"",3720 VENOY RD,"WAYNE, MI",48184,US,42.23836,-83.39577,"Rail,Truck","Rail,Truck",318360000,WAYNE MI
37252 US HWY 87-FORT BENTON-MT,"",37252 US HWY 87,"FORT BENTON, MT",59442,US,47.8133,-110.739,"Rail,Truck","Rail,Truck",706135000,KERSHAW MT
3761 E WEIDMAN RD-ROSEBUSH-MI,"",3761 E WEIDMAN RD,"ROSEBUSH, MI",48878,US,43.69916,-84.76777,"Rail,Truck","Rail,Truck",313926000,ROSEBUSH MI
3772 DAVIS HWY-LOUISA-VA,"",3772 DAVIS HWY,"LOUISA, VA",23093,US,38.025,-78.00444,"Rail,Truck","Rail,Truck",257263000,LOUISA VA
3800 DEEN RD-FORT WORTH-TX,"",3800 DEEN RD,"FORT WORTH, TX",76106,US,32.80083,-97.33764,"Rail,Truck","Rail,Truck",668200000,FORT WORTH SO TX
3800 WILMA DR-CLARKSTON-WA,"",3800 WILMA DR,"CLARKSTON, WA",99403,US,46.42662,-117.07236,"Rail,Truck","Rail,Truck",847198000,PORT OF WILMA WA
3807 PIPESTONE RD-DALLAS-TX,"",3807 PIPESTONE RD,"DALLAS, TX",75212,US,32.77077,-96.80008,"Rail,Truck","Rail,Truck",667300000,DALLAS TX
38202 STATE ROUTE 27-OAKESDALE-WA,"",38202 STATE ROUTE 27,"OAKESDALE, WA",99158,US,47.56005,-117.4953,"Rail,Truck","Rail,Truck",840574000,MARSHALL WA
3823 RUSSELL ST-ORANGEBURG-SC,"",3823 RUSSELL ST,"ORANGEBURG, SC",29115,US,33.48536,-80.85449,"Rail,Truck","Rail,Truck",445930000,ORANGEBURG SC
38334 400 ST NW COUNTY RD 5 & HWY 75-STEPHEN-MN,"",38334 400 ST NW COUNTY RD 5 & HWY 75,"STEPHEN, MN",56757,US,48.4503,-96.87346,"Rail,Truck","Rail,Truck",503230000,STEPHEN MN
38451 RANGE RD 22-RED DEER COUNTY-AB,"",38451 RANGE RD 22,"RED DEER COUNTY, AB",T4E 2N6,CA,52.3496,-113.802,"Rail,Truck","Rail,Truck",082500000,RED DEER AB
3854 N ANDERSON DR-DELPHI-IN,"",3854 N ANDERSON DR,"DELPHI, IN",46923,US,40.58876,-86.67492,"Rail,Truck","Rail,Truck",366650000,DELPHI IN
3854 TAYLOR HILL RD-ALBION-NY,"",3854 TAYLOR HILL RD,"ALBION, NY",14411,US,43.22957,-78.30583,"Rail,Truck","Rail,Truck",184185000,KNOWLESVILLE NY
3864 STATE ROUTE 613-MC COMB-OH,"",3864 STATE ROUTE 613,"MC COMB, OH",45858,US,41.10842,-83.79146,"Rail,Truck","Rail,Truck",346123000,MCCOMB OH
3892 BERM HWY-WOOD RIVER-IL,"",3892 BERM HWY,"WOOD RIVER, IL",62024,US,38.85998,-90.10293,"Rail,Truck","Rail,Truck",396245000,WOOD RIVER IL
3901 S SAGINAW RD-MIDLAND-MI,"",3901 S SAGINAW RD,"MIDLAND, MI",48640,US,43.62189,-84.25616,"Rail,Truck","Rail,Truck",313860000,MIDLAND MI
39139 HWY 18 W-DONALDSONVILLE-LA,"",39139 HWY 18 W,"DONALDSONVILLE, LA",70346,US,30.10155,-90.99841,"Rail,Truck","Rail,Truck",645191000,DONALDSONVILLE LA
392ND AVE S-ABERDEEN-SD,"",392ND AVE S,"ABERDEEN, SD",57401,US,45.4676,-98.3241,"Rail,Truck","Rail,Truck",522158000,BATH SD
394 E CENTER ST # 30-BANCROFT-ID,"",394 E CENTER ST # 30,"BANCROFT, ID",83217,US,42.70961,-111.858,"Rail,Truck","Rail,Truck",835463000,BANCROFT ID
3943 BUFFALO AVE-NIAGARA FALLS-NY,"",3943 BUFFALO AVE,"NIAGARA FALLS, NY",14303,US,43.11889,-78.99496,"Rail,Truck","Rail,Truck",185180000,NIAGARA FALLS NY
3956 ALLIS RD-MEDINA-NY,"",3956 ALLIS RD,"MEDINA, NY",14103,US,43.21852,-78.38677,"Rail,Truck","Rail,Truck",184188000,MEDINA NY
396 MAIN ST-TENNENT-NJ,"",396 MAIN ST,"TENNENT, NJ",07763,US,40.27773,-74.33121,"Rail,Truck","Rail,Truck",195256000,TENNENT (DRR) NJ
399 S STATE RD 49-VALPARAISO-IN,"",399 S STATE RD 49,"VALPARAISO, IN",46383,US,41.37611,-87.02694,"Rail,Truck","Rail,Truck",363265000,MALDEN IN
3999 E HUPP RD-LA PORTE-IN,"",3999 E HUPP RD,"LA PORTE, IN",46350,US,41.5241,-86.69421,"Rail,Truck","Rail,Truck",363165000,KINGSBURY IN
3rd Party-STACYVILLE-IA,3rd Party,203 E SPRING ST,"STACYVILLE, IA",50476,US,43.4409,-92.7855,"Rail,Truck","Rail,Truck",532225000,STACYVILLE IA
3rd party-BROWNTON-MN,"",8163 HWY 15,"BROWNTON, MN",55312,US,44.736,-94.61774,"Rail,Truck","Rail,Truck",505787000,BROWNTON MN
3rd party-BROWNTON-MN,3rd party,8163 HWY 15,"BROWNTON, MN",55312,US,44.736,-94.61774,"Rail,Truck","Rail,Truck",505787000,BROWNTON MN
40 5TH AVE NW-MOOSE JAW-SK,"",40 5TH AVE NW,"MOOSE JAW, SK",S6H 7X6,CA,50.3781,-105.53,"Rail,Truck","Rail,Truck",074040000,MOOSE JAW CLN SK
40 ASH ST-EASTON-MN,"",40 ASH ST,"EASTON, MN",56025,US,43.76663,-93.89958,"Rail,Truck","Rail,Truck",508717000,EASTON MN
400 BUCKEYE ST-PARKERSBURG-WV,"",400 BUCKEYE ST,"PARKERSBURG, WV",26101,US,39.26994,-81.56278,"Rail,Truck","Rail,Truck",274650000,PARKERSBURG WV
400 MILLER SELLERS RD-EVERGREEN-AL,"",400 MILLER SELLERS RD,"EVERGREEN, AL",36401,US,31.43015,-86.95854,"Rail,Truck","Rail,Truck",478620000,EVERGREEN AL
400 W WALNUT ST-BOTKINS-OH,"",400 W WALNUT ST,"BOTKINS, OH",45306,US,40.47826,-84.18643,"Rail,Truck","Rail,Truck",349617000,BOTKINS OH
4000 COMMERCE DR-WISCONSIN RAPIDS-WI,"",4000 COMMERCE DR,"WISCONSIN RAPIDS, WI",54494,US,44.40226,-89.82634,"Rail,Truck","Rail,Truck",327460000,WISCONSIN RAPIDS WI
4001 US HWY-FOUR OAKS-NC,"",4001 US HWY,"FOUR OAKS, NC",27524,US,35.44312,-78.43477,"Rail,Truck","Rail,Truck",406894000,FOUR OAKS NC
4002 W 600 N-ANDERSON-IN,"",4002 W 600 N,"ANDERSON, IN",46011,US,40.09842,-85.67366,"Rail,Truck","Rail,Truck",367860000,ANDERSON (ICRK) IN
4008 ROCKWOOD RD-FRANCIS CREEK-WI,"",4008 ROCKWOOD RD,"FRANCIS CREEK, WI",54214,US,44.16541,-87.69753,"Rail,Truck","Rail,Truck",331131000,FRANCIS CREEK WI
401 CEDAR AVE-ONIDA-SD,"",401 CEDAR AVE,"ONIDA, SD",57564,US,44.68911,-100.06287,"Rail,Truck","Rail,Truck",525520000,ONIDA SD
402 10TH ST-GLASGOW-MO,"",402 10TH ST,"GLASGOW, MO",65254,US,39.22698,-92.83792,"Rail,Truck","Rail,Truck",568437000,GLASGOW MO
4020 BOWLING GREEN RD-RUSSELLVILLE-KY,"",4020 BOWLING GREEN RD,"RUSSELLVILLE, KY",42276,US,36.84,-86.89,"Rail,Truck","Rail,Truck",297560000,RUSSELLVILLE KY
4040 W HWY 13-CORINNE-UT,"",4040 W HWY 13,"CORINNE, UT",84307,US,41.54533,-112.09603,"Rail,Truck","Rail,Truck",761769000,CORINNE UT
406 E K ST-FOREST CITY-IA,"",406 E K ST,"FOREST CITY, IA",50436,US,43.24632,-93.63752,"Rail,Truck","Rail,Truck",533270000,FOREST CITY IA
406 PACIFIC AVE S-HERMAN-MN,"",406 PACIFIC AVE S,"HERMAN, MN",56248,US,45.80855,-96.14488,"Rail,Truck","Rail,Truck",506311000,HERMAN MN
4075 RUE INDUSTRIELLE-CONTRECOEUR-QC,"",4075 RUE INDUSTRIELLE,"CONTRECOEUR, QC",J0L 1C0,CA,45.82782,-73.26198,"Rail,Truck","Rail,Truck",026628000,ST ANTOINE QC
409 HAZEL ST-JEFFERSON-OR,"",409 HAZEL ST,"JEFFERSON, OR",97352,US,44.71906,-123.00696,"Rail,Truck","Rail,Truck",854197000,JEFFERSON OR
409 N COUNTRY MARKET LN-VINCENNES-IN,"",409 N COUNTRY MARKET LN,"VINCENNES, IN",47591,US,38.6838,-87.43953,"Rail,Truck","Rail,Truck",376966000,FRITCHTON IN
410 4TH ST-HARTLEY-TX,"",410 4TH ST,"HARTLEY, TX",79044,US,35.89388,-102.40255,"Rail,Truck","Rail,Truck",672440000,HARTLEY TX
410 BRYANT AVE NE-HECTOR-MN,"",410 BRYANT AVE NE,"HECTOR, MN",55342,US,44.74536,-94.71053,"Rail,Truck","Rail,Truck",505918000,HECTOR MN
410 E 1ST ST-ORCHARD-NE,"",410 E 1ST ST,"ORCHARD, NE",68764,US,42.3327,-98.2376,"Rail,Truck","Rail,Truck",551324000,ORCHARD NE
410 E 3RD ST-MEAD-NE,"",410 E 3RD ST,"MEAD, NE",68041,US,41.22784,-96.48938,"Rail,Truck","Rail,Truck",553546000,MEAD NE
410 N 2ND AVE-LAREDO-MO,"",410 N 2ND AVE,"LAREDO, MO",64652,US,40.02735,-93.4426,"Rail,Truck","Rail,Truck",562780000,LAREDO MO
410 VALKSDAHL AVE-DANVILLE-KY,"",410 VALKSDAHL AVE,"DANVILLE, KY",40422,US,37.64436,-84.78517,"Rail,Truck","Rail,Truck",289744000,DANVILLE KY
4113 W 4 MILE RD-GRAYLING-MI,"",4113 W 4 MILE RD,"GRAYLING, MI",49738,US,44.66138,-84.71472,"Rail,Truck","Rail,Truck",311960000,GRAYLING MI
4133 S CARMEN RD-MIDDLEPORT-NY,"",4133 S CARMEN RD,"MIDDLEPORT, NY",14105,US,43.0,-78.0,"Rail,Truck","Rail,Truck",185128000,MIDDLEPORT NY
4134 STATE ROUTE 22-SALEM-NY,"",4134 STATE ROUTE 22,"SALEM, NY",12865,US,42.95,-73.39666,"Rail,Truck","Rail,Truck",173112000,EAGLE BRIDGE NY
414 W WRIGHT AVE-SHEPHERD-MI,"",414 W WRIGHT AVE,"SHEPHERD, MI",48883,US,43.52444,-84.69472,"Rail,Truck","Rail,Truck",313960000,SHEPHERD MI
415 N MARKET ST-PAXTON-IL,"",415 N MARKET ST,"PAXTON, IL",60957,US,40.46289,-88.09575,"Rail,Truck","Rail,Truck",387260000,PAXTON IL
415 N NELSON ST-POTTERVILLE-MI,"",415 N NELSON ST,"POTTERVILLE, MI",48876,US,42.62613,-84.7505,"Rail,Truck","Rail,Truck",316977000,POTTERVILLE MI
415 SQUIRES DR-MILAN-MI,"",415 SQUIRES DR,"MILAN, MI",48160,US,42.0435,-83.4111,"Rail,Truck","Rail,Truck",318480000,MILAN MI
415 W 3RD ST-CORDELL-OK,"",415 W 3RD ST,"CORDELL, OK",73632,US,35.28935,-99.99119,"Rail,Truck","Rail,Truck",635760000,CORDELL OK
417 MARKET ST-RIRIE-ID,"",417 MARKET ST,"RIRIE, ID",83443,US,43.64161,-111.75856,"Rail,Truck","Rail,Truck",832787000,RIRIE ID
4195 SALEM INDUSTRIAL DR NE-SALEM-OR,"",4195 SALEM INDUSTRIAL DR NE,"SALEM, OR",97301,US,44.94144,-123.02495,"Rail,Truck","Rail,Truck",854150000,SALEM OR
4212 S AVE 39 E-ROLL-AZ,"",4212 S AVE 39 E,"ROLL, AZ",85347,US,32.7518,-113.98921,"Rail,Truck","Rail,Truck",798167000,ROLL AZ
422 WEBSTER TURN DR-SEBRING-FL,"",422 WEBSTER TURN DR,"SEBRING, FL",33870,US,27.49658,-81.43423,"Rail,Truck","Rail,Truck",498120000,SEBRING FL
423 FENN RD-CORDELE-GA,"",423 FENN RD,"CORDELE, GA",31015,US,31.96999,-83.785,"Rail,Truck","Rail,Truck",468110000,CORDELE (HOG) GA
4245 PIGEON RD-ELKTON-MI,"",4245 PIGEON RD,"ELKTON, MI",48731,US,43.81886,-83.18066,"Rail,Truck","Rail,Truck",315163000,ELKTON MI
429 MAPLE LN-MUNCY-PA,"",429 MAPLE LN,"MUNCY, PA",17756,US,41.19699,-76.797,"Rail,Truck","Rail,Truck",201726000,MUNCY (LVRR) PA
4301 OLD LINCOLNTON RD-CROUSE-NC,"",4301 OLD LINCOLNTON RD,"CROUSE, NC",28033,US,35.39121,-81.34701,"Rail,Truck","Rail,Truck",417730000,CHERRYVILLE NC
4379 JACKSONBURG RD-HAGERSTOWN-IN,"",4379 JACKSONBURG RD,"HAGERSTOWN, IN",47346,US,39.90505,-85.16258,"Rail,Truck","Rail,Truck",367546000,HAGERSTOWN IN
4381 US 64-KIRTLAND-NM,"",4381 US 64,"KIRTLAND, NM",87417,US,35.51537,-108.54826,"Rail,Truck","Rail,Truck",784178000,WINGATE NM
4384 SULLIVAN SLOUGH RD-FORT MADISON-IA,"",4384 SULLIVAN SLOUGH RD,"FORT MADISON, IA",52601,US,40.629,-91.3099,"Rail,Truck","Rail,Truck",537940000,FORT MADISON IA
44 COUNTY RD 495-CENTER-CO,"",44 COUNTY RD 495,"CENTER, CO",81125,US,37.75305,-106.10805,"Rail,Truck","Rail,Truck",757287000,CENTER CO
440 KUHLMAN DR-TOLEDO-OH,"",440 KUHLMAN DR,"TOLEDO, OH",43609,US,41.66274,-83.46543,"Rail,Truck","Rail,Truck",343100000,HOMESTEAD OH
440 S 3RD ST-STEUBENVILLE-OH,"",440 S 3RD ST,"STEUBENVILLE, OH",43952,US,40.36026,-80.61065,"Rail,Truck","Rail,Truck",347250000,STEUBENVILLE OH
4400 N INDUSTRIAL BLVD-KINGMAN-AZ,"",4400 N INDUSTRIAL BLVD,"KINGMAN, AZ",86401,US,35.251,-113.97479,"Rail,Truck","Rail,Truck",793168000,BERRY AZ
4421 13 5 SW-ROYAL CITY-WA,"",4421 13 5 SW,"ROYAL CITY, WA",99357,US,46.82226,-119.17794,"Rail,Truck","Rail,Truck",842195000,OTHELLO WA
4440 CHERRY ST-WINSTON SALEM-NC,"",4440 CHERRY ST,"WINSTON SALEM, NC",27105,US,36.09901,-80.23939,"Rail,Truck","Rail,Truck",413350000,WINSTON SALEM NC
4440 SKYLINE DR-CAMILLA-GA,"",4440 SKYLINE DR,"CAMILLA, GA",31730,US,31.23111,-84.21055,"Rail,Truck","Rail,Truck",468750000,CAMILLA GA
4469 HWY 5-HIBBING-MN,"",4469 HWY 5,"HIBBING, MN",55746,US,47.42935,-92.93776,"Rail,Truck","Rail,Truck",500780000,HIBBING MN
447 W 1ST ST-CASA GRANDE-AZ,"",447 W 1ST ST,"CASA GRANDE, AZ",85122,US,32.88805,-111.77526,"Rail,Truck","Rail,Truck",796562000,CASA GRANDE AZ
4500 18TH AVE N-GREAT FALLS-MT,"",4500 18TH AVE N,"GREAT FALLS, MT",59405,US,47.50184,-111.32005,"Rail,Truck","Rail,Truck",706720000,GREAT FALLS MT
4500 54TH AVE N-GRAND FORKS-ND,"",4500 54TH AVE N,"GRAND FORKS, ND",58203,US,47.88866,-97.10952,"Rail,Truck","Rail,Truck",511740000,GRAND FORKS ND
4501 ATTWATER AVE-TEXAS CITY-TX,"",4501 ATTWATER AVE,"TEXAS CITY, TX",77592,US,29.35265,-94.94483,"Rail,Truck","Rail,Truck",686154000,NADEAU TX
4545 ARDINE ST-SOUTH GATE-CA,"",4545 ARDINE ST,"SOUTH GATE, CA",90280,US,33.9459,-118.22833,"Rail,Truck","Rail,Truck",883652000,SOUTH GATE CA
4565 STATE ROUTE 19A-SILVER SPRINGS-NY,"",4565 STATE ROUTE 19A,"SILVER SPRINGS, NY",14550,US,42.66055,-78.08583,"Rail,Truck","Rail,Truck",184737000,SILVER SPRINGS NY
4576 US 231 N-CRAWFORDSVILLE-IN,"",4576 US 231 N,"CRAWFORDSVILLE, IN",47933,US,40.04428,-86.89909,"Rail,Truck","Rail,Truck",369450000,CRAWFORDSVILLE IN
46 RD R SE-MOSES LAKE-WA,"",46 RD R SE,"MOSES LAKE, WA",98837,US,47.08546,-119.11219,"Rail,Truck","Rail,Truck",842661000,RAUGUST WA
464 RIVERSIDE RD-ABBOTSFORD-BC,"",464 RIVERSIDE RD,"ABBOTSFORD, BC",V2S 7M1,CA,49.05046,-122.28876,"Rail,Truck","Rail,Truck",093526000,ABBOTSFORD BC
4640 S 900 W-MENTONE-IN,"",4640 S 900 W,"MENTONE, IN",46539,US,41.17351,-86.04014,"Rail,Truck","Rail,Truck",362678000,MENTONE IN
46450 RGE RD 200-CAMROSE-AB,"",46450 RGE RD 200,"CAMROSE, AB",T4V 4E7,CA,53.01528,-112.81456,"Rail,Truck","Rail,Truck",083878000,CAMROSE AB
465 S RAILROAD ST-SEWARD-NE,"",465 S RAILROAD ST,"SEWARD, NE",68434,US,40.89575,-97.22407,"Rail,Truck","Rail,Truck",554753000,TAMORA NE
4651 N 2000 E-SUGAR CITY-ID,"",4651 N 2000 E,"SUGAR CITY, ID",83448,US,43.86465,-111.75975,"Rail,Truck","Rail,Truck",832632000,SUGAR CITY ID
4673 WEITZ RD-MORRIS-IL,"",4673 WEITZ RD,"MORRIS, IL",60450,US,41.3647,-88.42127,"Rail,Truck","Rail,Truck",384620000,MORRIS IL
470 S 2ND ST-SPRINGFIELD-OR,"",470 S 2ND ST,"SPRINGFIELD, OR",97477,US,44.04301,-123.02612,"Rail,Truck","Rail,Truck",855624000,SPRINGFIELD OR
4701 HICKORY AVE-TOETERVILLE-IA,"",4701 HICKORY AVE,"TOETERVILLE, IA",50481,US,43.4438,-92.8905,"Rail,Truck","Rail,Truck",532233000,TOETERVILLE IA
471 HWY 3142-HAHNVILLE-LA,"",471 HWY 3142,"HAHNVILLE, LA",70057,US,29.98073,-90.45944,"Rail,Truck","Rail,Truck",646143000,TAFT LA
4711 W 58TH AVE-ARVADA-CO,"",4711 W 58TH AVE,"ARVADA, CO",80002,US,39.79922,-105.07937,"Rail,Truck","Rail,Truck",744831000,ARVADA CO
472 NFIELD RD-BERNARDSTON-MA,"",472 NFIELD RD,"BERNARDSTON, MA",01337,US,42.67083,-72.55,"Rail,Truck","Rail,Truck",146224000,BERNARDSTON MA
47229 US HWY 12-TWIN BROOKS-SD,"",47229 US HWY 12,"TWIN BROOKS, SD",57269,US,45.20958,-96.75591,"Rail,Truck","Rail,Truck",521424000,WEST MILBANK SD
475 E HIGH ST-PALMYRA-PA,"",475 E HIGH ST,"PALMYRA, PA",17078,US,40.31145,-76.60268,"Rail,Truck","Rail,Truck",206178000,PALMYRA PA
477 W HWY 26-BLACKFOOT-ID,"",477 W HWY 26,"BLACKFOOT, ID",83221,US,43.20593,-112.39185,"Rail,Truck","Rail,Truck",835271000,COLLINS ID
477021 E 1136 RD-MULDROW-OK,"",477021 E 1136 RD,"MULDROW, OK",74948,US,35.41131,-94.58445,"Rail,Truck","Rail,Truck",624183000,MULDROW OK
48020 RANGE RD 132-VIKING-AB,"",48020 RANGE RD 132,"VIKING, AB",T1J 4P4,CA,53.09281,-111.77895,"Rail,Truck","Rail,Truck",083743000,VIKING AB
4804 DANFORD DR-BILLINGS-MT,"",4804 DANFORD DR,"BILLINGS, MT",59106,US,45.72601,-108.61754,"Rail,Truck","Rail,Truck",708565000,YEGEN MT
4814 CO OP RD-ROCKFORD-TN,"",4814 CO OP RD,"ROCKFORD, TN",37853,US,35.86638,-83.94028,"Rail,Truck","Rail,Truck",424619000,TENCO TN
4817 OLD EDGAR RD-SOPHIA-NC,"",4817 OLD EDGAR RD,"SOPHIA, NC",27350,US,35.83805,-79.8825,"Rail,Truck","Rail,Truck",412948000,SOPHIA NC
485 S HEMLOCK RD-HEMLOCK-MI,"",485 S HEMLOCK RD,"HEMLOCK, MI",48626,US,43.41472,-84.23055,"Rail,Truck","Rail,Truck",316245000,HEMLOCK MI
4901 HAROLD SCOGGINS DRIVE-MUSKOGEE-OK,"",4901 HAROLD SCOGGINS DRIVE,"MUSKOGEE, OK",74403,US,35.7618,-95.35774,"Rail,Truck","Rail,Truck",624330000,MUSKOGEE OK
4931 SHREEVES RD-FAIRGROVE-MI,"",4931 SHREEVES RD,"FAIRGROVE, MI",48733,US,43.52651,-83.54537,"Rail,Truck","Rail,Truck",315345000,FAIRGROVE MI
4936 BELL RD-CHICO-CA,"",4936 BELL RD,"CHICO, CA",95973,US,39.71808,-121.84041,"Rail,Truck","Rail,Truck",872750000,CHICO CA
"49536169, -100172680-SOURIS-MB","","49536169, -100172680","SOURIS, MB",R0K,CA,49.63155,-100.25324,"Rail,Truck","Rail,Truck",064065000,SOURIS MB
498 E WHITNEY ST-TATUM-TX,"",498 E WHITNEY ST,"TATUM, TX",75691,US,32.3136,-94.5126,"Rail,Truck","Rail,Truck",665717000,TATUM TX
5 SHANK RD-BRAWLEY-CA,"",5 SHANK RD,"BRAWLEY, CA",92227,US,32.97946,-115.52931,"Rail,Truck","Rail,Truck",888171000,BRAWLEY CA
50 RAILWAY AVE-AYLSHAM-SK,"",50 RAILWAY AVE,"AYLSHAM, SK",S0E 0C0,CA,53.19179,-103.8018,"Rail,Truck","Rail,Truck",073233000,AYLSHAM SK
500 IRON HORSE RD-ENSIGN-KS,"",500 IRON HORSE RD,"ENSIGN, KS",67841,US,37.65421,-100.23392,"Rail,Truck","Rail,Truck",598373000,ENSIGN KS
500 NW CHERRY LN-MADRAS-OR,"",500 NW CHERRY LN,"MADRAS, OR",97741,US,44.65006,-121.1334,"Rail,Truck","Rail,Truck",852860000,MADRAS OR
500 ROCK ISLAND AVE-LONE WOLF-OK,"",500 ROCK ISLAND AVE,"LONE WOLF, OK",73655,US,34.98909,-99.24025,"Rail,Truck","Rail,Truck",638273000,LONE WOLF OK
500 RUNNING PUMP RD-LANCASTER-PA,"",500 RUNNING PUMP RD,"LANCASTER, PA",17601,US,40.03777,-76.30583,"Rail,Truck","Rail,Truck",209200000,LANCASTER (TYBR) PA
501 E 8TH ST-SHERIDAN-WY,"",501 E 8TH ST,"SHERIDAN, WY",82801,US,44.80612,-106.9526,"Rail,Truck","Rail,Truck",731530000,SHERIDAN WY
501 N 2ND ST-HAYTI-MO,"",501 N 2ND ST,"HAYTI, MO",63851,US,36.22214,-89.75552,"Rail,Truck","Rail,Truck",577637000,HAYTI MO
501 SOO LINE AVE-BARRETT-MN,"",501 SOO LINE AVE,"BARRETT, MN",56311,US,45.91172,-95.8895,"Rail,Truck","Rail,Truck",506370000,BARRETT MN
502 1ST ST-EDGELEY-ND,"",502 1ST ST,"EDGELEY, ND",58433,US,46.36344,-98.7103,"Rail,Truck","Rail,Truck",517488000,EDGELEY ND
502 CENTRAL FERRY RD-POMEROY-WA,"",502 CENTRAL FERRY RD,"POMEROY, WA",99347,US,46.63212,-117.80557,"Rail,Truck","Rail,Truck",847430000,CENTRAL FERRY WA
504 N WALNUT ST-BYRON-IL,"",504 N WALNUT ST,"BYRON, IL",61010,US,44.03154,-92.64512,"Rail,Truck","Rail,Truck",382836000,BYRON IL
505 C ST-CULVER-OR,"",505 C ST,"CULVER, OR",97734,US,44.52437,-121.21604,"Rail,Truck","Rail,Truck",852885000,CULVER OR
5051 EAST COUNTY RD-MATTOON-IL,"",5051 EAST COUNTY RD,"MATTOON, IL",61938,US,39.3789,-88.425,"Rail,Truck","Rail,Truck",391496000,TRILLA IL
5065 24TH ST NE-HAMBERG-ND,"",5065 24TH ST NE,"HAMBERG, ND",58341,US,47.76103,-99.5166,"Rail,Truck","Rail,Truck",515427000,HAMBERG ND
507 ELEVATOR-FORT PIERRE-SD,"",507 ELEVATOR,"FORT PIERRE, SD",57532,US,44.35672,-100.37503,"Rail,Truck","Rail,Truck",526150000,FORT PIERRE SD
508 TROJAN RD-RIDGE SPRING-SC,"",508 TROJAN RD,"RIDGE SPRING, SC",29129,US,33.84471,-81.65972,"Rail,Truck","Rail,Truck",446196000,RIDGE SPRING SC
50TH AVE 99TH ST-WHITECOURT-AB,"",50TH AVE 99TH ST,"WHITECOURT, AB",T7S 0A6,CA,54.13993,-115.68461,"Rail,Truck","Rail,Truck",085458000,WHITECOURT AB
51 MARYLAND AVE E-SAINT PAUL-MN,"",51 MARYLAND AVE E,"SAINT PAUL, MN",55117,US,44.84957,-92.99502,"Rail,Truck","Rail,Truck",504450000,MERRIAM PARK MN
510 1ST AVE E-GOODING-ID,"",510 1ST AVE E,"GOODING, ID",83330,US,42.9476,-114.68191,"Rail,Truck","Rail,Truck",837550000,GOODING ID
510 RAILROAD AVE-BOTTINEAU-ND,"",510 RAILROAD AVE,"BOTTINEAU, ND",58318,US,48.82588,-100.44265,"Rail,Truck","Rail,Truck",512414000,BOTTINEAU ND
511 OAK AVE-BIRD ISLAND-MN,"",511 OAK AVE,"BIRD ISLAND, MN",55310,US,44.7628,-94.8944,"Rail,Truck","Rail,Truck",505920000,BIRD ISLAND MN
512 E MALEY ST-WILLCOX-AZ,"",512 E MALEY ST,"WILLCOX, AZ",85643,US,32.24618,-109.83465,"Rail,Truck","Rail,Truck",795720000,WILLCOX AZ
513 SHARPTOWN RD-BRIDGEPORT-NJ,"",513 SHARPTOWN RD,"BRIDGEPORT, NJ",08014,US,39.77465,-75.36812,"Rail,Truck","Rail,Truck",198551000,BRIDGEPORT (SLRS) NJ
5130 PORT RD-JEFFERSONVILLE-IN,"",5130 PORT RD,"JEFFERSONVILLE, IN",47130,US,38.26958,-85.74836,"Rail,Truck","Rail,Truck",375690000,JEFFERSONVILLE IN
"51478608, -109115392-KINDERSLEY-SK","","51478608, -109115392","KINDERSLEY, SK",S0L 0E2,CA,51.46547,-109.15196,"Rail,Truck","Rail,Truck",076257000,KINDERSLEY SK
51609 N US HWY 131-THREE RIVERS-MI,"",51609 N US HWY 131,"THREE RIVERS, MI",49093,US,41.93611,-85.62695,"Rail,Truck","Rail,Truck",319750000,THREE RIVERS MI
5175 BOUL LAURIER E-SAINT-HYACINTHE-QC,"",5175 BOUL LAURIER E,"SAINT-HYACINTHE, QC",J2R 2B4,CA,45.85585,-73.23156,"Rail,Truck","Rail,Truck",026636000,CONTRECOEUR QC
5177 CHINO AVE-CHINO-CA,"",5177 CHINO AVE,"CHINO, CA",91710,US,34.01132,-117.68322,"Rail,Truck","Rail,Truck",880297000,CHINO CA
518 W BROADWAY AVE-CUSTER CITY-OK,"",518 W BROADWAY AVE,"CUSTER CITY, OK",73639,US,35.66617,-98.88389,"Rail,Truck","Rail,Truck",635427000,CUSTER CITY OK
5201 BIRD CREEK AVE-CATOOSA-OK,"",5201 BIRD CREEK AVE,"CATOOSA, OK",74015,US,36.20508,-95.74129,"Rail,Truck","Rail,Truck",621690000,TULSA PORT AUTHORIT OK
52345 US-20-BRUNSWICK-NE,"",52345 US-20,"BRUNSWICK, NE",68720,US,42.3396,-97.9714,"Rail,Truck","Rail,Truck",551312000,BRUNSWICK NE
52496 S COUNTY RD 271-AMES-OK,"",52496 S COUNTY RD 271,"AMES, OK",73718,US,36.24553,-98.18547,"Rail,Truck","Rail,Truck",631850000,AMES OK
5260 W 12800 N-GARLAND-UT,"",5260 W 12800 N,"GARLAND, UT",84312,US,41.72886,-112.1683,"Rail,Truck","Rail,Truck",761729000,GARLAND UT
527 ILLINOIS AVE # 6-MAUMEE-OH,"",527 ILLINOIS AVE # 6,"MAUMEE, OH",43537,US,41.56416,-83.67278,"Rail,Truck","Rail,Truck",343260000,MAUMEE OH
529 N ST-FILER-ID,"",529 N ST,"FILER, ID",83328,US,42.57263,-114.60967,"Rail,Truck","Rail,Truck",837829000,FILER ID
53 COLUMBUS ST-AUBURN-NY,"",53 COLUMBUS ST,"AUBURN, NY",13021,US,42.93384,-76.57161,"Rail,Truck","Rail,Truck",182810000,AUBURN NY
530 3RD ST N-WATKINS-MN,"",530 3RD ST N,"WATKINS, MN",55389,US,45.31809,-94.41769,"Rail,Truck","Rail,Truck",505514000,WATKINS MN
5300 CH ST-GABRIEL-SAINT-FELIX-DE-VALOIS-QC,"",5300 CH ST-GABRIEL,"SAINT-FELIX-DE-VALOIS, QC",J0K 2M0,CA,46.0021,-73.4565,"Rail,Truck","Rail,Truck",032150000,JOLIETTE QC
5324 165TH AVE SE-KINDRED-ND,"",5324 165TH AVE SE,"KINDRED, ND",58051,US,46.65092,-97.02105,"Rail,Truck","Rail,Truck",514779000,KINDRED ND
536 HOULTON RD-FORT FAIRFIELD-ME,"",536 HOULTON RD,"FORT FAIRFIELD, ME",04742,US,46.77222,-67.83444,"Rail,Truck","Rail,Truck",111411000,FT FAIRFIELD ME
537 ILLINOIS AVE-MAUMEE-OH,"",537 ILLINOIS AVE,"MAUMEE, OH",43537,US,41.56416,-83.67278,"Rail,Truck","Rail,Truck",343260000,MAUMEE OH
53862 130TH RD-SHELTON-NE,"",53862 130TH RD,"SHELTON, NE",68876,US,40.77986,-98.73482,"Rail,Truck","Rail,Truck",555861000,SHELTON NE
5392 VERMILION TRL-BIWABIK-MN,"",5392 VERMILION TRL,"BIWABIK, MN",55708,US,47.52509,-92.33813,"Rail,Truck","Rail,Truck",500723000,BIWABIK MN
540 S MAIN ST-ADAMS-WI,"",540 S MAIN ST,"ADAMS, WI",53910,US,43.95615,-89.83394,"Rail,Truck","Rail,Truck",333164000,ADAMS WI
5442 SPOONER RD-DONALSONVILLE-GA,"",5442 SPOONER RD,"DONALSONVILLE, GA",39845,US,31.04237,-84.87968,"Rail,Truck","Rail,Truck",469930000,DONALSONVILLE GA
545 225TH ST-BRITT-IA,"",545 225TH ST,"BRITT, IA",50423,US,43.09252,-93.88195,"Rail,Truck","Rail,Truck",533473000,HUTCHINS IA
545 LODESTONE WAY-TOOELE-UT,"",545 LODESTONE WAY,"TOOELE, UT",84074,US,40.53054,-112.3317,"Rail,Truck","Rail,Truck",764534000,WARNER UT
5451 JEFFERSON CHEMICAL RD-YOUENS-TX,"",5451 JEFFERSON CHEMICAL RD,"YOUENS, TX",77354,US,30.31485,-95.37603,"Rail,Truck","Rail,Truck",682925000,YOUENS TX
546 N 1100 W-WOLCOTT-IN,"",546 N 1100 W,"WOLCOTT, IN",47995,US,40.75994,-87.04142,"Rail,Truck","Rail,Truck",366456000,WOLCOTT IN
5480 INDUSTRIAL PARK DR-LENOIR CITY-TN,"",5480 INDUSTRIAL PARK DR,"LENOIR CITY, TN",37771,US,35.78885,-84.268,"Rail,Truck","Rail,Truck",424720000,LENOIR CITY TN
550 HARRISON ST W-VALE-OR,"",550 HARRISON ST W,"VALE, OR",97918,US,43.98695,-117.23351,"Rail,Truck","Rail,Truck",856129000,VALE OR
550210 BABCOCK CO RD 439-NUBIEBER-CA,"",550210 BABCOCK CO RD 439,"NUBIEBER, CA",96068,US,41.08067,-121.16849,"Rail,Truck","Rail,Truck",871121000,BIEBER CA
5505 CYANCO DR-WINNEMUCCA-NV,"",5505 CYANCO DR,"WINNEMUCCA, NV",89445,US,40.93944,-117.85347,"Rail,Truck","Rail,Truck",861166000,MARCUS NV
5509 LANGWORTH RD-OAKDALE-CA,"",5509 LANGWORTH RD,"OAKDALE, CA",95361,US,37.7651,-120.8474,"Rail,Truck","Rail,Truck",875819000,OAKDALE CA
551 LANDFILL RD-EDSON-AB,"",551 LANDFILL RD,"EDSON, AB",T7E 1Y2,CA,53.58124,-116.42478,"Rail,Truck","Rail,Truck",085234000,EDSON AB
552 FEIDLER RD-BELLEFONTE-PA,"",552 FEIDLER RD,"BELLEFONTE, PA",16823,US,40.91333,-77.77861,"Rail,Truck","Rail,Truck",211520000,BELLEFONTE PA
55457 RANGE RD 210-FORT SASKATCHEWAN-AB,"",55457 RANGE RD 210,"FORT SASKATCHEWAN, AB",T8L 4B1,CA,53.6956,-113.1928,"Rail,Truck","Rail,Truck",083412000,SCOTFORD TFR AB
5590 HIGH ST-DENVER-CO,"",5590 HIGH ST,"DENVER, CO",80216,US,39.78529,-104.96802,"Rail,Truck","Rail,Truck",744300000,AIRLAWN CO
560 LASALLE ST-HARRISBURG-OR,"",560 LASALLE ST,"HARRISBURG, OR",97446,US,44.2739,-123.1684,"Rail,Truck","Rail,Truck",854599000,HARRISBURG OR
5606 N WESTERVELT RD-SAGINAW-MI,"",5606 N WESTERVELT RD,"SAGINAW, MI",48604,US,43.48,-83.92,"Rail,Truck","Rail,Truck",316214000,ZILWAUKEE MI
564 S IDAHO ST-WENDELL-ID,"",564 S IDAHO ST,"WENDELL, ID",83355,US,42.76312,-114.68382,"Rail,Truck","Rail,Truck",837590000,WENDELL ID
565 W HIGH ST-AURORA-MO,"",565 W HIGH ST,"AURORA, MO",65605,US,36.97605,-93.72019,"Rail,Truck","Rail,Truck",576770000,AURORA MO
5688 HWY 412 W-BELLS-TN,"",5688 HWY 412 W,"BELLS, TN",38006,US,35.59514,-88.78751,"Rail,Truck","Rail,Truck",439104000,POPLAR CORNER TN
573 W 2890 S-SOUTH SALT LAKE-UT,"",573 W 2890 S,"SOUTH SALT LAKE, UT",84115,US,40.6979,-111.9026,"Rail,Truck","Rail,Truck",762934000,ROPER UT
574 N 3500 E-MENAN-ID,"",574 N 3500 E,"MENAN, ID",83434,US,43.70619,-112.00482,"Rail,Truck","Rail,Truck",835233000,MIDWAY ID
5780 EAST J ST-HASTINGS-NE,"",5780 EAST J ST,"HASTINGS, NE",68902,US,40.551,-98.392,"Rail,Truck","Rail,Truck",558130000,HASTINGS NE
585 E 6TH AVE-MILFORD-UT,"",585 E 6TH AVE,"MILFORD, UT",84751,US,38.39265,-113.01089,"Rail,Truck","Rail,Truck",766761000,MILFORD UT
585 E STATE RD-AMERICAN FORK-UT,"",585 E STATE RD,"AMERICAN FORK, UT",84003,US,40.37492,-111.81888,"Rail,Truck","Rail,Truck",764325000,AMERICAN FORK UT
59 DWIGHT ST-HATFIELD-MA,"",59 DWIGHT ST,"HATFIELD, MA",01038,US,42.37083,-72.59861,"Rail,Truck","Rail,Truck",147172000,HATFIELD MA
590 E MAIN ST-BEACH-ND,"",590 E MAIN ST,"BEACH, ND",58621,US,46.91565,-104.00604,"Rail,Truck","Rail,Truck",519464000,BEACH ND
591 S BRUCE RD-OTHELLO-WA,"",591 S BRUCE RD,"OTHELLO, WA",99344,US,46.84403,-119.05565,"Rail,Truck","Rail,Truck",842193000,BRUCE WA
5939 LUCKETT CT-EL PASO-TX,"",5939 LUCKETT CT,"EL PASO, TX",79932,US,31.87156,-106.59177,"Rail,Truck","Rail,Truck",696867000,MONTOYA TX
595 GUNN RD-SUNNYSIDE-MB,"",595 GUNN RD,"SUNNYSIDE, MB",R5R 0E2,CA,49.904,-97.0221,"Rail,Truck","Rail,Truck",061222000,NORTH TRANSCONA MB
595 GUNN RD-TRANSCONA-MB,"",595 GUNN RD,"TRANSCONA, MB",R2C 5G2,CA,49.88618,-97.13186,"Rail,Truck","Rail,Truck",061200000,WINNIPEG MB
5990 WASHINGTON ST-DENVER-CO,"",5990 WASHINGTON ST,"DENVER, CO",80216,US,39.79109,-104.99807,"Rail,Truck","Rail,Truck",744310000,NORTH YARD CO
5999 US HWY 11-CANTON-NY,"",5999 US HWY 11,"CANTON, NY",13617,US,44.59072,-75.16999,"Rail,Truck","Rail,Truck",170721000,CANTON NY
6 MILES S ON HWY 2-WATROUS-SK,"",6 MILES S ON HWY 2,"WATROUS, SK",S0K 4T0,CA,51.67109,-105.46832,"Rail,Truck","Rail,Truck",072293000,WATROUS SK
6 WILCOX ST-COHOCTON-NY,"",6 WILCOX ST,"COHOCTON, NY",14826,US,42.50663,-77.49361,"Rail,Truck","Rail,Truck",188154000,COHOCTON NY
60 LEHIGH ST-BLOOMSBURY-NJ,"",60 LEHIGH ST,"BLOOMSBURY, NJ",08804,US,40.64981,-75.08412,"Rail,Truck","Rail,Truck",193591000,BLOOMSBURY NJ
600 BROWN AVE-CALIPATRIA-CA,"",600 BROWN AVE,"CALIPATRIA, CA",92233,US,33.12441,-115.50897,"Rail,Truck","Rail,Truck",888130000,CALIPATRIA CA
600 D S 7TH ST-OAKES-ND,"",600 D S 7TH ST,"OAKES, ND",58474,US,46.14306,-98.09582,"Rail,Truck","Rail,Truck",517823000,OAKES ND
600 MEACHAM BLVD-FORT WORTH-TX,"",600 MEACHAM BLVD,"FORT WORTH, TX",76106,US,32.76724,-97.32334,"Rail,Truck","Rail,Truck",668214000,PEACH TX
600 N BRYANT AVE-OKLAHOMA CITY-OK,"",600 N BRYANT AVE,"OKLAHOMA CITY, OK",73117,US,35.4768,-97.5426,"Rail,Truck","Rail,Truck",626200000,OKLAHOMA CITY OK
600 RANG DU COTEAU-SAINT-JACQUES-LE-MINEUR-QC,"",600 RANG DU COTEAU,"SAINT-JACQUES-LE-MINEUR, QC",J0J 1Z0,CA,45.2077,-73.43679,"Rail,Truck","Rail,Truck",028431000,NAPIERVILLE QC
600 WEST HWY 70-LAKE PLACID-FL,"",600 WEST HWY 70,"LAKE PLACID, FL",33852,US,27.29277,-81.36305,"Rail,Truck","Rail,Truck",498164000,LAKE PLACID FL
6000 E YELLOWSTONE HWY-CASPER-WY,"",6000 E YELLOWSTONE HWY,"CASPER, WY",82604,US,42.85365,-106.21476,"Rail,Truck","Rail,Truck",734150000,CASPER WY
6001 W INDUSTRIAL AVE-MIDLAND-TX,"",6001 W INDUSTRIAL AVE,"MIDLAND, TX",79706,US,31.97839,-102.10751,"Rail,Truck","Rail,Truck",694150000,MIDLAND TX
601 DELCO DR-CLINTON-WI,"",601 DELCO DR,"CLINTON, WI",53525,US,42.55283,-88.863,"Rail,Truck","Rail,Truck",338682000,CLINTON WI
601 W MAIN ST-CASEY-IL,"",601 W MAIN ST,"CASEY, IL",62420,US,39.29859,-87.99129,"Rail,Truck","Rail,Truck",391794000,CASEY IL
602 COPPER RD-FREEPORT-TX,"",602 COPPER RD,"FREEPORT, TX",77541,US,28.94294,-95.34504,"Rail,Truck","Rail,Truck",686297000,FREEPORT TX
602 PALMER-LOOMIS-NE,"",602 PALMER,"LOOMIS, NE",68958,US,40.47919,-99.50636,"Rail,Truck","Rail,Truck",558363000,LOOMIS NE
604 PARKWAY DR-BELGRADE-MN,"",604 PARKWAY DR,"BELGRADE, MN",56312,US,45.45444,-95.00156,"Rail,Truck","Rail,Truck",505388000,BELGRADE MN
606 ATLANTIC AVE-BELTRAMI-MN,"",606 ATLANTIC AVE,"BELTRAMI, MN",56517,US,47.54278,-96.53218,"Rail,Truck","Rail,Truck",503589000,BELTRAMI MN
607 MILL ST-ADELL-WI,"",607 MILL ST,"ADELL, WI",53001,US,43.61916,-87.95194,"Rail,Truck","Rail,Truck",332178000,ADELL WI
607 N BOISE AVE-EMMETT-ID,"",607 N BOISE AVE,"EMMETT, ID",83617,US,43.87456,-116.50389,"Rail,Truck","Rail,Truck",838370000,EMMETT ID
611 S LOGAN AVE-OAKLAND-NE,"",611 S LOGAN AVE,"OAKLAND, NE",68045,US,41.8352,-96.46824,"Rail,Truck","Rail,Truck",550654000,OAKLAND NE
61329 COUNTY RD 9-ELKHART-IN,"",61329 COUNTY RD 9,"ELKHART, IN",46517,US,41.68104,-85.96975,"Rail,Truck","Rail,Truck",362120000,CHGO ELKHART IN
6134 HWY 13-WOLF POINT-MT,"",6134 HWY 13,"WOLF POINT, MT",59201,US,48.10953,-105.51957,"Rail,Truck","Rail,Truck",701580000,MACON MT
6161 MUTH RD SW-WARREN-OH,"",6161 MUTH RD SW,"WARREN, OH",44481,US,41.17598,-80.84384,"Rail,Truck","Rail,Truck",344192000,LORDSTOWN OH
618 W VAN BUREN ST-CLINTON-IL,"",618 W VAN BUREN ST,"CLINTON, IL",61727,US,40.1547,-88.9561,"Rail,Truck","Rail,Truck",387950000,CLINTON IL
620 N MARS-AMARILLO-TX,"",620 N MARS,"AMARILLO, TX",79107,US,35.19325,-101.83166,"Rail,Truck","Rail,Truck",672700000,AMARILLO S YARD TX
6200 S RIDGE RD-WICHITA-KS,"",6200 S RIDGE RD,"WICHITA, KS",67215,US,37.58311,-97.41871,"Rail,Truck","Rail,Truck",588486000,FRONTIER KS
621 5TH ST-UMATILLA-OR,"",621 5TH ST,"UMATILLA, OR",97882,US,45.91737,-119.35035,"Rail,Truck","Rail,Truck",851134000,UMATILLA OR
622 CHAMPLAIN ST-BRANDON-VT,"",622 CHAMPLAIN ST,"BRANDON, VT",05733,US,43.79805,-73.08805,"Rail,Truck","Rail,Truck",137131000,BRANDON VT
62575 HWY 82-LA GRANDE-OR,"",62575 HWY 82,"LA GRANDE, OR",97850,US,45.312,-118.082,"Rail,Truck","Rail,Truck",850550000,LA GRANDE OR
629 N INDUSTRIAL RD-EL DORADO-KS,"",629 N INDUSTRIAL RD,"EL DORADO, KS",67042,US,37.82102,-96.84045,"Rail,Truck","Rail,Truck",588250000,EL DORADO KS
631 WATERLOO GENEVA RD-WATERLOO-NY,"",631 WATERLOO GENEVA RD,"WATERLOO, NY",13165,US,42.9102,-76.84033,"Rail,Truck","Rail,Truck",183536000,WATERLOO NY
6310 HORSESHOE LAKE RD-STERLINGTON-LA,"",6310 HORSESHOE LAKE RD,"STERLINGTON, LA",71203,US,32.66078,-92.08261,"Rail,Truck","Rail,Truck",652322000,STERLINGTON LA
634 WALNUT ST-ASHTON-ID,"",634 WALNUT ST,"ASHTON, ID",83420,US,44.07122,-111.45084,"Rail,Truck","Rail,Truck",832148000,ASHTON ID
635 MADISON RD-EATONTON-GA,"",635 MADISON RD,"EATONTON, GA",31024,US,33.34472,-83.40583,"Rail,Truck","Rail,Truck",458240000,EATONTON GA
6359 COLUMBUS ST-RIVERSIDE-CA,"",6359 COLUMBUS ST,"RIVERSIDE, CA",92504,US,33.91636,-117.43356,"Rail,Truck","Rail,Truck",886540000,ARLINGTON CA
6395 STATE ROUTE 103 N BLDG 63-LEWISTOWN-PA,"",6395 STATE ROUTE 103 N BLDG 63,"LEWISTOWN, PA",17044,US,40.58735,-77.58323,"Rail,Truck","Rail,Truck",205643000,LEWISTOWN (JVRR) PA
641 N MAIN ST-RAKE-IA,"",641 N MAIN ST,"RAKE, IA",50465,US,43.48423,-93.92132,"Rail,Truck","Rail,Truck",533243000,RAKE IA
6415 S RAINBOW RD-BUCKEYE-AZ,"",6415 S RAINBOW RD,"BUCKEYE, AZ",85326,US,33.37764,-112.58456,"Rail,Truck","Rail,Truck",797169000,BUCKEYE AZ
646 N STATES AVE-PUEBLO-CO,"",646 N STATES AVE,"PUEBLO, CO",81007,US,38.27061,-104.62483,"Rail,Truck","Rail,Truck",748540000,PUEBLO CO
65-190 PRAIRIE DOG TRAIL-ROSSER-MB,"",65-190 PRAIRIE DOG TRAIL,"ROSSER, MB",R3C 2E6,CA,49.96825,-97.36254,"Rail,Truck","Rail,Truck",063550000,MAKWA MB
65190 PRAIRIE DOG TRAIL-ROSSER-MB,"",65190 PRAIRIE DOG TRAIL,"ROSSER, MB",R3C 2,CA,49.96825,-97.36254,"Rail,Truck","Rail,Truck",063550000,MAKWA MB
6540 E 39TH ST-KEARNEY-NE,"",6540 E 39TH ST,"KEARNEY, NE",68847,US,40.71433,-98.99557,"Rail,Truck","Rail,Truck",555869000,BUDA NE
656 TARRTOWN RD-ADRIAN-PA,"",656 TARRTOWN RD,"ADRIAN, PA",16210,US,40.81638,-79.52222,"Rail,Truck","Rail,Truck",215760000,KITTANNING PA
6605 BOUL HEBERT-SAINTE-CATHERINE-QC,"",6605 BOUL HEBERT,"SAINTE-CATHERINE, QC",J5C 1B5,CA,45.39659,-73.63868,"Rail,Truck","Rail,Truck",028729000,SEAWAY SPUR QC
6617 170TH ST SW-DES LACS-ND,"",6617 170TH ST SW,"DES LACS, ND",58733,US,48.25869,-101.56315,"Rail,Truck","Rail,Truck",513654000,DES LACS ND
6631 N COUNTY RD M-EVANSVILLE-WI,"",6631 N COUNTY RD M,"EVANSVILLE, WI",53536,US,42.77188,-89.28368,"Rail,Truck","Rail,Truck",338638000,EVANSVILLE WI
6666 W 2100 S-LA CROSSE-IN,"",6666 W 2100 S,"LA CROSSE, IN",46348,US,41.31546,-86.89057,"Rail,Truck","Rail,Truck",363194000,LA CROSSE IN
667 ST LAWRENCE ST S-WINCHESTER-ON,"",667 ST LAWRENCE ST S,"WINCHESTER, ON",K0C 2K0,CA,45.0936,-75.31987,"Rail,Truck","Rail,Truck",040594000,WINCHESTER ON
6750 W BOSTON ST-CHANDLER-AZ,"",6750 W BOSTON ST,"CHANDLER, AZ",85226,US,33.30197,-111.9611,"Rail,Truck","Rail,Truck",797225000,WEST CHANDLER AZ
6755 HELENA RD-ARENA-WI,"",6755 HELENA RD,"ARENA, WI",53503,US,43.16555,-89.91277,"Rail,Truck","Rail,Truck",339112000,ARENA WI
680 EDEN RD-MASON-MI,"",680 EDEN RD,"MASON, MI",48854,US,42.34,-84.26,"Rail,Truck","Rail,Truck",316880000,MASON MI
6900 FOX AVE S-SEATTLE-WA,"",6900 FOX AVE S,"SEATTLE, WA",98108,US,47.5983,-122.3293,"Rail,Truck","Rail,Truck",845200000,SEATTLE KING STREET WA
6922 N COUNTRY RD 100 E-BAINBRIDGE-IN,"",6922 N COUNTRY RD 100 E,"BAINBRIDGE, IN",46105,US,39.75897,-86.8164,"Rail,Truck","Rail,Truck",369636000,BAINBRIDGE IN
700 E EISENHOWER AVE-NORFOLK-NE,"",700 E EISENHOWER AVE,"NORFOLK, NE",68701,US,42.02356,-97.42477,"Rail,Truck","Rail,Truck",550920000,NORFOLK NE
700 EAGLE ST-DUNCOMBE-IA,"",700 EAGLE ST,"DUNCOMBE, IA",50532,US,42.47186,-93.99379,"Rail,Truck","Rail,Truck",543613000,DUNCOMBE IA
700 METCALF AVE-TINDALL-MO,"",700 METCALF AVE,"TINDALL, MO",64683,US,40.16045,-93.61031,"Rail,Truck","Rail,Truck",562743000,TINDALL MO
7002 MARVIN L BERRY RD-CORPUS CHRISTI-TX,"",7002 MARVIN L BERRY RD,"CORPUS CHRISTI, TX",78409,US,27.80628,-97.40761,"Rail,Truck","Rail,Truck",689100000,CORPUS CHRISTI TX
701 EAST N ST-COFFEYVILLE-KS,"",701 EAST N ST,"COFFEYVILLE, KS",67337,US,37.02243,-95.62487,"Rail,Truck","Rail,Truck",587970000,COFFEYVILLE KS
701 N MAIN ST-EVERLY-IA,"",701 N MAIN ST,"EVERLY, IA",51338,US,43.16169,-95.32849,"Rail,Truck","Rail,Truck",541954000,EVERLY IA
7010 MYKAWA RD-HOUSTON-TX,"",7010 MYKAWA RD,"HOUSTON, TX",77033,US,29.61999,-95.30415,"Rail,Truck","Rail,Truck",684885000,MYKAWA TX
70454 NE-61-BENKELMAN-NE,"",70454 NE-61,"BENKELMAN, NE",69021,US,40.04623,-101.5334,"Rail,Truck","Rail,Truck",559970000,BENKELMAN NE
705 E 4TH ST-WINTHROP-MN,"",705 E 4TH ST,"WINTHROP, MN",55396,US,44.54305,-94.36611,"Rail,Truck","Rail,Truck",505880000,WINTHROP MN
705 S CHERRY ST-SHELL ROCK-IA,"",705 S CHERRY ST,"SHELL ROCK, IA",50670,US,42.70665,-92.58802,"Rail,Truck","Rail,Truck",532647000,SHELL ROCK IA
70927 HWY 26-MORRILL-NE,"",70927 HWY 26,"MORRILL, NE",69358,US,41.96202,-103.92935,"Rail,Truck","Rail,Truck",556347000,MORRILL NE
71 WURZ AVE-UTICA-NY,"",71 WURZ AVE,"UTICA, NY",13502,US,43.10461,-75.22206,"Rail,Truck","Rail,Truck",181820000,UTICA NY
710 20TH AVE SW-WATERTOWN-SD,"",710 20TH AVE SW,"WATERTOWN, SD",57201,US,44.90243,-97.12176,"Rail,Truck","Rail,Truck",521560000,WATERTOWN SD
714 KEEN ST-ZANESVILLE-OH,"",714 KEEN ST,"ZANESVILLE, OH",43701,US,39.94027,-82.01333,"Rail,Truck","Rail,Truck",352140000,ZANESVILLE OH
715 FRONTIER RD-LUXEMBURG-WI,"",715 FRONTIER RD,"LUXEMBURG, WI",54217,US,44.53851,-87.71896,"Rail,Truck","Rail,Truck",324544000,LUXEMBURG WI
720 N MAIN ST-OCONTO FALLS-WI,"",720 N MAIN ST,"OCONTO FALLS, WI",54154,US,44.87388,-88.14277,"Rail,Truck","Rail,Truck",324256000,OCONTO FALLS WI
721 E WASHINGTON ST-SAINT LOUIS-MI,"",721 E WASHINGTON ST,"SAINT LOUIS, MI",48880,US,43.40833,-84.60666,"Rail,Truck","Rail,Truck",316369000,ST LOUIS MI
7211 E MICHIGAN AVE-PIGEON-MI,"",7211 E MICHIGAN AVE,"PIGEON, MI",48755,US,43.8295,-83.26999,"Rail,Truck","Rail,Truck",315173000,PIGEON MI
72133 STATE HWY 136-EDISON-NE,"",72133 STATE HWY 136,"EDISON, NE",68936,US,40.28006,-99.77835,"Rail,Truck","Rail,Truck",558917000,EDISON NE
7235 TREMONT RD-DIXON-CA,"",7235 TREMONT RD,"DIXON, CA",95620,US,38.44689,-121.82384,"Rail,Truck","Rail,Truck",874717000,DIXON CA
724 W 3RD ST-ALLIANCE-NE,"",724 W 3RD ST,"ALLIANCE, NE",69301,US,42.0942,-102.8738,"Rail,Truck","Rail,Truck",552460000,ALLIANCE NE
726 S MAPLE ST-WATSEKA-IL,"",726 S MAPLE ST,"WATSEKA, IL",60970,US,40.7756,-87.73808,"Rail,Truck","Rail,Truck",387140000,WATSEKA IL
726 STRATHEARNE AVE-HAMILTON-ON,"",726 STRATHEARNE AVE,"HAMILTON, ON",L8H 7N8,CA,43.26645,-79.85479,"Rail,Truck","Rail,Truck",045490000,HAMILTON ON
73 ELM ST W-WEST LEBANON-NH,"",73 ELM ST W,"WEST LEBANON, NH",03784,US,43.64102,-72.30978,"Rail,Truck","Rail,Truck",122391000,WEST LEBANON NH
7300 47TH AVE-EVANS-CO,"",7300 47TH AVE,"EVANS, CO",80645,US,40.35142,-104.70014,"Rail,Truck","Rail,Truck",742266000,LA SALLE CO
7424 LINDSEY RD-LITTLE ROCK-AR,"",7424 LINDSEY RD,"LITTLE ROCK, AR",72206,US,34.75125,-92.28553,"Rail,Truck","Rail,Truck",612200000,LITTLE ROCK AR
745 OLD WHITEVILLE RD-LUMBERTON-NC,"",745 OLD WHITEVILLE RD,"LUMBERTON, NC",28358,US,34.61708,-79.00992,"Rail,Truck","Rail,Truck",408670000,LUMBERTON NC
747 S MAIN ST-WARREN-MN,"",747 S MAIN ST,"WARREN, MN",56762,US,48.19603,-96.7719,"Rail,Truck","Rail,Truck",503290000,WARREN MN
7501 STATE HWY 185 N-SEADRIFT-TX,"",7501 STATE HWY 185 N,"SEADRIFT, TX",77983,US,28.50734,-96.77794,"Rail,Truck","Rail,Truck",688163000,NORTH SEADRIFT TX
7541 HESPER RD-BILLINGS-MT,"",7541 HESPER RD,"BILLINGS, MT",59106,US,47.51878,-111.36899,"Rail,Truck","Rail,Truck",708563000,HESPER MT
75435 RD 310-VENANGO-NE,"",75435 RD 310,"VENANGO, NE",69168,US,40.7585,-102.05141,"Rail,Truck","Rail,Truck",559197000,VENANGO NE
7585 OLD HWY 99 N-WILBUR-OR,"",7585 OLD HWY 99 N,"WILBUR, OR",97494,US,43.276,-123.234,"Rail,Truck","Rail,Truck",858148000,WILBUR OR
7591 SELDEN RD-LE ROY-NY,"",7591 SELDEN RD,"LE ROY, NY",14482,US,42.97833,-77.98444,"Rail,Truck","Rail,Truck",184321000,LEROY NY
7610 STATE RT 20-SANGERFIELD-NY,"",7610 STATE RT 20,"SANGERFIELD, NY",13455,US,42.92852,-75.3667,"Rail,Truck","Rail,Truck",181898000,WATERVILLE NY
765 HILLDALE RD-SLINGER-WI,"",765 HILLDALE RD,"SLINGER, WI",53086,US,43.33052,-88.28892,"Rail,Truck","Rail,Truck",335473000,SLINGER WI
7650 AV PION-SAINT-HYACINTHE-QC,"",7650 AV PION,"SAINT-HYACINTHE, QC",J2R 1R9,CA,45.62769,-72.94917,"Rail,Truck","Rail,Truck",024330000,ST HYACINTHE QC
7780 S SR 57-MACKEY-IN,"",7780 S SR 57,"MACKEY, IN",47654,US,38.25222,-87.39166,"Rail,Truck","Rail,Truck",379175000,MACKEY IN
780 US HWY 60-BOVINA-TX,"",780 US HWY 60,"BOVINA, TX",79009,US,34.5209,-102.8899,"Rail,Truck","Rail,Truck",674660000,BOVINA TX
7800 OLD US HWY 14-JANESVILLE-MN,"",7800 OLD US HWY 14,"JANESVILLE, MN",56048,US,44.11481,-93.70919,"Rail,Truck","Rail,Truck",508323000,JANESVILLE MN
781069 RG RD 52-RYCROFT-AB,"",781069 RG RD 52,"RYCROFT, AB",T0H 3A0,CA,55.75821,-118.71247,"Rail,Truck","Rail,Truck",087569000,RYCROFT AB
786 RD U SE-WARDEN-WA,"",786 RD U SE,"WARDEN, WA",98857,US,46.96915,-119.0621,"Rail,Truck","Rail,Truck",842659000,WARDEN WA
79 N HWY W-LAMAR-MO,"",79 N HWY W,"LAMAR, MO",64759,US,37.51396,-94.3762,"Rail,Truck","Rail,Truck",576454000,IANTHA MO
790 CORINTH RD-MONCURE-NC,"",790 CORINTH RD,"MONCURE, NC",27559,US,35.61917,-79.0762,"Rail,Truck","Rail,Truck",412878000,MONCURE NC
795 S RD H-ULYSSES-KS,"",795 S RD H,"ULYSSES, KS",67880,US,37.57863,-101.35522,"Rail,Truck","Rail,Truck",599454000,ULYSSES KS
797 EASTLAND DR S-TWIN FALLS-ID,"",797 EASTLAND DR S,"TWIN FALLS, ID",83301,US,42.54467,-114.43204,"Rail,Truck","Rail,Truck",837826000,MCMILLAN ID
800 SUN DR-PORTAGE-IN,"",800 SUN DR,"PORTAGE, IN",46368,US,41.60539,-87.24263,"Rail,Truck","Rail,Truck",363228000,MIDWEST PORTAGE IN
8000 ST BERNARD HWY-CHALMETTE-LA,"",8000 ST BERNARD HWY,"CHALMETTE, LA",70043,US,29.92,-90.06,"Rail,Truck","Rail,Truck",647000000,EAST BRIDGE LA
8005 TABLER RD-MORRIS-IL,"",8005 TABLER RD,"MORRIS, IL",60450,US,41.41047,-88.32049,"Rail,Truck","Rail,Truck",384616000,EAST MORRIS IL
803 9TH ST-FORT LUPTON-CO,"",803 9TH ST,"FORT LUPTON, CO",80621,US,40.0845,-104.80827,"Rail,Truck","Rail,Truck",742347000,FORT LUPTON CO
803 A ST SE-QUINCY-WA,"",803 A ST SE,"QUINCY, WA",98848,US,47.23821,-119.84813,"Rail,Truck","Rail,Truck",842646000,QUINCY WA
804 W MAIN ST-OBLONG-IL,"",804 W MAIN ST,"OBLONG, IL",62449,US,39.00194,-87.90888,"Rail,Truck","Rail,Truck",394156000,OBLONG IL
805 EAST ST-MICHIGANTOWN-IN,"",805 EAST ST,"MICHIGANTOWN, IN",46057,US,40.32638,-86.39277,"Rail,Truck","Rail,Truck",368235000,MICHIGANTOWN IN
807 CROMWELL AVE-STOCKTON-CA,"",807 CROMWELL AVE,"STOCKTON, CA",95203,US,37.94223,-121.30277,"Rail,Truck","Rail,Truck",875608000,PORT STOCKTON CA
8112 KING ST-BOLTON-ON,"",8112 KING ST,"BOLTON, ON",L7E 5T3,CA,43.8706,-79.743,"Rail,Truck","Rail,Truck",044427000,BOLTON ON
8246 S LOOP 1604 E-ELMENDORF-TX,"",8246 S LOOP 1604 E,"ELMENDORF, TX",78112,US,29.25619,-98.33277,"Rail,Truck","Rail,Truck",687467000,ELMENDORF TX
8263 N RANSOM RD-BRECKENRIDGE-MI,"",8263 N RANSOM RD,"BRECKENRIDGE, MI",48615,US,43.40805,-84.475,"Rail,Truck","Rail,Truck",316314000,BRECKENRIDGE MI
83 FEED MILL LN-MIDDLEBURY-VT,"",83 FEED MILL LN,"MIDDLEBURY, VT",05753,US,44.01527,-73.16777,"Rail,Truck","Rail,Truck",135240000,MIDDLEBURY VT
8306 S ORANGE AVE-ORLANDO-FL,"",8306 S ORANGE AVE,"ORLANDO, FL",32809,US,28.42369,-81.37213,"Rail,Truck","Rail,Truck",496488000,TAFT FL
831 COUNTY RD 28-NIVERVILLE-NY,"",831 COUNTY RD 28,"NIVERVILLE, NY",12130,US,42.4412,-73.65965,"Rail,Truck","Rail,Truck",174125000,NIVERVILLE NY
841 W ELKHORN BLVD-RIO LINDA-CA,"",841 W ELKHORN BLVD,"RIO LINDA, CA",95673,US,38.68998,-121.4809,"Rail,Truck","Rail,Truck",874429000,BOMBAY CA
861 S 11TH ST-MONTAGUE-CA,"",861 S 11TH ST,"MONTAGUE, CA",96064,US,41.72827,-122.52703,"Rail,Truck","Rail,Truck",870530000,MONTAGUE CA
8617 US HWY 301 S-KENLY-NC,"",8617 US HWY 301 S,"KENLY, NC",27542,US,35.59586,-78.11977,"Rail,Truck","Rail,Truck",406835000,KENLY NC
86288 516TH AVE-ROYAL-NE,"",86288 516TH AVE,"ROYAL, NE",68773,US,42.3298,-98.16631,"Rail,Truck","Rail,Truck",551322000,ROYAL NE
86288 517TH AVE-ROYAL-NE,"",86288 517TH AVE,"ROYAL, NE",68773,US,42.3298,-98.16631,"Rail,Truck","Rail,Truck",551322000,ROYAL NE
864 E 1400 N-SHELLEY-ID,"",864 E 1400 N,"SHELLEY, ID",83274,US,43.39741,-112.11071,"Rail,Truck","Rail,Truck",835213000,MITCHELL ID
86411 HWY 121-OSMOND-NE,"",86411 HWY 121,"OSMOND, NE",68765,US,42.356,-97.5967,"Rail,Truck","Rail,Truck",550517000,OSMOND NE
86524 HWY 81-RANDOLPH-NE,"",86524 HWY 81,"RANDOLPH, NE",68771,US,42.3827,-97.3573,"Rail,Truck","Rail,Truck",550293000,RANDOLPH NE
8659 DEPOT ST-EDEN-NY,"",8659 DEPOT ST,"EDEN, NY",14057,US,42.88286,-78.87502,"Rail,Truck","Rail,Truck",185400000,BUFFALO BC JUNCTION NY
868 N FRONT ST-WOODBURN-OR,"",868 N FRONT ST,"WOODBURN, OR",97071,US,45.14277,-122.85588,"Rail,Truck","Rail,Truck",854118000,WOODBURN OR
872 LEE HWY-ROANOKE-VA,"",872 LEE HWY,"ROANOKE, VA",24019,US,37.28148,-79.97385,"Rail,Truck","Rail,Truck",264600000,ROANOKE VA
88 E MAIN ST-BELGRADE-MT,"",88 E MAIN ST,"BELGRADE, MT",59714,US,45.77923,-111.18373,"Rail,Truck","Rail,Truck",718552000,BELGRADE MT
880 RAILROAD AVE-BURLINGTON-CO,"",880 RAILROAD AVE,"BURLINGTON, CO",80807,US,39.30775,-102.26941,"Rail,Truck","Rail,Truck",745120000,BURLINGTON CO
8858 S PRIEST RD-FRENCH CAMP-CA,"",8858 S PRIEST RD,"FRENCH CAMP, CA",95231,US,37.88912,-121.2744,"Rail,Truck","Rail,Truck",875659000,FRENCH CAMP CA
900 1ST AVE N-BILLINGS-MT,"",900 1ST AVE N,"BILLINGS, MT",59101,US,45.7703,-108.52619,"Rail,Truck","Rail,Truck",708550000,BILLINGS MONTANA PO MT
900 JERRY ASH AVE-CRESCENT CITY-IL,"",900 JERRY ASH AVE,"CRESCENT CITY, IL",60928,US,40.76841,-87.8523,"Rail,Truck","Rail,Truck",387153000,CRESCENT CITY IL
901 E HWY 6 ST-IMPERIAL-NE,"",901 E HWY 6 ST,"IMPERIAL, NE",69033,US,40.5128,-101.6454,"Rail,Truck","Rail,Truck",559550000,IMPERIAL NE
901 S 66TH TER-KANSAS CITY-KS,"",901 S 66TH TER,"KANSAS CITY, KS",66111,US,39.09216,-94.72725,"Rail,Truck","Rail,Truck",581577000,MUNCIE KS
901 W DUPONT AVE-BELLE-WV,"",901 W DUPONT AVE,"BELLE, WV",25015,US,38.2295,-81.53443,"Rail,Truck","Rail,Truck",277592000,BELLE (KNWA) WV
901 WEST AVE # 6-HOLDREGE-NE,"",901 WEST AVE # 6,"HOLDREGE, NE",68949,US,40.4359,-99.3679,"Rail,Truck","Rail,Truck",558350000,HOLDREGE NE
902 W MAIN ST-BROWNFIELD-TX,"",902 W MAIN ST,"BROWNFIELD, TX",79316,US,33.18119,-102.28374,"Rail,Truck","Rail,Truck",677850000,BROWNFIELD TX
913 SOMERVILLE RD NE-DECATUR-AL,"",913 SOMERVILLE RD NE,"DECATUR, AL",35601,US,34.61339,-86.98709,"Rail,Truck","Rail,Truck",472210000,DECATUR AL
915 CARTER-HONDO-TX,"",915 CARTER,"HONDO, TX",78861,US,29.34581,-99.16337,"Rail,Truck","Rail,Truck",692650000,HONDO TX
916 NW 13TH ST-BELLE GLADE-FL,"",916 NW 13TH ST,"BELLE GLADE, FL",33430,US,26.69277,-80.81472,"Rail,Truck","Rail,Truck",499176000,LAKE HARBOR FL
920 CONGRESS PKWY N-ATHENS-TN,"",920 CONGRESS PKWY N,"ATHENS, TN",37303,US,35.44792,-84.59803,"Rail,Truck","Rail,Truck",427330000,ATHENS TN
9201 N EMMA CREEK RD-HESSTON-KS,"",9201 N EMMA CREEK RD,"HESSTON, KS",67062,US,38.14101,-97.43262,"Rail,Truck","Rail,Truck",588323000,HESSTON KS
923 CARLIN TREND DR-CARLIN-NV,"",923 CARLIN TREND DR,"CARLIN, NV",89822,US,40.58411,-116.46652,"Rail,Truck","Rail,Truck",862516000,BEOWAWE NV
9231 E AVALON RD-AVALON-WI,"",9231 E AVALON RD,"AVALON, WI",53505,US,42.63277,-88.8675,"Rail,Truck","Rail,Truck",338666000,AVALON WI
9236 BRANCH RD-NORTH AUGUSTA-ON,"",9236 BRANCH RD,"NORTH AUGUSTA, ON",K0G 1R0,CA,45.1192,-75.17753,"Rail,Truck","Rail,Truck",040583000,CHESTERVILLE ON
924 1ST ST-JEWELL-IA,"",924 1ST ST,"JEWELL, IA",50130,US,42.30971,-93.63854,"Rail,Truck","Rail,Truck",533975000,JEWELL IA
925 60TH ST SE-DE GRAFF-MN,"",925 60TH ST SE,"DE GRAFF, MN",56271,US,45.22365,-95.39393,"Rail,Truck","Rail,Truck",506777000,MURDOCK MN
925 60TH ST SE-MURDOCK-MN,"",925 60TH ST SE,"MURDOCK, MN",56271,US,45.22365,-95.39393,"Rail,Truck","Rail,Truck",506777000,MURDOCK MN
925 N HWY 24-MINIDOKA-ID,"",925 N HWY 24,"MINIDOKA, ID",83350,US,42.75281,-113.47903,"Rail,Truck","Rail,Truck",837252000,MINIDOKA ID
9260 W EATON HWY-LAKE ODESSA-MI,"",9260 W EATON HWY,"LAKE ODESSA, MI",48849,US,42.78699,-85.14448,"Rail,Truck","Rail,Truck",317390000,LAKE ODESSA MI
9262 S RAILROAD AVE-BRIDGEPORT-NE,"",9262 S RAILROAD AVE,"BRIDGEPORT, NE",69336,US,41.66362,-103.10003,"Rail,Truck","Rail,Truck",556257000,BRIDGEPORT NE
9266 CUSTAR RD-CUSTAR-OH,"",9266 CUSTAR RD,"CUSTAR, OH",43511,US,41.28883,-83.83898,"Rail,Truck","Rail,Truck",343693000,CUSTAR OH
9313 BILLY THE KID ST-EL PASO-TX,"",9313 BILLY THE KID ST,"EL PASO, TX",79907,US,31.69833,-106.32444,"Rail,Truck","Rail,Truck",696829000,YSLETA TX
940 E WINE COUNTRY RD-GRANDVIEW-WA,"",940 E WINE COUNTRY RD,"GRANDVIEW, WA",98930,US,46.2527,-119.9031,"Rail,Truck","Rail,Truck",848494000,GRANDVIEW WA
9400 SAINT PAUL HWY NE-AURORA-OR,"",9400 SAINT PAUL HWY NE,"AURORA, OR",97002,US,45.1691,-122.88701,"Rail,Truck","Rail,Truck",854113000,LOGANVILLE OR
945 MARION ST BACK WS13-WINNIPEG-MB,"",945 MARION ST BACK WS13,"WINNIPEG, MB",R2J 0K7,CA,49.8734,-97.0705,"Rail,Truck","Rail,Truck",061265000,WINNIPEG SYMING YAR MB
96 NEILSON ST-HENSALL-ON,"",96 NEILSON ST,"HENSALL, ON",N0M 1X0,CA,43.5103,-81.5194,"Rail,Truck","Rail,Truck",047357000,HENSALL ON
96 ROSA SPRING RD-JOHNSTON-SC,"",96 ROSA SPRING RD,"JOHNSTON, SC",29832,US,33.83361,-81.79944,"Rail,Truck","Rail,Truck",446730000,JOHNSTON SC
97 RAILSIDE DR-WEYERS CAVE-VA,"",97 RAILSIDE DR,"WEYERS CAVE, VA",24486,US,38.26,-78.9,"Rail,Truck","Rail,Truck",258610000,WEYERS CAVE VA
97 RAILSIDE DRIVE-WEYERS CAVE-VA,"",97 RAILSIDE DRIVE,"WEYERS CAVE, VA",24486,US,38.26,-78.9,"Rail,Truck","Rail,Truck",258610000,WEYERS CAVE VA
97 TIERNAN RD-BAY CITY-MI,"",97 TIERNAN RD,"BAY CITY, MI",48706,US,43.6021,-83.88563,"Rail,Truck","Rail,Truck",313730000,BAY CITY MI
985 N ANDERSON RD-GARDEN CITY-KS,"",985 N ANDERSON RD,"GARDEN CITY, KS",67846,US,37.98833,-100.92833,"Rail,Truck","Rail,Truck",598184000,QUINBY KS
990 CANAL ST-BROOKLYN-IL,"",990 CANAL ST,"BROOKLYN, IL",62059,US,38.62351,-90.1668,"Rail,Truck","Rail,Truck",396640000,EAST ST LOUIS IL
9902 156TH AVE-CLAIRMONT-AB,"",9902 156TH AVE,"CLAIRMONT, AB",T0H 0W0,CA,55.16991,-118.78352,"Rail,Truck","Rail,Truck",087850000,GRANDE PRAIRIE AB
995 24TH RD NE-DUTTON-MT,"",995 24TH RD NE,"DUTTON, MT",59433,US,47.92833,-111.80944,"Rail,Truck","Rail,Truck",703732000,COLLINS MT
9959 LOUISINA HWY 18-SAINT JAMES-LA,"",9959 LOUISINA HWY 18,"SAINT JAMES, LA",70086,US,29.99858,-90.85428,"Rail,Truck","Rail,Truck",645588000,ST JAMES LA
AAT-DELTA-BC,AAT,7430 HOPCOTT RD,"DELTA, BC",V4G 1,CA,49.14253,-123.02438,"Rail,Truck","Rail,Truck",093616000,TILBURY BC
ADBF LEASE TRACK-DETROIT-MI,"",ADBF LEASE TRACK,"DETROIT, MI",48207,US,42.25,-83.18,"Rail,Truck","Rail,Truck",318100000,DET LINCOLN PARK MI
ADM-HUTCHINSON-KS,ADM,2202 E SHERMAN,"HUTCHINSON, KS",67502,US,38.04716,-97.93285,"Rail,Truck","Rail,Truck",589120000,HUTCHINSON KS
Adams Warehouse And Delivery Inc-HOUSTON-TX,Adams Warehouse And Delivery Inc,542 PORTWALL ST,"HOUSTON, TX",77029,US,29.67523,-95.38251,"Rail,Truck","Rail,Truck",684800000,HOUSTON - BNSF TX
Agrium-CARSELAND-AB,Agrium,HWY 797,"CARSELAND, AB",T0J 0,CA,50.85062,-113.47484,"Rail,Truck","Rail,Truck",081115000,WEST CARSELAND AB
Agrium-MARSTON-MO,Agrium,500 STATE HWY 406,"MARSTON, MO",63866,US,36.5365,-89.58149,"Rail,Truck","Rail,Truck",577443000,NEW MADRID MO
Allied Cooperative-PLOVER-WI,Allied Cooperative,4809 MONROE AVE,"PLOVER, WI",54467,US,44.46259,-89.54928,"Rail,Truck","Rail,Truck",327278000,PLOVER WI
Allied Cooperative-TOMAH-WI,Allied Cooperative,10533 ESTATE RD,"TOMAH, WI",54660,US,43.97861,-90.50388,"Rail,Truck","Rail,Truck",333645000,TOMAH WI
Alter-ROCK ISLAND-IL,Alter,700 MILL ST,"ROCK ISLAND, IL",61201,US,41.51234,-90.57486,"Rail,Truck","Rail,Truck",386260000,ROCK ISLAND IL
Augusta Coop-STAUNTON-VA,Augusta Coop,1205 RICHMOND AVE,"STAUNTON, VA",24401,US,38.14679,-79.06685,"Rail,Truck","Rail,Truck",258700000,STAUNTON (BB) VA
BNSF TRACK 306 & 307-RICHMOND-CA,"",BNSF TRACK 306 & 307,"RICHMOND, CA",94804,US,37.93668,-122.35344,"Rail,Truck","Rail,Truck",876185000,RICHMOND CA
BUCKEYE-PERRY-FL,"",BUCKEYE,"PERRY, FL",32348,US,30.06988,-83.55584,"Rail,Truck","Rail,Truck",493658000,FOLEY FL
Barrett Farm Supply-BARRETT-MN,Barrett Farm Supply,501 SOO LN,"BARRETT, MN",56311,US,45.91172,-95.8895,"Rail,Truck","Rail,Truck",506370000,BARRETT MN
Beardsley SD Terminal-PARKSTON-SD,"",41055 282ND ST,"PARKSTON, SD",57366,US,43.30068,-97.98368,"Rail,Truck","Rail,Truck",528560000,BEARDSLEY SD
Beardsley SD Terminal-PARKSTON-SD,Beardsley SD Terminal,41055 282ND ST,"PARKSTON, SD",57366,US,43.30068,-97.98368,"Rail,Truck","Rail,Truck",528560000,BEARDSLEY SD
Beaver Creek-GRAYLING-MI,Beaver Creek,4113 FOUR MILE RD,"GRAYLING, MI",49738,US,44.66138,-84.71472,"Rail,Truck","Rail,Truck",311960000,GRAYLING MI
Becker Grain-NORFOLK-NE,Becker Grain,84606 US 81,"NORFOLK, NE",68701,US,42.02356,-97.42477,"Rail,Truck","Rail,Truck",550920000,NORFOLK NE
Blanchard Valley-MCCOMB-OH,Blanchard Valley,3864 ST RT 613,"MCCOMB, OH",45858,US,41.10842,-83.79146,"Rail,Truck","Rail,Truck",346123000,MCCOMB OH
Bowman-BOWMAN-ND,Bowman,13TH AVE SW,"BOWMAN, ND",58623,US,46.1837,-103.3924,"Rail,Truck","Rail,Truck",519943000,BOWMAN ND
Brenntag Mid-South-KANSAS CITY-MO,Brenntag Mid-South,6301 NE BIRMINGHAM RD,"KANSAS CITY, MO",64117,US,39.15439,-94.49595,"Rail,Truck","Rail,Truck",566788000,RANDOLPH MO
Brenntag Southwest Inc-ELMENDORF-TX,Brenntag Southwest Inc,8246 S LOOP 1604-E,"ELMENDORF, TX",78112,US,29.25619,-98.33277,"Rail,Truck","Rail,Truck",687467000,ELMENDORF TX
Brink Farms Inc Trnsld-GRAND RAPIDS-MI,Brink Farms Inc Trnsld,499 MART ST SW,"GRAND RAPIDS, MI",49548,US,42.99732,-85.68554,"Rail,Truck","Rail,Truck",317500000,GRAND RAPIDS (CPMY) MI
C F Industries-GRAND FORKS-ND,C F Industries,4975 N WASHINGTON ST,"GRAND FORKS, ND",58203,US,47.88866,-97.10952,"Rail,Truck","Rail,Truck",511740000,GRAND FORKS ND
C F Industries-HUNTINGTON-IN,C F Industries,574 EAST HOSLER RD,"HUNTINGTON, IN",46750,US,40.88067,-85.49313,"Rail,Truck","Rail,Truck",365150000,HUNTINGTON IN
C F Industries-ROSEMOUNT-MN,C F Industries,5300 PINE BEND TRAIL,"ROSEMOUNT, MN",55068,US,44.73785,-93.12355,"Rail,Truck","Rail,Truck",504752000,ROSEMOUNT MN
CALL MARK DEHART: 8013620059-PAYSON-UT,"",CALL MARK DEHART: 8013620059,"PAYSON, UT",84651,US,40.03062,-111.77126,"Rail,Truck","Rail,Truck",764385000,PAYSON UT
CD Corp-WINONA-MN,CD Corp,978 RIVERVIEW DR,"WINONA, MN",55987,US,44.04436,-91.61051,"Rail,Truck","Rail,Truck",507324000,WINONA MN
CF Industries-COURTRIGHT-ON,CF Industries,161 BICKFORD LANE,"COURTRIGHT, ON",N0N1H0,CA,42.76774,-82.43004,"Rail,Truck","Rail,Truck",049915000,COURTRIGHT ON
CF Industries-PERU-IL,CF Industries,8 TERMINAL RD,"PERU, IL",61354,US,41.31975,-89.13762,"Rail,Truck","Rail,Truck",384838000,PERU IL
CF Industries-SERGEANT BLUFF-IA,CF Industries,1182 260TH ST,"SERGEANT BLUFF, IA",51054,US,42.48773,-96.38111,"Rail,Truck","Rail,Truck",547500000,SIOUX CITY IA
CF-MEDICINE HAT-AB,CF,1250 52ND ST NWEST,"MEDICINE HAT, AB",T1A 7,CA,50.03965,-110.67184,"Rail,Truck","Rail,Truck",080300000,MEDICINE HAT AB
CHEMICAL SIDING 725-MALONE-OR,"",CHEMICAL SIDING 725,"MALONE, OR",97633,US,42.01814,-121.55984,"Rail,Truck","Rail,Truck",857665000,MALONE OR
CHS-COLBY-KS,CHS,2122 E HWY 24,"COLBY, KS",67701,US,39.15091,-100.87285,"Rail,Truck","Rail,Truck",593654000,COLBY KS
CHS-GREENVILLE-MS,CHS,2635 HARBOR FRONT RD,"GREENVILLE, MS",38701,US,33.41,-91.06166,"Rail,Truck","Rail,Truck",485430000,GREENVILLE MS
CHS-MOCCASIN-MT,CHS,1408 GROVE LN,"MOCCASIN, MT",59462,US,47.05433,-109.90698,"Rail,Truck","Rail,Truck",706461000,MOCCASIN CM MT
CHS-WAYLAND-MI,CHS,1107 RENO DRIVE,"WAYLAND, MI",49348,US,42.67354,-85.65034,"Rail,Truck","Rail,Truck",317958000,WAYLAND MI
CONWAY-CONWAY-NC,CONWAY,HWY 35 AMPAC RD,"CONWAY, NC",27820,US,36.44,-77.23,"Rail,Truck","Rail,Truck",402418000,CONWAY NC
COUNTRY PARTNERS COOPERATIVE-GOTHENBURG-NE,"",120 8TH ST,"GOTHENBURG, NE",69138,US,40.9265,-100.16366,"Rail,Truck","Rail,Truck",555933000,GOTHENBURG NE
COUNTRY PARTNERS COOPERATIVE-GOTHENBURG-NE,COUNTRY PARTNERS COOPERATIVE,120 8TH ST,"GOTHENBURG, NE",69138,US,40.9265,-100.16366,"Rail,Truck","Rail,Truck",555933000,GOTHENBURG NE
CPS-COOLIDGE-AZ,CPS,210 S PACIFIC ST,"COOLIDGE, AZ",85228,US,32.97242,-111.51463,"Rail,Truck","Rail,Truck",796554000,COOLIDGE AZ
CPS-WELLTON-AZ,CPS,28493 ARIZONA AVE,"WELLTON, AZ",85356,US,32.671,-114.12297,"Rail,Truck","Rail,Truck",798181000,WELLTON AZ
CPS-WILLCOX-AZ,CPS,299 S 1ST AVE,"WILLCOX, AZ",85643,US,32.24618,-109.83465,"Rail,Truck","Rail,Truck",795720000,WILLCOX AZ
CPS-YUMA-AZ,CPS,10741 SHORTWAY AVE,"YUMA, AZ",85365,US,32.72631,-114.61543,"Rail,Truck","Rail,Truck",798190000,YUMA AZ
CTLC-NAPLES-IL,CTLC,210 CGB DRIVE,"NAPLES, IL",62665,US,39.75437,-90.60784,"Rail,Truck","Rail,Truck",393317000,NAPLES IL
CUSTOMER TRACK-HEREFORD-TX,"",CUSTOMER TRACK,"HEREFORD, TX",79045,US,34.8607,-102.3,"Rail,Truck","Rail,Truck",674275000,JOEL TX
Cheyenne-CHEYENNE-WY,"",8305 OTTO RD,"CHEYENNE, WY",82001,US,41.09954,-104.89983,"Rail,Truck","Rail,Truck",729183000,WYCON WY
Cheyenne-CHEYENNE-WY,Cheyenne,8305 OTTO RD,"CHEYENNE, WY",82001,US,41.09954,-104.89983,"Rail,Truck","Rail,Truck",729183000,WYCON WY
Country Partners Cooperative-ALBION-NE,"",2504 OLD MILL RD,"ALBION, NE",68620,US,41.68709,-97.9919,"Rail,Truck","Rail,Truck",554240000,ALBION NE
Country Partners Cooperative-ALBION-NE,Country Partners Cooperative,2504 OLD MILL RD,"ALBION, NE",68620,US,41.68709,-97.9919,"Rail,Truck","Rail,Truck",554240000,ALBION NE
Country Visions-MANITOWOC-WI,Country Visions,4008 ROCKWOOD RD,"MANITOWOC, WI",54220,US,44.07457,-87.68319,"Rail,Truck","Rail,Truck",331150000,MANITOWOC WI
Country Visions-RIPON-WI,Country Visions,W13134 HWY KK,"RIPON, WI",54971,US,43.84222,-88.83583,"Rail,Truck","Rail,Truck",332352000,RIPON WI
DFI Transload Solutions-ELWOOD-KS,DFI Transload Solutions,1910 ROSEPORT RD,"ELWOOD, KS",66024,US,39.75517,-94.89762,"Rail,Truck","Rail,Truck",581152000,ELWOOD KS
DFI Transload Solutions-KANSAS CITY-MO,DFI Transload Solutions,6900 SCARRITT AVE,"KANSAS CITY, MO",64123,US,39.08136,-94.60913,"Rail,Truck","Rail,Truck",566900000,KANSAS CITY MO
Dakota Quality Grain-ROSS-ND,"",8830 62ND ST NW,"ROSS, ND",58776,US,48.31416,-102.54404,"Rail,Truck","Rail,Truck",513758000,ROSS ND
Dakota Quality Grain-ROSS-ND,Dakota Quality Grain,8830 62ND ST NW,"ROSS, ND",58776,US,48.31416,-102.54404,"Rail,Truck","Rail,Truck",513758000,ROSS ND
Dyno Nobel-DEER ISLAND-OR,Dyno Nobel,63149 COLUMBIA RIVER HWY,"DEER ISLAND, OR",97054,US,45.89793,-122.81282,"Rail,Truck","Rail,Truck",853160000,ST HELENS OR
E 8TH & DAVIS AVE N-THIEF RIVER FALLS-MN,"",E 8TH & DAVIS AVE N,"THIEF RIVER FALLS, MN",56087,US,44.23853,-94.97412,"Rail,Truck","Rail,Truck",508290000,SPRINGFIELD MN
E HWY 11-NORTH LOUP-NE,"",E HWY 11,"NORTH LOUP, NE",68859,US,41.50374,-98.77043,"Rail,Truck","Rail,Truck",555164000,NORTH LOUP NE
E IDAHO RR TRACK #108-721 STATION 81-ACEQUIA-ID,"",E IDAHO RR TRACK #108-721 STATION 81,"ACEQUIA, ID",83350,US,42.66993,-113.59765,"Rail,Truck","Rail,Truck",837281000,ACEQUIA ID
EIRR TRACK LEASE-RIRIE-ID,"",EIRR TRACK LEASE,"RIRIE, ID",83442,US,43.60486,-111.81069,"Rail,Truck","Rail,Truck",835142000,MIKAMI ID
Eau Claire Co-Op-EAU CLAIRE-WI,Eau Claire Co-Op,6600 WEST HWY 12,"EAU CLAIRE, WI",54703,US,44.87387,-91.6915,"Rail,Truck","Rail,Truck",329157000,ELK MOUND WI
Envision Coop-RUGBY-ND,Envision Coop,421 1ST ST NE,"RUGBY, ND",58368,US,48.36937,-100.00607,"Rail,Truck","Rail,Truck",512734000,RUGBY ND
Eugene-EUGENE-OR,Eugene,2665 HWY 99N,"EUGENE, OR",97402,US,44.06013,-123.12088,"Rail,Truck","Rail,Truck",855638000,EUGENE OR
FWWR TRACK 2423-CRESSON-TX,"",FWWR TRACK 2423,"CRESSON, TX",76035,US,32.53444,-97.61757,"Rail,Truck","Rail,Truck",668610000,CRESSON TX
Federated Co-operatives Limited (FCL)-HANLEY-SK,Federated Co-operatives Limited (FCL),203 DUNCAN RD,"HANLEY, SK",S0G 2,CA,51.62659,-106.44118,"Rail,Truck","Rail,Truck",072042000,HANLEY SK
Ferti Tech-STATESVILLE-NC,Ferti Tech,111 MCNESS RD,"STATESVILLE, NC",28677,US,35.77526,-80.88819,"Rail,Truck","Rail,Truck",414650000,STATESVILLE (ARC) NC
Ferti Technologies-SAINTE CATHERINE-QC,Ferti Technologies,SEAWAY SPUR SIDING #QS15 C/O LA COOP FEDEREE,"SAINTE CATHERINE, QC",J5C 0,CA,45.39659,-73.63868,"Rail,Truck","Rail,Truck",028729000,SEAWAY SPUR QC
Flint Hills Resources-ROSEMOUNT-MN,Flint Hills Resources,12895 COURTHOUSE BLVD,"ROSEMOUNT, MN",55068,US,44.75592,-93.70782,"Rail,Truck","Rail,Truck",504721000,ROSEPORT MN
GEORGIA-PACIFIC CHEMICALS-CROSSETT-AR,"",GEORGIA-PACIFIC CHEMICALS,"CROSSETT, AR",71635,US,33.12735,-91.96601,"Rail,Truck","Rail,Truck",616780000,CROSSETT AR
GEORGIA-PACIFIC CHEMICALS-RUSSELLVILLE-SC,"",GEORGIA-PACIFIC CHEMICALS,"RUSSELLVILLE, SC",29476,US,33.40384,-79.96312,"Rail,Truck","Rail,Truck",447115000,RUSSELLVILLE SC
GP-MILLERSBURG-OR,GP,2190 OLD SALEM RD NE,"MILLERSBURG, OR",97321,US,44.68909,-123.05377,"Rail,Truck","Rail,Truck",854542000,MILLERSBURG OR
GP-VIENNA-GA,GP,838 SHILOH RD,"VIENNA, GA",31092,US,32.0902,-83.79813,"Rail,Truck","Rail,Truck",463980000,VIENNA GA
Galveston TX-GALVESTON-TX,Galveston TX,,"GALVESTON, TX",77550,US,29.30415,-94.89951,"Rail,Truck","Rail,Truck",686180000,GALVESTON TX
Gavilon-BENKELMAN-NE,Gavilon,70454 HWY 61,"BENKELMAN, NE",69021,US,40.04623,-101.5334,"Rail,Truck","Rail,Truck",559970000,BENKELMAN NE
Gavilon-NICKERSON-KS,Gavilon,218 E HWY 96,"NICKERSON, KS",67561,US,38.14815,-98.08551,"Rail,Truck","Rail,Truck",589119000,NICKERSON KS
Gray Oil-KEENESBURG-CO,Gray Oil,350 E RAILROAD,"KEENESBURG, CO",80643,US,40.10941,-104.52078,"Rail,Truck","Rail,Truck",742334000,KEENESBURG CO
Greenwood-GREENWOOD-DE,"",22272 S DUPONT HWY,"GREENWOOD, DE",19950,US,38.80748,-75.5924,"Rail,Truck","Rail,Truck",223122000,GREENWOOD (DCR) DE
Greenwood-GREENWOOD-DE,Greenwood,22272 S DUPONT HWY,"GREENWOOD, DE",19950,US,38.80748,-75.5924,"Rail,Truck","Rail,Truck",223122000,GREENWOOD (DCR) DE
Growmark Inc-EAST LIVERPOOL-OH,"",1080 ELMWOOD ST,"EAST LIVERPOOL, OH",43920,US,40.61511,-80.57808,"Rail,Truck","Rail,Truck",347170000,EAST LIVERPOOL OH
Growmark Inc-EAST LIVERPOOL-OH,Growmark Inc,1080 ELMWOOD ST,"EAST LIVERPOOL, OH",43920,US,40.61511,-80.57808,"Rail,Truck","Rail,Truck",347170000,EAST LIVERPOOL OH
HWY 1 W-MOOSOMIN-SK,"",HWY 1 W,"MOOSOMIN, SK",S0G 3N0,CA,50.14048,-101.65497,"Rail,Truck","Rail,Truck",070605000,MOOSOMIN SK
HWY 1-GULL LAKE-SK,"",HWY 1,"GULL LAKE, SK",S0N 1A0,CA,50.14376,-108.34244,"Rail,Truck","Rail,Truck",075173000,ANTELOPE SK
HWY 10 S-BOISSEVAIN-MB,"",HWY 10 S,"BOISSEVAIN, MB",R0K 0E0,CA,49.22803,-100.09336,"Rail,Truck","Rail,Truck",063156000,BOISSEVAIN MB
HWY 136 & MAIN ST-JANSEN-NE,"",HWY 136 & MAIN ST,"JANSEN, NE",68377,US,40.18073,-97.08894,"Rail,Truck","Rail,Truck",557847000,JANSEN NE
HWY 21 S-LEADER-SK,"",HWY 21 S,"LEADER, SK",S0N 1H0,CA,50.89011,-109.53744,"Rail,Truck","Rail,Truck",075243000,LEADER SK
HWY 24 WEST-BRUNSWICK-MO,"",HWY 24 WEST,"BRUNSWICK, MO",65236,US,39.42199,-93.12294,"Rail,Truck","Rail,Truck",565788000,BRUNSWICK MO
HWY 26 W-TORRINGTON-WY,"",HWY 26 W,"TORRINGTON, WY",82240,US,42.06189,-104.18362,"Rail,Truck","Rail,Truck",727140000,TORRINGTON WY
HWY 28 WEST-TAYLORSVILLE-MS,"",HWY 28 WEST,"TAYLORSVILLE, MS",39168,US,31.83825,-89.45576,"Rail,Truck","Rail,Truck",486693000,TAYLORSVILLE MS
HWY 30 & CHESTNUT-SILVER CREEK-NE,"",HWY 30 & CHESTNUT,"SILVER CREEK, NE",68663,US,41.31632,-97.66314,"Rail,Truck","Rail,Truck",554613000,SILVER CREEK NE
HWY 4 N-HAMLIN-SK,"",HWY 4 N,"HAMLIN, SK",S9A 3K2,CA,52.87466,-108.31368,"Rail,Truck","Rail,Truck",078133000,HAMLIN SK
HWY 44 S-DRAYTON-ND,"",HWY 44 S,"DRAYTON, ND",58225,US,48.5617,-97.1786,"Rail,Truck","Rail,Truck",511168000,DRAYTON ND
HWY 5 E-QUILL LAKE-SK,"",HWY 5 E,"QUILL LAKE, SK",S0A 3E0,CA,52.06884,-104.25558,"Rail,Truck","Rail,Truck",071517000,QUILL LAKE SK
HWY 521 & I 95-ALCOLU-SC,"",HWY 521 & I 95,"ALCOLU, SC",29001,US,33.74294,-80.21051,"Rail,Truck","Rail,Truck",445734000,ALCOLU SC
HWY 56 & HWY 13-CAMROSE-AB,"",HWY 56 & HWY 13,"CAMROSE, AB",T4V 4E7,CA,52.97867,-112.70421,"Rail,Truck","Rail,Truck",083693000,LEGACY AB
HWY 80-MEADOWVIEW-VA,"",HWY 80,"MEADOWVIEW, VA",24361,US,36.76191,-81.86079,"Rail,Truck","Rail,Truck",267827000,MEADOW VIEW VA
Harcros Chemicals Inc-KANSAS CITY-KS,"",5200 SPEAKER RD,"KANSAS CITY, KS",66106,US,39.1164,-94.6916,"Rail,Truck","Rail,Truck",581520000,ARMOURDALE YARD KS
Harcros Chemicals Inc-KANSAS CITY-KS,Harcros Chemicals Inc,5200 SPEAKER RD,"KANSAS CITY, KS",66106,US,39.1164,-94.6916,"Rail,Truck","Rail,Truck",581520000,ARMOURDALE YARD KS
Heartland-DORCHESTER-WI,Heartland,152 FRONT ST,"DORCHESTER, WI",54425,US,45.00339,-90.33034,"Rail,Truck","Rail,Truck",327611000,DORCHESTER WI
Heartland-LOYAL-WI,Heartland,210 EAST SPRING ST,"LOYAL, WI",54446,US,44.75769,-90.2975,"Rail,Truck","Rail,Truck",327198000,SPENCER WI
Heartland-OWEN-WI,Heartland,119 N CENTRAL AVE,"OWEN, WI",54460,US,44.95137,-90.56697,"Rail,Truck","Rail,Truck",327626000,OWEN WI
Heartland-SHELDON-WI,Heartland,W5524,"SHELDON, WI",54766,US,45.32077,-90.96476,"Rail,Truck","Rail,Truck",322887000,SHELDON WI
Helena Agri-Enterprises-GRACE-ID,Helena Agri-Enterprises,426 ONE MILE RD,"GRACE, ID",83241,US,42.70961,-111.858,"Rail,Truck","Rail,Truck",835463000,BANCROFT ID
Helena Agri-Enterprises-SUGAR CITY-ID,Helena Agri-Enterprises,1693 N 7TH E,"SUGAR CITY, ID",83448,US,43.86465,-111.75975,"Rail,Truck","Rail,Truck",832632000,SUGAR CITY ID
Hettinger-HETTINGER-ND,Hettinger,212 ADAMS AVE,"HETTINGER, ND",58639,US,45.99678,-102.63185,"Rail,Truck","Rail,Truck",519864000,HETTINGER ND
Hexion Inc-FAYETTEVILLE-NC,Hexion Inc,1411 INDUSTRIAL DR,"FAYETTEVILLE, NC",28301,US,35.05449,-78.88505,"Rail,Truck","Rail,Truck",407750000,FAYETTEVILLE NC
Hi Yield-ALDEN-MN,"",23282 620TH AVE,"ALDEN, MN",56009,US,43.67025,-93.57682,"Rail,Truck","Rail,Truck",508673000,ALDEN MN
Hi Yield-ALDEN-MN,Hi Yield,23282 620TH AVE,"ALDEN, MN",56009,US,43.67025,-93.57682,"Rail,Truck","Rail,Truck",508673000,ALDEN MN
Honeywell-HOPEWELL-VA,Honeywell,905 E RANDOLPH RD,"HOPEWELL, VA",23860,US,37.30153,-77.28016,"Rail,Truck","Rail,Truck",262400000,HOPEWELL VA
Hydrite Chemical Company-TERRA HAUTE-IN,Hydrite Chemical Company,2400 S ERIE CANAL RD,"TERRA HAUTE, IN",47802,US,39.47,-87.4,"Rail,Truck","Rail,Truck",373440000,TERRE HAUTE DUANE IN
IMTT-SAINT ROSE-LA,IMTT,21099 RIVER RD,"SAINT ROSE, LA",70087,US,29.95712,-90.32282,"Rail,Truck","Rail,Truck",646132000,ST ROSE LA
JCT HWY 6 & 334-CORINNE-SK,"",JCT HWY 6 & 334,"CORINNE, SK",S0H,CA,50.01993,-104.57058,"Rail,Truck","Rail,Truck",074018000,CORINNE SK
JCT OF HWY 2 & RR 201-MCLENNAN-AB,"",JCT OF HWY 2 & RR 201,"MCLENNAN, AB",T0H 2L0,CA,55.71214,-116.93778,"Rail,Truck","Rail,Truck",087525000,WINAGAMI AB
Jaguar Transport Holdings-EL RENO-OK,Jaguar Transport Holdings,2105 EVANS RD,"EL RENO, OK",73036,US,35.5436,-97.96876,"Rail,Truck","Rail,Truck",626370000,EL RENO OK
Jeffres Ag-PAVILION-NY,Jeffres Ag,6905 ELLICOTT ST RD,"PAVILION, NY",14525,US,42.87611,-78.02305,"Rail,Truck","Rail,Truck",184377000,PAVILION NY
Johnson Fertilizer-CLONTARF-MN,Johnson Fertilizer,100 E BECKER AVE,"CLONTARF, MN",56226,US,45.37652,-95.67792,"Rail,Truck","Rail,Truck",506724000,CLONTARF MN
"Johnston's Port 33, Inc-INOLA-OK","Johnston's Port 33, Inc",328 N 321ST EAST AVE,"INOLA, OK",74036,US,36.20508,-95.74129,"Rail,Truck","Rail,Truck",621690000,TULSA PORT AUTHORIT OK
Kinder Morgan Terminal-CHARLESTON-SC,Kinder Morgan Terminal,1500 GREENLEAF RD,"CHARLESTON, SC",29405,US,32.84,-79.95,"Rail,Truck","Rail,Truck",447850000,CHARLESTON COOP YD SC
KochFert-EAGLE PASS-TX,KochFert,"EAGLE PASS, TX","EAGLE PASS, TX",68852,US,28.69553,-100.50941,"Rail,Truck","Rail,Truck",698350000,EAGLE PASS TX
KochFert-MARSHALLTOWN-IA,KochFert,3046 GARWIN RD,"MARSHALLTOWN, IA",50158,US,42.04246,-92.91184,"Rail,Truck","Rail,Truck",536250000,MARSHALLTOWN IA
LEASE TRACK E234STE ROSALIE JCT-SAINT-HYACINTHE-QC,"",LEASE TRACK E234STE ROSALIE JCT,"SAINT-HYACINTHE, QC",J0H 0C2,CA,45.6389,-72.8804,"Rail,Truck","Rail,Truck",024322000,ST ROSALIE JCT QC
Land View Inc.-NAMPA-ID,Land View Inc.,16 18TH AVE S,"NAMPA, ID",83651,US,43.57838,-116.55695,"Rail,Truck","Rail,Truck",839167000,NAMPA ID
Landmark Services Cooperative-CLINTON-WI,Landmark Services Cooperative,315 FRONT ST,"CLINTON, WI",53525,US,43.47993,-89.41481,"Rail,Truck","Rail,Truck",338282000,COLUMBIA WI
Landmark Services Cooperative-READFIELD-WI,Landmark Services Cooperative,LEASE TRACK W760,"READFIELD, WI",54969,US,44.28817,-88.76659,"Rail,Truck","Rail,Truck",325782000,READFIELD WI
Landmark-COTTAGE GROVE-WI,Landmark,126 CLARK ST,"COTTAGE GROVE, WI",53527,US,43.07611,-89.19944,"Rail,Truck","Rail,Truck",338471000,COTTAGE GROVE WI
Landmark-EVANSVILLE-WI,Landmark,6524 N CO RD M,"EVANSVILLE, WI",53536,US,42.77188,-89.28368,"Rail,Truck","Rail,Truck",338638000,EVANSVILLE WI
Landmark-MARKESAN-WI,"",W1705 COUNTY RD S,"MARKESAN, WI",53946,US,43.70722,-88.99,"Rail,Truck","Rail,Truck",332674000,MARKESAN WI
Landmark-MARKESAN-WI,Landmark,W1705 COUNTY RD S,"MARKESAN, WI",53946,US,43.70722,-88.99,"Rail,Truck","Rail,Truck",332674000,MARKESAN WI
Lebanon Seaboard Corporation -LEBANON-PA,"Lebanon Seaboard Corporation ",1600 E CUMBERLAND ST,"LEBANON, PA",17-42,US,40.34314,-76.42746,"Rail,Truck","Rail,Truck",206149000,LEBANON PA
Lyondell-CHANNELVIEW-TX,Lyondell,2502 SHELDON RD,"CHANNELVIEW, TX",77530,US,29.78802,-95.1143,"Rail,Truck","Rail,Truck",684745000,CHANNELVIEW TX
MAC-MARLETTE-MI,MAC,3346 MAIN ST,"MARLETTE, MI",48453,US,43.32238,-83.08091,"Rail,Truck","Rail,Truck",315260000,MARLETTE MI
MID BRIDGE-EAGLE PASS-TX,"",MID BRIDGE,"EAGLE PASS, TX",78852,US,28.69553,-100.50941,"Rail,Truck","Rail,Truck",698350000,EAGLE PASS TX
MID BRIDGE-LAREDO-TX,"",MID BRIDGE,"LAREDO, TX",78043,US,27.2959,-99.2324,"Rail,Truck","Rail,Truck",699380000,LAREDO TX
Marion Ag Service-AURORA-OR,Marion Ag Service,9400 ST PAUL HWY NE,"AURORA, OR",97002,US,45.23333,-122.75509,"Rail,Truck","Rail,Truck",854110000,AURORA OR
Marion-MARION-SD,"",44608 273RD ST,"MARION, SD",57043,US,43.4244,-97.2569,"Rail,Truck","Rail,Truck",527657000,MARION SD
Marion-MARION-SD,Marion,44608 273RD ST,"MARION, SD",57043,US,43.4244,-97.2569,"Rail,Truck","Rail,Truck",527657000,MARION SD
Masterblend-MORRIS-IL,Masterblend,4673 WEITZ RD,"MORRIS, IL",60450,US,41.41047,-88.32049,"Rail,Truck","Rail,Truck",384616000,EAST MORRIS IL
Methanex-PORTLAND-OR,Methanex,11645 N FORCE AVE,"PORTLAND, OR",97217,US,45.50083,-122.64888,"Rail,Truck","Rail,Truck",853470000,PORTLAND OR
Midwest Bio Ag-KINDE-MI,Midwest Bio Ag,338 MAIN ST,"KINDE, MI",48445,US,43.93985,-82.99487,"Rail,Truck","Rail,Truck",315124000,KINDE MI
Muskegon MI-MUSKEGON-MI,Muskegon MI,BRINKS TERMINAL,"MUSKEGON, MI",49445,US,43.23416,-86.24833,"Rail,Truck","Rail,Truck",317270000,MUSKEGON MI
Musket Corporation-ALBUQUERQUE-NM,Musket Corporation,1615 8TH ST NW,"ALBUQUERQUE, NM",87102,US,35.049,-106.6539,"Rail,Truck","Rail,Truck",774900000,ALBUQUERQUE NM
Musket Corporation-AURORA-CO,Musket Corporation,17300 E 22ND AVE,"AURORA, CO",80011,US,39.76795,-104.85296,"Rail,Truck","Rail,Truck",744149000,ROYDALE CO
Musket-EAST ST LOUIS-IL,Musket,3900 BOND AVE,"EAST ST LOUIS, IL",62207,US,38.62351,-90.1668,"Rail,Truck","Rail,Truck",396640000,EAST ST LOUIS IL
N 1750 COUNTY RD R-LEBANON-WI,"",N 1750 COUNTY RD R,"LEBANON, WI",53047,US,43.25841,-88.62788,"Rail,Truck","Rail,Truck",335776000,LEBANON WI
N BROOKS AVE-HAZELTON-ID,"",N BROOKS AVE,"HAZELTON, ID",83335,US,42.59882,-114.1152,"Rail,Truck","Rail,Truck",837658000,HAZELTON ID
N LAPWAI LOCATION-NORTH LAPWAI-ID,"",N LAPWAI LOCATION,"NORTH LAPWAI, ID",83540,US,46.44514,-116.83493,"Rail,Truck","Rail,Truck",831435000,NORTH LAPWAI ID
N MAPLE ST-PAYNE-OH,"",N MAPLE ST,"PAYNE, OH",45880,US,41.08067,-84.72542,"Rail,Truck","Rail,Truck",346467000,PAYNE OH
N305 1ST ST-FAIRFIELD-WA,"",N305 1ST ST,"FAIRFIELD, WA",99012,US,47.38517,-117.17289,"Rail,Truck","Rail,Truck",840583000,FAIRFIELD WA
N59W14765 BOBOLINK AVE-MENOMONEE FALLS-WI,"",N59W14765 BOBOLINK AVE,"MENOMONEE FALLS, WI",53051,US,43.10771,-88.06392,"Rail,Truck","Rail,Truck",337131000,BUTLER WI
NEASTERN INDUSTRIAL PARK-GUILDERLAND CENTER-NY,"",NEASTERN INDUSTRIAL PARK,"GUILDERLAND CENTER, NY",12085,US,42.68205,-73.94834,"Rail,Truck","Rail,Truck",173416000,GUILDERLAND CENTER NY
NEW Cooperative Inc-CLARE-IA,NEW Cooperative Inc,100 N HOOD ST,"CLARE, IA",50524,US,42.58842,-94.34551,"Rail,Truck","Rail,Truck",543652000,CLARE IA
NUTRIEN-LU VERNE-IA,NUTRIEN,121 E ST,"LU VERNE, IA",50560,US,43.00844,-94.19543,"Rail,Truck","Rail,Truck",541182000,IRVINGTON IA
NW 14 39 18 W2-NAICAM-SK,"",NW 14 39 18 W2,"NAICAM, SK",S0K,CA,52.32716,-104.4762,"Rail,Truck","Rail,Truck",073306000,SPALDING SK
NW 16 38 13 W2-ROSE VALLEY-SK,"",NW 16 38 13 W2,"ROSE VALLEY, SK",S0E 1M0,CA,52.35481,-103.82171,"Rail,Truck","Rail,Truck",073517000,ROSE VALLEY SK
North Central Cooperative Inc-BURKET-IN,North Central Cooperative Inc,148 RAILROAD ST,"BURKET, IN",46508,US,41.15544,-85.97009,"Rail,Truck","Rail,Truck",362692000,BURKET IN
North Central-WEST BOWDLE-SD,North Central,32450 HWY 12,"WEST BOWDLE, SD",57428,US,45.45844,-99.703,"Rail,Truck","Rail,Truck",522460000,WEST BOWDLE SD
NuWay-WELCOME-MN,NuWay,402 N GUIDE ST,"WELCOME, MN",56181,US,43.6662,-94.60056,"Rail,Truck","Rail,Truck",508872000,WELCOME MN
OLD MILL RD EXIT 29 OFF HWY 81 WYN TRAK-GLADE SPRING-VA,"",OLD MILL RD EXIT 29 OFF HWY 81 WYN TRAK,"GLADE SPRING, VA",24340,US,36.79066,-81.77233,"Rail,Truck","Rail,Truck",267814000,GLADE SPRING VA
OmniumLLC-SAINT JOSEPH-MO,OmniumLLC,1417 LOWER LAKE RD,"SAINT JOSEPH, MO",64504,US,39.73884,-94.85493,"Rail,Truck","Rail,Truck",566330000,ST JOSEPH MO
P O BOX 10-OAK BLUFF-MB,"",P O BOX 10,"OAK BLUFF, MB",R0G 1,CA,49.77698,-97.34609,"Rail,Truck","Rail,Truck",063057000,OAKBLUFF MB
P O BOX 1060-HARROWBY-MB,"",P O BOX 1060,"HARROWBY, MB",R0J 1,CA,50.75763,-101.45492,"Rail,Truck","Rail,Truck",064581000,HARROWBY MB
P&H-BIGGAR-SK,P&H,PO BOX 160,"BIGGAR, SK",S0K 0,CA,52.12716,-108.14243,"Rail,Truck","Rail,Truck",077203000,OBAN SK
PCS-AUGUSTA-GA,PCS,23 COLUMBIA RD,"AUGUSTA, GA",30901,US,33.45849,-81.96111,"Rail,Truck","Rail,Truck",457210000,AUGUSTA GA
PCS-LIMA-OH,PCS,1900 FORT AMANDA RD,"LIMA, OH",45802,US,40.74331,-84.10111,"Rail,Truck","Rail,Truck",346740000,LIMA (RJCW) OH
PO BOX 1041-WESTFIELD-IN,"",PO BOX 1041,"WESTFIELD, IN",46074,US,42.81002,-94.52717,"Rail,Truck","Rail,Truck",543417000,ROLFE IA
PO BOX 210-MILESTONE-SK,"",PO BOX 210,"MILESTONE, SK",S0G 3L0,CA,49.97913,-104.48215,"Rail,Truck","Rail,Truck",074016000,MILESTONE SK
PO BOX 309-LENA-IL,"",PO BOX 309,"LENA, IL",61048,US,42.3779,-89.8227,"Rail,Truck","Rail,Truck",383248000,LENA IL
PO BOX 568-DELORAINE-MB,"",PO BOX 568,"DELORAINE, MB",R0M 0M0,CA,49.18936,-100.52266,"Rail,Truck","Rail,Truck",063321000,DELORAINE MB
PO BOX 837-BIGGAR-SK,"",PO BOX 837,"BIGGAR, SK",S0K 0M0,CA,52.0534,-107.98696,"Rail,Truck","Rail,Truck",076026000,BIGGAR SK
PORT OF STOCKTON RD G-STOCKTON-CA,"",PORT OF STOCKTON RD G,"STOCKTON, CA",95203,US,37.94462,-121.28839,"Rail,Truck","Rail,Truck",875640000,STOCKTON CA
PT Railroad Services Ltd-PORTLAND-OR,PT Railroad Services Ltd,11645 N FORCE AVE SUITE A,"PORTLAND, OR",97217,US,45.6063,-122.7118,"Rail,Truck","Rail,Truck",853472000,N PORTLAND OR
Petersons Mill-CAMBRIDGE-MN,Petersons Mill,427 RAILROAD ST S,"CAMBRIDGE, MN",55008,US,45.5694,-93.22203,"Rail,Truck","Rail,Truck",504132000,CAMBRIDGE MN
Petersons Mill-NORTH BRANCH-MN,Petersons Mill,39015 BRANCH AVE,"NORTH BRANCH, MN",55056,US,45.51128,-92.9808,"Rail,Truck","Rail,Truck",504050000,NORTH BRANCH MN
Pilot Travel Centers LLC-HONDO-TX,Pilot Travel Centers LLC,916 CARTER RD,"HONDO, TX",78861,US,29.34581,-99.16337,"Rail,Truck","Rail,Truck",692650000,HONDO TX
Point Comfort TX-POINT COMFORT-TX,Point Comfort TX,2313 FM 1593 S,"POINT COMFORT, TX",77978,US,28.67944,-96.56,"Rail,Truck","Rail,Truck",688117000,POINT COMFORT TX
Poole Chemical-DIMMITT-TX,Poole Chemical,1600 HWY 194 SE,"DIMMITT, TX",79027,US,34.553,-102.3,"Rail,Truck","Rail,Truck",674550000,DIMMITT TX
Port of Longview-LONGVIEW-WA,Port of Longview,10 E PORT WAY,"LONGVIEW, WA",98632,US,46.117,-122.9168,"Rail,Truck","Rail,Truck",849660000,LONGVIEW CONT GRAIN WA
Prairie States-DANVILLE-IL,Prairie States,3400 EAST JONES RD,"DANVILLE, IL",61834,US,40.14213,-87.61469,"Rail,Truck","Rail,Truck",387650000,DANVILLE IL
Pro Ag Farmers-PARKERS PRAIRIE-MN,"",210 S RAILROAD AVE,"PARKERS PRAIRIE, MN",56361,US,46.15388,-95.3264,"Rail,Truck","Rail,Truck",506077000,PARKERS PRAIRIE MN
Pro Ag Farmers-PARKERS PRAIRIE-MN,Pro Ag Farmers,210 S RAILROAD AVE,"PARKERS PRAIRIE, MN",56361,US,46.15388,-95.3264,"Rail,Truck","Rail,Truck",506077000,PARKERS PRAIRIE MN
RAILWAY AVE-PAMBRUN-SK,"",RAILWAY AVE,"PAMBRUN, SK",S0N 1W0,CA,49.92384,-107.36175,"Rail,Truck","Rail,Truck",074571000,PAMBRUN SK
ROUTE 1 BOX 59A-WALTON-IN,"",ROUTE 1 BOX 59A,"WALTON, IN",46994,US,40.66497,-86.22849,"Rail,Truck","Rail,Truck",366285000,WALTON IN
RR 4 LCD MAIN GROUP SITE 3 GB308-SASKATOON-SK,"",RR 4 LCD MAIN GROUP SITE 3 GB308,"SASKATOON, SK",S7K 3J7,CA,52.10397,-106.73861,"Rail,Truck","Rail,Truck",072400000,SASKATOON SK
RR 8 SITE 14 COMP 11-LETHBRIDGE-AB,"",RR 8 SITE 14 COMP 11,"LETHBRIDGE, AB",T1J 4P4,CA,49.60066,-112.64881,"Rail,Truck","Rail,Truck",080242000,WILSON AB
RTE 1 BOX 303-BISHOPVILLE-SC,"",RTE 1 BOX 303,"BISHOPVILLE, SC",29010,US,34.21805,-80.24861,"Rail,Truck","Rail,Truck",445130000,BISHOPVILLE SC
Rentech-EAST DUBUQUE-IL,Rentech,16675 HWY 20 WEST,"EAST DUBUQUE, IL",61025,US,42.42738,-90.54138,"Rail,Truck","Rail,Truck",383414000,ARCCO IL
Risser Grain-TURBOTVILLE-PA,Risser Grain,440 BEAVER RUN RD,"TURBOTVILLE, PA",17772,US,41.10577,-76.76465,"Rail,Truck","Rail,Truck",203758000,TURBOTVILLE PA
S 71TH HWY-ADRIAN-MO,"",S 71TH HWY,"ADRIAN, MO",64720,US,38.37413,-94.35373,"Rail,Truck","Rail,Truck",573333000,ADRIAN MO
S PARK ST-LOCKWOOD-MO,"",S PARK ST,"LOCKWOOD, MO",65682,US,37.3871,-93.95456,"Rail,Truck","Rail,Truck",576363000,LOCKWOOD MO
S W QUARTER 22 16 21 W1-STRATHCLAIR-MB,"",S W QUARTER 22 16 21 W1,"STRATHCLAIR, MB",R0J 2C0,CA,50.37241,-100.28782,"Rail,Truck","Rail,Truck",064544000,GLOSSOP MB
SE 14-41-20 W3-THACKERAY-SK,"",SE 14-41-20 W3,"THACKERAY, SK",S0K 4W0,CA,52.53401,-108.75474,"Rail,Truck","Rail,Truck",077117000,THACKERAY SK
SE 20-2-1 W-JCT HWY 30 & MILE RD 9 N-1/4 M W (JCT 201)-ALTONA-MB,"",SE 20-2-1 W-JCT HWY 30 & MILE RD 9 N-1/4 M W (JCT 201),"ALTONA, MB",R0G 0B0,CA,49.1351,-97.57604,"Rail,Truck","Rail,Truck",063036000,ALTONA MB
SE 26 64 W-CARMAN-MB,"",SE 26 64 W,"CARMAN, MB",R0G 0J0,CA,49.5109,-98.0,"Rail,Truck","Rail,Truck",063203000,CARMAN MB
SE 26-15-14 W3-SWIFT CURRENT-SK,"",SE 26-15-14 W3,"SWIFT CURRENT, SK",S9H 3V6,CA,50.28165,-107.79873,"Rail,Truck","Rail,Truck",075140000,SWIFT CURRENT SK
SE-4-45-18-W4-KELSEY-AB,"",SE-4-45-18-W4,"KELSEY, AB",T0B 2K0,CA,52.8465,-112.538,"Rail,Truck","Rail,Truck",083846000,KELSEY AB
SIDING 4190-WEBBWOOD-ON,"",SIDING 4190,"WEBBWOOD, ON",P0P 2G0,CA,46.27063,-81.88597,"Rail,Truck","Rail,Truck",052118000,WEBBWOOD ON
SK-5-WATSON-SK,"",SK-5,"WATSON, SK",S0K,CA,52.12701,-104.52552,"Rail,Truck","Rail,Truck",071511000,WATSON SK
ST RDS 16 & 13-URBANA-IN,"",ST RDS 16 & 13,"URBANA, IN",46990,US,40.89919,-85.79029,"Rail,Truck","Rail,Truck",365352000,URBANA IN
SW 14-20-9 W2-LEMBERG-SK,"",SW 14-20-9 W2,"LEMBERG, SK",S0A,CA,50.3722,-101.7005,"Rail,Truck","Rail,Truck",071675000,SYLSPUR SK
SW 15 - 34 - 27 -W2-SWAN RIVER-MB,"",SW 15 - 34 - 27 -W2,"SWAN RIVER, MB",R0L 1Z0,CA,52.10417,-101.27102,"Rail,Truck","Rail,Truck",067508000,SWAN RIVER MB
SW 24-7-2 W2-BIENFAIT-SK,"",SW 24-7-2 W2,"BIENFAIT, SK",S0C 0M0,CA,49.14065,-102.80403,"Rail,Truck","Rail,Truck",070305000,BIENFAIT SK
SW 30-9-18 W4-COALDALE-AB,"",SW 30-9-18 W4,"COALDALE, AB",T0K 0T0,CA,49.76212,-112.44504,"Rail,Truck","Rail,Truck",080220000,CHIN AB
SW 35-28-20 W3-BROCK-SK,"",SW 35-28-20 W3,"BROCK, SK",S0L 0H0,CA,51.43975,-108.72077,"Rail,Truck","Rail,Truck",076251000,BROCK SK
SW 36-8-15 W2-WEYBURN-SK,"",SW 36-8-15 W2,"WEYBURN, SK",S4H 3N8,CA,49.6706,-103.858,"Rail,Truck","Rail,Truck",070413000,WEYBURN SK
SW1/4 SEC 7-01-02W2-NORTHGATE-SK,"",SW1/4 SEC 7-01-02W2,"NORTHGATE, SK",S0C 1,CA,48.99886,-102.26449,"Rail,Truck","Rail,Truck",070333000,NORTHGATE SK
Schoolcraft MI-SCHOOLCRAFT-MI,Schoolcraft MI,CO ALLIANCE LLP,"SCHOOLCRAFT, MI",49087,US,42.11058,-85.63212,"Rail,Truck","Rail,Truck",319295000,SCHOOLCRAFT MI
Schuyler Coop-RICHLAND-NE,Schuyler Coop,310 E FRONT ST,"RICHLAND, NE",66801,US,41.43878,-97.20698,"Rail,Truck","Rail,Truck",554084000,RICHLAND NE
Schuyler Coop-SCHUYLER-NE,"",1303 G ST,"SCHUYLER, NE",68661,US,41.44949,-97.05611,"Rail,Truck","Rail,Truck",554070000,SCHUYLER NE
Schuyler Coop-SCHUYLER-NE,Schuyler Coop,1303 G ST,"SCHUYLER, NE",68661,US,41.44949,-97.05611,"Rail,Truck","Rail,Truck",554070000,SCHUYLER NE
Seatex Ltd-ROSENBERG-TX,Seatex Ltd,445 TX-36,"ROSENBERG, TX",77471,US,29.5612,-95.8031,"Rail,Truck","Rail,Truck",686448000,ROSENBERG TX
Simplot Agribusiness-ROCK SPRINGS-WY,Simplot Agribusiness,515 STATE HWY 430,"ROCK SPRINGS, WY",82901,US,41.583,-109.22496,"Rail,Truck","Rail,Truck",738180000,ROCK SPRINGS WY
Simplot-PAYSON-UT,Simplot,10460 S 4400 WEST,"PAYSON, UT",84651,US,40.03062,-111.77126,"Rail,Truck","Rail,Truck",764385000,PAYSON UT
South Charleston-SOUTH CHARLESTON-OH,South Charleston,106660 HUNTINGTON RD,"SOUTH CHARLESTON, OH",45368,US,39.82062,-83.63654,"Rail,Truck","Rail,Truck",354173000,SOUTH CHARLESTON OH
Stratton Equity Cooperative-BURLINGTON-CO,Stratton Equity Cooperative,833 CESSNA ST,"BURLINGTON, CO",80807,US,39.30775,-102.26941,"Rail,Truck","Rail,Truck",745120000,BURLINGTON CO
Sylvite-PUTNAM-ON,Sylvite,2740 COUCH RD,"PUTNAM, ON",N0L 2,CA,42.98839,-80.94863,"Rail,Truck","Rail,Truck",048501000,PUTNAM ON
TEAM TRACKS EH43-GRAND FALLS-NB,"",TEAM TRACKS EH43,"GRAND FALLS, NB",E3Z 1B5,CA,47.06391,-67.74337,"Rail,Truck","Rail,Truck",017785000,GRAND FALLS NB
TEXAS ROCK CRUSHER RAIL WAY-BROWNWOOD-TX,"",TEXAS ROCK CRUSHER RAIL WAY,"BROWNWOOD, TX",76801,US,31.71194,-98.99464,"Rail,Truck","Rail,Truck",690360000,BROWNWOOD TX
TONTI RD-TONTI-IL,"",TONTI RD,"TONTI, IL",62881,US,38.66535,-88.97748,"Rail,Truck","Rail,Truck",395647000,TONTI IL
TRACK # 728 SPANISH FORK STOCK TRACK-SPANISH FORK-UT,"",TRACK # 728 SPANISH FORK STOCK TRACK,"SPANISH FORK, UT",84660,US,40.12568,-111.66833,"Rail,Truck","Rail,Truck",764373000,SPANISH FORK UT
TRACK 1310-KEENESBURG-CO,"",TRACK 1310,"KEENESBURG, CO",80643,US,40.10941,-104.52078,"Rail,Truck","Rail,Truck",742334000,KEENESBURG CO
TRACK 43-765 SPOT #2-COMPTON-CA,"",TRACK 43-765 SPOT #2,"COMPTON, CA",90220,US,33.87525,-118.21685,"Rail,Truck","Rail,Truck",883664000,REYES CA
TX-207-PANHANDLE-TX,"",TX-207,"PANHANDLE, TX",79068,US,35.3441,-101.3699,"Rail,Truck","Rail,Truck",671983000,PANHANDLE TX
Tama-Benton Cooperative-VINTON-IA,Tama-Benton Cooperative,711 S K AVE,"VINTON, IA",52349,US,42.16465,-92.02072,"Rail,Truck","Rail,Truck",535430000,VINTON IA
The Doggett Corporation-LEBANON-NJ,The Doggett Corporation,30 CHERRY ST,"LEBANON, NJ",08833,US,40.638,-74.841,"Rail,Truck","Rail,Truck",193565000,LEBANON NJ
Transflo-JACKSONVILLE-FL,Transflo,3796 WARRINGTON ST,"JACKSONVILLE, FL",32254,US,30.32,-81.74,"Rail,Truck","Rail,Truck",491200000,EDGEWOOD FL
Transflo-RICHMOND-VA,Transflo,2300 WEST LABURNUM AVE,"RICHMOND, VA",23223,US,37.54,-77.46,"Rail,Truck","Rail,Truck",257500000,RICHMOND FULTON VA
Tri Flo-ARCHBOLD-OH,Tri Flo,100 SUMMERFIELD DR,"ARCHBOLD, OH",43502,US,41.5211,-84.30446,"Rail,Truck","Rail,Truck",343497000,ARCHBOLD OH
Trupointe Cooperative Inc-BOTKINS-OH,Trupointe Cooperative Inc,400 WEST WALNUT ST,"BOTKINS, OH",45306,US,40.47826,-84.18643,"Rail,Truck","Rail,Truck",349617000,BOTKINS OH
Trupointe-MILFORD-IN,Trupointe,13795 N 100 EAST,"MILFORD, IN",46542,US,41.42907,-85.84478,"Rail,Truck","Rail,Truck",362621000,MILFORD JCT IN
Turf Care Supply-MARTINS FERRY-OH,"",100 PICOMA RD,"MARTINS FERRY, OH",43935,US,40.05333,-80.72806,"Rail,Truck","Rail,Truck",351210000,MARTINS FERRY OH
Turf Care Supply-MARTINS FERRY-OH,Turf Care Supply,100 PICOMA RD,"MARTINS FERRY, OH",43935,US,40.05333,-80.72806,"Rail,Truck","Rail,Truck",351210000,MARTINS FERRY OH
Turf Care Supply-SEBRING-FL,Turf Care Supply,425 HAYWOOD TAYLOR BLVD,"SEBRING, FL",33870,US,27.49658,-81.43423,"Rail,Truck","Rail,Truck",498120000,SEBRING FL
UP LEASE TRACK 04 004-ELWOOD-KS,"",UP LEASE TRACK 04 004,"ELWOOD, KS",66024,US,39.75517,-94.89762,"Rail,Truck","Rail,Truck",581152000,ELWOOD KS
UP TRACK 38781-IMPERIAL-CA,"",UP TRACK 38781,"IMPERIAL, CA",92251,US,32.84669,-115.56444,"Rail,Truck","Rail,Truck",888174000,IMPERIAL CA
US 2 & TIBER RD-CHESTER-MT,"",US 2 & TIBER RD,"CHESTER, MT",59522,US,48.509,-111.0798,"Rail,Truck","Rail,Truck",703173000,TIBER MT
US ROUTE 267-ROODHOUSE-IL,"",US ROUTE 267,"ROODHOUSE, IL",62082,US,39.48464,-90.3734,"Rail,Truck","Rail,Truck",393625000,ROODHOUSE IL
US-Pellett Petroleum-ATLANTIC-IA,US-Pellett Petroleum,60511 GLACIER RD,"ATLANTIC, IA",50022,US,41.40361,-95.01361,"Rail,Truck","Rail,Truck",549140000,ATLANTIC IA
United Suppliers-CIMARRON-KS,United Suppliers,19405 EAST US HWY 50,"CIMARRON, KS",67835,US,37.80532,-100.34907,"Rail,Truck","Rail,Truck",598347000,CIMARRON KS
United Suppliers-JUNIATA-NE,United Suppliers,7940 N HAYLAND AVE,"JUNIATA, NE",68955,US,40.666,-98.59203,"Rail,Truck","Rail,Truck",558127000,HAYLAND NE
United Suppliers-LAPLATTE-NE,United Suppliers,202 ALLIED RD,"LAPLATTE, NE",68123,US,41.07025,-95.92546,"Rail,Truck","Rail,Truck",553458000,LA PLATTE NE
United Suppliers-LUBBOCK-TX,"",1413 FM 2378,"LUBBOCK, TX",79407,US,33.57666,-102.0375,"Rail,Truck","Rail,Truck",677168000,HURLWOOD TX
United Suppliers-LUBBOCK-TX,United Suppliers,1413 FM 2378,"LUBBOCK, TX",79407,US,33.57666,-102.0375,"Rail,Truck","Rail,Truck",677168000,HURLWOOD TX
VITERRA USA GRAIN LLC-SAINT PAUL-MN,VITERRA USA GRAIN LLC,1061 RED ROCK RD,"SAINT PAUL, MN",55119,US,44.86721,-92.99947,"Rail,Truck","Rail,Truck",504295000,NEWPORT MN
Valley Agronomics-DONALD-OR,Valley Agronomics,10803 OAK ST,"DONALD, OR",97020,US,45.22203,-122.83896,"Rail,Truck","Rail,Truck",854111000,DONALD OR
Valley Agronomics-MCMINNVILLE-OR,Valley Agronomics,14000 SW HWY 99 W,"MCMINNVILLE, OR",97128,US,45.106,-123.079,"Rail,Truck","Rail,Truck",853973000,WHITESON OR
Valley Agronomics-MOUNT ANGEL-OR,Valley Agronomics,13007DOWNS RD NE,"MOUNT ANGEL, OR",97362,US,45.0679,-122.7999,"Rail,Truck","Rail,Truck",854123000,MT ANGEL OR
Valley Agronomics-PAUL-ID,"",640 E IDAHO ST,"PAUL, ID",83347,US,42.60878,-113.77656,"Rail,Truck","Rail,Truck",837293000,PAUL ID
Valley Agronomics-PAUL-ID,Valley Agronomics,640 E IDAHO ST,"PAUL, ID",83347,US,42.60878,-113.77656,"Rail,Truck","Rail,Truck",837293000,PAUL ID
Valley Agronomics-PRESTON-ID,Valley Agronomics,1013 W 800 N,"PRESTON, ID",83263,US,42.09307,-111.87932,"Rail,Truck","Rail,Truck",835973000,PRESTON ID
W 13134 HWY KK-RIPON-WI,"",W 13134 HWY KK,"RIPON, WI",54971,US,43.84222,-88.83583,"Rail,Truck","Rail,Truck",332352000,RIPON WI
W9710 COUNTY RD D-BEAVER DAM-WI,"",W9710 COUNTY RD D,"BEAVER DAM, WI",53916,US,43.43853,-88.88283,"Rail,Truck","Rail,Truck",335764000,SOUTH BEAVER DAM WI
WW TEAM TRACK 6GROLLC-SEABROOK-NJ,"",WW TEAM TRACK 6GROLLC,"SEABROOK, NJ",08302,US,39.50166,-75.21944,"Rail,Truck","Rail,Truck",199397000,SEABROOK NJ
Warrenton River Terminal-RAYLAND-OH,Warrenton River Terminal,MM81 1702 COUNTY RD 17A,"RAYLAND, OH",43943,US,40.19194,-80.68027,"Rail,Truck","Rail,Truck",347280000,WARRENTON OH
Western Milling LLC-MALIN-OR,Western Milling LLC,24001 MALIN SIDING RD,"MALIN, OR",97632,US,37.93861,-121.50055,"Rail,Truck","Rail,Truck",875663000,TRULL IM EX CA
Westway Terminal-HOQUIAM-WA,Westway Terminal,3128 PORT INDUSTRIAL RD,"HOQUIAM, WA",98550,US,46.97285,-123.88545,"Rail,Truck","Rail,Truck",846777000,HOQUIAM WA
Wilber Ellis-HART-TX,Wilber Ellis,2690 HWY 194,"HART, TX",79043,US,34.3845,-102.1156,"Rail,Truck","Rail,Truck",674570000,HART TX
Wilbur Ellis-BILLINGS-MT,Wilbur Ellis,7541 HESPER RD,"BILLINGS, MT",59108,US,45.7703,-108.52619,"Rail,Truck","Rail,Truck",708550000,BILLINGS MONTANA PO MT
Wilbur Ellis-DALHART-TX,Wilbur Ellis,3325 E HWY 54,"DALHART, TX",79022,US,36.06547,-102.52335,"Rail,Truck","Rail,Truck",672287000,DALHART TCF TX
Wilbur Ellis-DILLON-MT,Wilbur Ellis,225 STOLTZE AVE,"DILLON, MT",59725,US,45.12982,-112.7415,"Rail,Truck","Rail,Truck",719562000,BARRETTS MT
Wilbur Ellis-FARWELL-TX,Wilbur Ellis,48 HWY 60 E,"FARWELL, TX",79325,US,34.3896,-103.033,"Rail,Truck","Rail,Truck",674695000,FARWELL TX
Wilbur Ellis-HALSEY-OR,"",1115 W O ST,"HALSEY, OR",97348,US,44.38431,-123.10814,"Rail,Truck","Rail,Truck",854596000,HALSEY OR
Wilbur Ellis-HALSEY-OR,Wilbur Ellis,1115 W O ST,"HALSEY, OR",97348,US,44.38431,-123.10814,"Rail,Truck","Rail,Truck",854596000,HALSEY OR
Wilbur Ellis-HEARNE-TX,Wilbur Ellis,1100 W BROWN ST,"HEARNE, TX",77859,US,30.88476,-96.5967,"Rail,Truck","Rail,Truck",682482000,HEARNE TX
Wilbur Ellis-HEREFORD-TX,Wilbur Ellis,15 MILE SW HWY 60,"HEREFORD, TX",79045,US,34.8174,-102.39228,"Rail,Truck","Rail,Truck",674278000,HEREFORD TX
Wilbur Ellis-HINGHAM-MT,"",709 4TH ST,"HINGHAM, MT",59528,US,48.5576,-110.4245,"Rail,Truck","Rail,Truck",702862000,HINGHAM MT
Wilbur Ellis-HINGHAM-MT,Wilbur Ellis,709 4TH ST,"HINGHAM, MT",59528,US,48.5576,-110.4245,"Rail,Truck","Rail,Truck",702862000,HINGHAM MT
Wilbur Ellis-LITTLEFIELD-TX,Wilbur Ellis,1 MILE W HWY 84,"LITTLEFIELD, TX",79339,US,33.9253,-102.32862,"Rail,Truck","Rail,Truck",674880000,LITTLEFIELD TX
Wilbur Ellis-MOSES LAKE-WA,Wilbur Ellis,14794 RD 13 SE,"MOSES LAKE, WA",98837,US,47.06918,-119.19392,"Rail,Truck","Rail,Truck",842655000,SIELER WA
Wilbur Ellis-RIO LINDA-CA,Wilbur Ellis,841 W ELKORN BLVD,"RIO LINDA, CA",95673,US,38.68998,-121.4809,"Rail,Truck","Rail,Truck",874429000,BOMBAY CA
Wilbur Ellis-SAN JOAQUIN-CA,"",22312 RAILROAD AVE,"SAN JOAQUIN, CA",93660,US,36.60687,-120.18835,"Rail,Truck","Rail,Truck",878778000,SAN JOAQUIN CA
Wilbur Ellis-SAN JOAQUIN-CA,Wilbur Ellis,22312 RAILROAD AVE,"SAN JOAQUIN, CA",93660,US,36.60687,-120.18835,"Rail,Truck","Rail,Truck",878778000,SAN JOAQUIN CA
Wilbur Ellis-SOLEDAD-CA,"",32530 SILLIMAN RD,"SOLEDAD, CA",93960,US,36.42695,-121.33033,"Rail,Truck","Rail,Truck",879752000,SOLEDAD CA
Wilbur Ellis-SOLEDAD-CA,Wilbur Ellis,32530 SILLIMAN RD,"SOLEDAD, CA",93960,US,36.42695,-121.33033,"Rail,Truck","Rail,Truck",879752000,SOLEDAD CA
Williston-WILLISTON-ND,"",209 WASHINGTON AVE,"WILLISTON, ND",58801,US,48.1428,-103.6332,"Rail,Truck","Rail,Truck",513980000,WILLISTON ND
Williston-WILLISTON-ND,Williston,209 WASHINGTON AVE,"WILLISTON, ND",58801,US,48.1428,-103.6332,"Rail,Truck","Rail,Truck",513980000,WILLISTON ND
Yara-BELLE PLAINE-SK,Yara,2 KALIUM RD,"BELLE PLAINE, SK",S0G 0,CA,50.46097,-105.21122,"Rail,Truck","Rail,Truck",074060000,SASKFERCO SK
ZTS 1401-MINATARE-NE,"",ZTS 1401,"MINATARE, NE",69356,US,41.80774,-103.50393,"Rail,Truck","Rail,Truck",556324000,MINATARE NE
ZTS 6501 GROVE MT-MOCCASIN-MT,"",ZTS 6501 GROVE MT,"MOCCASIN, MT",59462,US,47.05128,-109.89226,"Rail,Truck","Rail,Truck",706462000,GROVE MT
ZTS 806301-THOREAU-NM,"",ZTS 806301,"THOREAU, NM",87323,US,35.40115,-108.22809,"Rail,Truck","Rail,Truck",784129000,THOREAU NM
